GTIN Code;GTIN Name;GPC Segmentation Code;GPC Brick Code;GPC Class Code;GPC Family Code;GTIN Image;Brand Code;Brand;Brand Image;Brand Link;Brand Owner;Brand Owner Code;Brand Owner Link;Brand Owner Wikipedia Link;Brand Owner Image;GCP Code;GLN Code;Logistical Owner (GLN);GLN Country ISO Code;GLN City;GLN Postal Code;GLN Address2;GLN Address3;GLN Address4;GLN Last Change;GLN Return Code;Number of Units;Package Type Code;Package Type Name;Weight (g);Weight (oz);Volume (ml);Volume (fl oz);Alcohol by Volume;Alcohol by Weight;Registration;Registration Country ISO Code;Ingredients;SERV_SIZE_G;SERV_SIZE_ML;SERV_CT;CAL;CAL_FROM_FAT;TOT_FAT_G;TOT_FAT_DV;SAT_FAT_G;SAT_FAT_DV;TRANS_FAT_G;CHOL_MG;CHOL_DV;SOD_MG;SOD_DV;POT_MG;POT_DV;TOT_CARB_G;TOT_CARB_DV;DIET_FIBER_G;DIET_FIBER_DV;SUGARS_G;PROTEIN_G;VITAMIN_A;VITAMIN_C;CALCIUM;IRON
0012000017421;Flavored Water - Grape;50000000;;;;http://product.okfn.org.s3.amazonaws.com/images/gtin/gtin-001/0012000017421.jpg;48MHLZ;Aquafina;http://product.okfn.org.s3.amazonaws.com/images/brand/48MHLZ.jpg;http://www.aquafina.com;Pepsico;000012;http://www.pepsico.com;http://en.wikipedia.org/wiki/Pepsico;http://product.okfn.org.s3.amazonaws.com/images/group/000012.jpg;0012000;0012000000003;Pepsi-Cola North America Inc.;US;Purchase;10577;700 Anderson Hill Road;;NY;;0;1;;;;;;20.0;;;GS1 US;US;FILTERED WATER,NATURAL FLAVOR,PHOSPHORIC ACID,CITRIC ACID,SODIUM HEXAMETAPHOSPHATE (TO PROTECT FLAVOR),SODIUM CITRATE,SODIUM BENZOATE (PRESERVES FRESHNESS),SUCRALOSE,CALCIUM DISODIUM EDTA (TO PROTECT FLAVOR);0.0;240.0;2.5;0.0;0.0;0.0;0.0;0.0;0.0;0.0;0.0;0.0;210.0;9.0;0.0;0.0;0.0;0.0;0.0;0.0;0.0;0.0;0;0.0;0.0;0.0
0012000031106;Flavored Water - Strawberry Kiwi;50000000;;;;http://product.okfn.org.s3.amazonaws.com/images/gtin/gtin-001/0012000031106.jpg;48MHLZ;Aquafina;http://product.okfn.org.s3.amazonaws.com/images/brand/48MHLZ.jpg;http://www.aquafina.com;Pepsico;000012;http://www.pepsico.com;http://en.wikipedia.org/wiki/Pepsico;http://product.okfn.org.s3.amazonaws.com/images/group/000012.jpg;0012000;0012000000003;Pepsi-Cola North America Inc.;US;Purchase;10577;700 Anderson Hill Road;;NY;;0;6;;;;;;16.9;;;GS1 US;US;FILTERED WATER,CITRIC ACID,NATURAL FLAVOR,SODIUM HEXAMETAPHOSPHATE (TO PROTECT FLAVOR),PHOSPHORIC ACID,POTASSIUM CITRATE,POTASSIUM SORBATE (PRESERVES FRESHNESS),SUCRALOSE,ACESULFAME POTASSIUM,CALCIUM DISODIUM EDTA (TO PROTECT FLAVOR);0.0;240.0;2.0;0.0;0.0;0.0;0.0;0.0;0.0;0.0;0.0;0.0;135.0;6.0;0.0;0.0;0.0;0.0;0.0;0.0;0.0;0.0;0;0.0;0.0;0.0
0012000204463;Water;50000000;;;;http://product.okfn.org.s3.amazonaws.com/images/gtin/gtin-001/0012000204463.jpg;48MHLZ;Aquafina;http://product.okfn.org.s3.amazonaws.com/images/brand/48MHLZ.jpg;http://www.aquafina.com;Pepsico;000012;http://www.pepsico.com;http://en.wikipedia.org/wiki/Pepsico;http://product.okfn.org.s3.amazonaws.com/images/group/000012.jpg;0012000;0012000000003;Pepsi-Cola North America Inc.;US;Purchase;10577;700 Anderson Hill Road;;NY;;0;12;;;;;;24.0;;;GS1 US;US;PURIFIED WATER;0.0;355.0;2.0;0.0;0.0;0.0;0.0;0.0;0.0;0.0;0.0;0.0;0.0;0.0;0.0;0.0;0.0;0.0;0.0;0.0;0.0;0.0;0;0.0;0.0;0.0
0033383000039;Red Delicious WAXF 2 1/2\ 5lb;50000000;;;;http://product.okfn.org.s3.amazonaws.com/images/gtin/gtin-003/0033383000039.jpg;8RB56Z;Washington Fruit & Produce Co.;http://product.okfn.org.s3.amazonaws.com/images/brand/8RB56Z.jpg;http://www.washfruit.com;;;;;;0033383;0033383000008;Produce Marketing Association Inc.;US;Newark;19714-6036;P.O. Box 6036;;DE;;0;1;;;2268.0;389.0;;;;;GS1 US;US;Apple;242.0;0.0;1.0;130.0;0.0;0.0;0.0;0.0;0.0;0.0;0.0;0.0;0.0;0.0;260.0;7.0;34.0;11.0;5.0;20.0;25.0;1.0;2;8.0;2.0;4.0
0033383000817;Golden Delicious WAXF 2 1/2\ 3lb;50000000;;;;http://product.okfn.org.s3.amazonaws.com/images/gtin/gtin-003/0033383000817.jpg;8RB56Z;Washington Fruit & Produce Co.;http://product.okfn.org.s3.amazonaws.com/images/brand/8RB56Z.jpg;http://www.washfruit.com;;;;;;0033383;0033383000008;Produce Marketing Association Inc.;US;Newark;19714-6036;P.O. Box 6036;;DE;;0;1;;;1360.0;233.0;;;;;GS1 US;US;Apple;242.0;0.0;1.0;130.0;0.0;0.0;0.0;0.0;0.0;0.0;0.0;0.0;0.0;0.0;260.0;7.0;34.0;11.0;5.0;20.0;25.0;1.0;2;8.0;2.0;4.0
0033383001531;Granny Smith WAXF 2 1/2\ 3lb;50000000;;;;http://product.okfn.org.s3.amazonaws.com/images/gtin/gtin-003/0033383001531.jpg;8RB56Z;Washington Fruit & Produce Co.;http://product.okfn.org.s3.amazonaws.com/images/brand/8RB56Z.jpg;http://www.washfruit.com;;;;;;0033383;0033383000008;Produce Marketing Association Inc.;US;Newark;19714-6036;P.O. Box 6036;;DE;;0;1;;;2268.0;389.0;;;;;GS1 US;US;Apple;242.0;0.0;1.0;130.0;0.0;0.0;0.0;0.0;0.0;0.0;0.0;0.0;0.0;0.0;260.0;7.0;34.0;11.0;5.0;20.0;25.0;1.0;2;8.0;2.0;4.0
0033383001562;Granny Smith WAXF 2 1/4\ 3lb;50000000;;;;http://product.okfn.org.s3.amazonaws.com/images/gtin/gtin-003/0033383001562.jpg;8RB56Z;Washington Fruit & Produce Co.;http://product.okfn.org.s3.amazonaws.com/images/brand/8RB56Z.jpg;http://www.washfruit.com;;;;;;0033383;0033383000008;Produce Marketing Association Inc.;US;Newark;19714-6036;P.O. Box 6036;;DE;;0;1;;;2268.0;389.0;;;;;GS1 US;US;Apple;242.0;0.0;1.0;130.0;0.0;0.0;0.0;0.0;0.0;0.0;0.0;0.0;0.0;0.0;260.0;7.0;34.0;11.0;5.0;20.0;25.0;1.0;2;8.0;2.0;4.0
0033383005485;Honeycrisp WAXF 3lb 2 ½”;50000000;;;;http://product.okfn.org.s3.amazonaws.com/images/gtin/gtin-003/0033383005485.jpg;8RB56Z;Washington Fruit & Produce Co.;http://product.okfn.org.s3.amazonaws.com/images/brand/8RB56Z.jpg;http://www.washfruit.com;;;;;;0033383;0033383000008;Produce Marketing Association Inc.;US;Newark;19714-6036;P.O. Box 6036;;DE;;0;1;;;2268.0;389.0;;;;;GS1 US;US;Apple;242.0;0.0;1.0;130.0;0.0;0.0;0.0;0.0;0.0;0.0;0.0;0.0;0.0;0.0;260.0;7.0;34.0;11.0;5.0;20.0;25.0;1.0;2;8.0;2.0;4.0
0033383007410;Gala WAXF 2 1/2\ 3lb;50000000;;;;http://product.okfn.org.s3.amazonaws.com/images/gtin/gtin-003/0033383007410.jpg;8RB56Z;Washington Fruit & Produce Co.;http://product.okfn.org.s3.amazonaws.com/images/brand/8RB56Z.jpg;http://www.washfruit.com;;;;;;0033383;0033383000008;Produce Marketing Association Inc.;US;Newark;19714-6036;P.O. Box 6036;;DE;;0;1;;;1360.0;233.0;;;;;GS1 US;US;Apple;242.0;0.0;1.0;130.0;0.0;0.0;0.0;0.0;0.0;0.0;0.0;0.0;0.0;0.0;260.0;7.0;34.0;11.0;5.0;20.0;25.0;1.0;2;8.0;2.0;4.0
0033383007441;Gala WAXF 2 1/4\ 3lb;50000000;;;;http://product.okfn.org.s3.amazonaws.com/images/gtin/gtin-003/0033383007441.jpg;8RB56Z;Washington Fruit & Produce Co.;http://product.okfn.org.s3.amazonaws.com/images/brand/8RB56Z.jpg;http://www.washfruit.com;;;;;;0033383;0033383000008;Produce Marketing Association Inc.;US;Newark;19714-6036;P.O. Box 6036;;DE;;0;1;;;1360.0;233.0;;;;;GS1 US;US;Apple;242.0;0.0;1.0;130.0;0.0;0.0;0.0;0.0;0.0;0.0;0.0;0.0;0.0;0.0;260.0;7.0;34.0;11.0;5.0;20.0;25.0;1.0;2;8.0;2.0;4.0
0039400015925;Homestyle Baked Beans;50000000;;;;http://product.okfn.org.s3.amazonaws.com/images/gtin/gtin-003/0039400015925.jpg;D13UVY;Bush's best;http://product.okfn.org.s3.amazonaws.com/images/brand/D13UVY.jpg;http://www.bushbeans.com;;;;;;0039400;0039400000006;Bush Brothers and Company;US;Knoxville;37950;P.O. Box 52330;;TN;;0;1;;;;16.0;;;;;GS1 US;US;;130.0;0.0;1.0;140.0;10.0;1.0;2.0;0.0;0.0;0.0;0.0;0.0;550.0;23.0;0.0;0.0;29.0;10.0;5.0;20.0;12.0;6.0;0;0.0;4.0;10.0
0039400016731;Butter Beans Large;50000000;;;;http://product.okfn.org.s3.amazonaws.com/images/gtin/gtin-003/0039400016731.jpg;D13UVY;Bush's best;http://product.okfn.org.s3.amazonaws.com/images/brand/D13UVY.jpg;http://www.bushbeans.com;;;;;;0039400;0039400000006;Bush Brothers and Company;US;Knoxville;37950;P.O. Box 52330;;TN;;0;1;;;;16.0;;;;;GS1 US;US;;130.0;0.0;1.0;90.0;0.0;0.0;0.0;0.0;0.0;0.0;0.0;0.0;470.0;20.0;360.0;10.0;19.0;6.0;5.0;20.0;1.0;5.0;0;0.0;2.0;10.0
0039400018070;Pinto Beans Reduced Sodium;50000000;;;;http://product.okfn.org.s3.amazonaws.com/images/gtin/gtin-003/0039400018070.jpg;D13UVY;Bush's best;http://product.okfn.org.s3.amazonaws.com/images/brand/D13UVY.jpg;http://www.bushbeans.com;;;;;;0039400;0039400000006;Bush Brothers and Company;US;Knoxville;37950;P.O. Box 52330;;TN;;0;1;;;;16.0;;;;;GS1 US;US;;130.0;0.0;1.0;100.0;0.0;0.0;0.0;0.0;0.0;0.0;0.0;0.0;220.0;9.0;310.0;9.0;18.0;6.0;7.0;28.0;0.0;6.0;0;0.0;4.0;8.0
0039400018803;Black Beans;50000000;;;;http://product.okfn.org.s3.amazonaws.com/images/gtin/gtin-003/0039400018803.jpg;D13UVY;Bush's best;http://product.okfn.org.s3.amazonaws.com/images/brand/D13UVY.jpg;http://www.bushbeans.com;;;;;;0039400;0039400000006;Bush Brothers and Company;US;Knoxville;37950;P.O. Box 52330;;TN;;0;1;;;;15.0;;;;;GS1 US;US;;130.0;0.0;1.0;105.0;5.0;0.5;1.0;0.0;0.0;0.0;0.0;0.0;480.0;20.0;490.0;14.0;23.0;8.0;7.0;28.0;1.0;8.0;0;0.0;6.0;15.0
0039400019107;Bourbon and Brown Sugar;50000000;;;;http://product.okfn.org.s3.amazonaws.com/images/gtin/gtin-003/0039400019107.jpg;D13UVY;Bush's best;http://product.okfn.org.s3.amazonaws.com/images/brand/D13UVY.jpg;http://www.bushbeans.com;;;;;;0039400;0039400000006;Bush Brothers and Company;US;Knoxville;37950;P.O. Box 52330;;TN;;0;1;;;624.0;22.0;;;;;GS1 US;US;;130.0;0.0;1.0;170.0;5.0;0.5;1.0;0.0;0.0;0.0;0.0;0.0;480.0;20.0;0.0;0.0;35.0;12.0;6.0;24.0;15.0;7.0;0;0.0;6.0;10.0
0039400019589;Bold & Spicy Baked Beans;50000000;;;;http://product.okfn.org.s3.amazonaws.com/images/gtin/gtin-003/0039400019589.jpg;D13UVY;Bush's best;http://product.okfn.org.s3.amazonaws.com/images/brand/D13UVY.jpg;http://www.bushbeans.com;;;;;;0039400;0039400000006;Bush Brothers and Company;US;Knoxville;37950;P.O. Box 52330;;TN;;0;1;;;;16.0;;;;;GS1 US;US;;130.0;0.0;1.0;110.0;10.0;1.0;2.0;0.0;0.0;0.0;0.0;0.0;560.0;23.0;0.0;0.0;24.0;8.0;5.0;20.0;9.0;6.0;6;0.0;4.0;10.0
0039400019848;Honey Baked Beans;50000000;;;;http://product.okfn.org.s3.amazonaws.com/images/gtin/gtin-003/0039400019848.jpg;D13UVY;Bush's best;http://product.okfn.org.s3.amazonaws.com/images/brand/D13UVY.jpg;http://www.bushbeans.com;;;;;;0039400;0039400000006;Bush Brothers and Company;US;Knoxville;37950;P.O. Box 52330;;TN;;0;1;;;454.0;16.0;;;;;GS1 US;US;;130.0;0.0;1.0;160.0;10.0;1.0;2.0;0.0;0.0;0.0;0.0;0.0;540.0;23.0;0.0;0.0;32.0;11.0;6.0;24.0;14.0;6.0;0;0.0;6.0;10.0
0045587529100;Pear Nectar;50000000;;;;http://product.okfn.org.s3.amazonaws.com/images/gtin/gtin-004/0045587529100.jpg;FCKJ3R;Looza;http://product.okfn.org.s3.amazonaws.com/images/brand/FCKJ3R.jpg;http://www.looza.be;Pepsico;000012;http://www.pepsico.com;http://en.wikipedia.org/wiki/Pepsico;http://product.okfn.org.s3.amazonaws.com/images/group/000012.jpg;0045587;0045587000005;Frito-Lay Trading Company GmbH;CH;Ch 3011 Bern;;Spitalgasse 2;;;;0;1;;;;;;33.8;;;GS1 US;US;WATER,PEAR PUREE CONCENTRATE,SUGAR,ASCORBIC ACID (TO PROTECT FLAVOR);0.0;240.0;4.0;150.0;0.0;0.0;0.0;0.0;0.0;0.0;0.0;0.0;10.0;0.0;0.0;0.0;36.0;12.0;3.0;10.0;34.0;0.0;0;0.0;0.0;0.0
0073410003053;White;50000000;;;;http://product.okfn.org.s3.amazonaws.com/images/gtin/gtin-007/0073410003053.jpg;R1TS5M;Arnold;http://product.okfn.org.s3.amazonaws.com/images/brand/R1TS5M.jpg;http://www.arnoldbread.com;;;;;;0073410;0071330000008;Orograin Bakeries Manufacturing, Inc.;US;Horsham;19044;255 Business Center Dr;;PA;;0;1;;;680.0;24.0;;;;;GS1 US;US;UNBLEACHED ENRICHED WHEAT FLOUR [FLOUR,MALTED BARLEY FLOUR,REDUCED IRON,NIACIN,THIAMIN MONONITRATE,(VITAMIN B1),RIBOFLAVIN (VITAMIN B2),FOLIC ACID],WATER,SUGAR,YEAST,SOYBEAN OIL,SALT,MONOGLYCERIDES,CALCIUM PROPIONATE (PRESERVATIVE),CALCIUM SULFATE,GRAIN VINEGAR,CITRIC ACID,SOY LECITHIN,DATEM,WHEAT GLUTEN,WHEY,SOY FLOUR,NONFAT MILK;43.0;0.0;16.0;1.5;2.0;0.0;0.0;0.0;0.0;0.0;0.0;0.0;150.0;6.0;0.0;0.0;22.0;7.0;0.99;3.0;3.0;3.0;0;0.0;4.0;8.0
0073410003558;Oatmeal;50000000;;;;http://product.okfn.org.s3.amazonaws.com/images/gtin/gtin-007/0073410003558.jpg;R1TS5M;Arnold;http://product.okfn.org.s3.amazonaws.com/images/brand/R1TS5M.jpg;http://www.arnoldbread.com;;;;;;0073410;0071330000008;Orograin Bakeries Manufacturing, Inc.;US;Horsham;19044;255 Business Center Dr;;PA;;0;1;;;680.0;24.0;;;;;GS1 US;US;UNBLEACHED ENRICHED WHEAT FLOUR [FLOUR,MALTED BARLEY FLOUR,REDUCED IRON,NIACIN,THIAMIN MONONITRATE (VITAMIN B1),RIBOFLAVIN (VITAMIN B2),FOLIC ACID],WATER,OATS,SUGAR,WHEAT GLUTEN,YEAST,SOYBEAN OIL,SALT,CALCIUM PROPIONATE (PRESERVATIVE),MONOGLYCERIDES,DATEM AND/OR SODIUM STEAROYL LACTYLATE,GRAIN VINEGAR,CALCIUM SULFATE,CITRIC ACID,CALCIUM CARBONATE,SOY LECITHIN,WHEY,SOY FLOUR,NONFAT MILK.;43.0;0.0;16.0;1.5;2.0;0.0;0.0;0.0;0.0;0.0;0.0;0.0;150.0;6.0;0.0;0.0;21.0;7.0;1.0;4.0;3.0;4.0;0;0.0;4.0;6.0
0073410022504;Stone Ground 100% Whole Wheat;50000000;;;;http://product.okfn.org.s3.amazonaws.com/images/gtin/gtin-007/0073410022504.jpg;R1TS5M;Arnold;http://product.okfn.org.s3.amazonaws.com/images/brand/R1TS5M.jpg;http://www.arnoldbread.com;;;;;;0073410;0071330000008;Orograin Bakeries Manufacturing, Inc.;US;Horsham;19044;255 Business Center Dr;;PA;;0;1;;;454.0;16.0;;;;;GS1 US;US;STONEGROUND WHOLE WHEAT FLOUR,WATER,WHEAT GLUTEN,SUGAR,YEAST,SOYBEAN OIL,CRACKED WHEAT,SALT,MOLASSES,MONO- AND DIGLYCERIDES,CALCIUM PROPIONATE (PRESERVATIVE),CALCIUM SULFATE,ETHOXYLATED MONO- AND DIGLYCERIDES,SOY LECITHIN,AZODICARBONAMIDE.;50.0;9.0;1.0;130.0;20.0;2.0;3.0;0.0;0.0;0.0;0.0;0.0;260.0;11.0;0.0;0.0;22.0;7.0;3.0;12.0;4.0;6.0;0;0.0;6.0;6.0
0073410032091;Marble Rye;50000000;;;;http://product.okfn.org.s3.amazonaws.com/images/gtin/gtin-007/0073410032091.jpg;R1TS5M;Arnold;http://product.okfn.org.s3.amazonaws.com/images/brand/R1TS5M.jpg;http://www.arnoldbread.com;;;;;;0073410;0071330000008;Orograin Bakeries Manufacturing, Inc.;US;Horsham;19044;255 Business Center Dr;;PA;;0;1;;;454.0;16.0;;;;;GS1 US;US;UNBLEACHED ENRICHED WHEAT FLOUR [FLOUR,MALTED BARLEY FLOUR,REDUCED IRON,NIACIN,THIAMIN MONONITRATE (VITAMIN B1),RIBOFLAVIN (VITAMIN B2),FOLIC ACID],WATER,RYE FLOUR,SUGAR,RYE MEAL,SOYBEAN OIL,SALT,YEAST,GROUND CARAWAY,WHEAT GLUTEN,CARAMEL COLOR,PRESERVATIVES (CALCIUM PROPIONATE,SODIUM PROPIONATE),MONO- AND DIGLYCERIDES,GRAIN VINEGAR,DATEM,CORN FLOUR,FUMARIC ACID,LACTIC ACID,ETHOXYLATED MONO- AND DIGLYCERIDES,MALIC ACID,CALCIUM SULFATE,CALCIUM LACTATE,CITRIC ACID,POTASSIUM CITRATE,GLUCONO DELTA LACTONE,SODIUM DIACETATE,SOY FLOUR,ACETIC ACID,SOY LECITHIN,MONOCALCIUM PHOSPHATE,POLYSORBATE 60,CALCIUM CARBONATE,NATURAL & ARTIFICIAL FLAVORS,PHOSPHORIC ACID.;30.0;15.0;80.0;10.0;1.0;2.0;0.0;0.0;0.0;0.0;0.0;0.0;210.0;9.0;0.0;0.0;14.0;5.0;0.99;3.0;1.0;2.0;0;0.0;4.0;4.0
0073410116050;Dinner Rolls;50000000;;;;http://product.okfn.org.s3.amazonaws.com/images/gtin/gtin-007/0073410116050.jpg;R1TS5M;Arnold;http://product.okfn.org.s3.amazonaws.com/images/brand/R1TS5M.jpg;http://www.arnoldbread.com;;;;;;0073410;0071330000008;Orograin Bakeries Manufacturing, Inc.;US;Horsham;19044;255 Business Center Dr;;PA;;0;1;;;;16.0;;;;;GS1 US;US;ENRICHED WHEAT FLOUR [FLOUR,MALTED BARLEY FLOUR,REDUCED IRON,NIACIN,THIAMIN MONONITRATE (VITAMIN B1),RIBOFLAVIN (VITAMIN B2),FOLIC ACID],WATER,HIGH FRUCTOSE CORN SYRUP,YEAST,SOYBEAN OIL,SALT,WHEAT GLUTEN,MONO- AND DIGLYCERIDES,CALCIUM PROPIONATE (PRESERVATIVE),CORN FLOUR,MONOCALCIUM PHOSPHATE,CALCIUM SULFATE,DATEM,SPICE & COLORING,SOY LECITHIN,NATURAL & ARTIFICIAL FLAVOR,SOY FLOUR.;38.0;0.0;12.0;110.0;15.0;1.5;2.0;0.0;0.0;0.0;0.0;0.0;200.0;8.0;0.0;0.0;21.0;7.0;0.99;3.0;3.0;3.0;0;0.0;6.0;6.0
0073410116173;Sandwich Thins Rolls Made with Whole Grain White;50000000;;;;http://product.okfn.org.s3.amazonaws.com/images/gtin/gtin-007/0073410116173.jpg;R1TS5M;Arnold;http://product.okfn.org.s3.amazonaws.com/images/brand/R1TS5M.jpg;http://www.arnoldbread.com;;;;;;0073410;0071330000008;Orograin Bakeries Manufacturing, Inc.;US;Horsham;19044;255 Business Center Dr;;PA;;0;1;;;340.0;12.0;;;;;GS1 US;US;UNBLEACHED ENRICHED WHEAT FLOUR [FLOUR,MALTED BARLEY FLOUR,REDUCED IRON,NIACIN,THIAMIN MONONITRATE (VITAMIN B1),RIBOFLAVIN (VITAMIN B2),FOLIC ACID],WATER,WHOLE WHITE WHEAT FLOUR,CELLULOSE FIBER,YEAST,POLYDEXTROSE,SUGAR,WHEAT GLUTEN,SALT,SOYBEAN AND/OR CANOLA OIL,PRESERVATIVES (CALCIUM PROPIONATE,SORBIC ACID),GUAR GUM,MONOGLYCERIDES,CITRIC ACID,SOY LECITHIN.;43.0;0.0;8.0;100.0;10.0;1.0;2.0;0.0;0.0;0.0;0.0;0.0;170.0;7.0;0.0;0.0;23.0;8.0;5.0;20.0;2.0;4.0;0;0.0;4.0;6.0
0073410134139;Pocket Thins Flatbread 8 Grain;50000000;;;;http://product.okfn.org.s3.amazonaws.com/images/gtin/gtin-007/0073410134139.jpg;R1TS5M;Arnold;http://product.okfn.org.s3.amazonaws.com/images/brand/R1TS5M.jpg;http://www.arnoldbread.com;;;;;;0073410;0071330000008;Orograin Bakeries Manufacturing, Inc.;US;Horsham;19044;255 Business Center Dr;;PA;;0;1;;;333.0;11.75;;;;;GS1 US;US;WHOLE WHEAT FLOUR,WATER,UNBLEACHED ENRICHED WHEAT FLOUR [FLOUR,MALTED BARLEY FLOUR,REDUCED IRON,NIACIN,THIAMIN MONONITRATE (VITAMIN B1),RIBOFLAVIN (VITAMIN B2),FOLIC ACID],CELLULOSE FIBER,WHEAT GLUTEN,YEAST,SUGAR,SOYBEAN AND/OR CANOLA OIL,POLYDEXTROSE,SALT,CRACKED WHEAT,RYE,PRESERVATIVES (CALCIUM PROPIONATE,SORBIC ACID),CORN GRITS,OATS,MONOGLYCERIDES,CITRIC ACID,CELLULOSE GUM,BARLEY,BROWN RICE,FLAXSEED,MILLET,TRITICALE,XANTHAN GUM,REB A (NATURAL STEVIA LEAF SWEETENER),SOY LECITHIN,SOY FLOUR.;42.0;0.0;8.0;100.0;15.0;1.5;2.0;0.0;0.0;0.0;0.0;0.0;180.0;8.0;0.0;0.0;20.0;7.0;5.0;20.0;2.0;5.0;0;0.0;6.0;6.0
0073410134184;Pocket Thins Flatbread 100% Whole Wheat;50000000;;;;http://product.okfn.org.s3.amazonaws.com/images/gtin/gtin-007/0073410134184.jpg;R1TS5M;Arnold;http://product.okfn.org.s3.amazonaws.com/images/brand/R1TS5M.jpg;http://www.arnoldbread.com;;;;;;0073410;0071330000008;Orograin Bakeries Manufacturing, Inc.;US;Horsham;19044;255 Business Center Dr;;PA;;0;1;;;333.0;11.75;;;;;GS1 US;US;WHOLE WHEAT FLOUR,WATER,WHEAT GLUTEN,CELLULOSE FIBER,YEAST,SUGAR,SOYBEAN AND/OR CANOLA OIL,POLYDEXTROSE,SALT,PRESERVATIVES (CALCIUM PROPIONATE,SORBIC ACID),MONOGLYCERIDES,CITRIC ACID,CELLULOSE GUM,XANTHAN GUM,REB A (NATURAL STEVIA LEAF SWEETENER),CORNSTARCH,SOY LECITHIN,SOY FLOUR.;42.0;0.0;8.0;100.0;15.0;1.5;2.0;0.0;0.0;0.0;0.0;0.0;190.0;8.0;0.0;0.0;20.0;7.0;5.0;20.0;2.0;5.0;0;0.0;4.0;4.0
0073410138656;Premium Potato;50000000;;;;http://product.okfn.org.s3.amazonaws.com/images/gtin/gtin-007/0073410138656.jpg;R1TS5M;Arnold;http://product.okfn.org.s3.amazonaws.com/images/brand/R1TS5M.jpg;http://www.arnoldbread.com;;;;;;0073410;0071330000008;Orograin Bakeries Manufacturing, Inc.;US;Horsham;19044;255 Business Center Dr;;PA;;0;1;;;624.0;22.0;;;;;GS1 US;US;UNBLEACHED ENRICHED WHEAT FLOUR [FLOUR,MALTED BARLEY FLOUR,REDUCED IRON,NIACIN,THIAMIN MONONITRATE (VITAMIN B1),RIBOFLAVIN (VITAMIN B2),FOLIC ACID],WATER,SUGAR,YEAST,POTATO FLOUR,SOYBEAN OIL,SALT,ENRICHMENT (CALCIUM SULFATE,VITAMIN E ACETATE,VITAMIN A PALMITATE,VITAMIN D3),WHEAT GLUTEN,CORN FLOUR,MONO- AND DIGLYCERIDES,CALCIUM PROPIONATE (PRESERVATIVE),DATEM,MONOCALCIUM PHOSPHATE,GRAIN VINEGAR,SPICE & COLORING,SOY LECITHIN,NATURAL & ARTIFICIAL FLAVOR.;35.0;0.0;18.0;100.0;15.0;1.5;2.0;0.0;0.0;0.0;0.0;0.0;170.0;7.0;0.0;0.0;18.0;6.0;0.99;3.0;3.0;3.0;15;0.0;10.0;6.0
0073410163009;White Hamburger Rolls;50000000;;;;http://product.okfn.org.s3.amazonaws.com/images/gtin/gtin-007/0073410163009.jpg;R1TS5M;Arnold;http://product.okfn.org.s3.amazonaws.com/images/brand/R1TS5M.jpg;http://www.arnoldbread.com;;;;;;0073410;0071330000008;Orograin Bakeries Manufacturing, Inc.;US;Horsham;19044;255 Business Center Dr;;PA;;0;1;;;454.0;16.0;;;;;GS1 US;US;ENRICHED WHEAT FLOUR [FLOUR,MALTED BARLEY FLOUR,NIACIN,REDUCED IRON,THIAMIN MONONITRATE (VITAMIN B1),RIBOFLAVIN (VITAMIN B2),FOLIC ACID],WATER,HIGH FRUCTOSE CORN SYRUP,YEAST,SOYBEAN OIL,SALT,WHEAT GLUTEN,MONOGLYCERIDES,CALCIUM PROPIONATE (PRESERVATIVE),CALCIUM SULFATE,DATEM,GRAIN VINEGAR,MONOCALCIUM PHOSPHATE,AZODICARBONAMIDE,SOY LECITHIN,SESAME SEEDS.;57.0;0.0;8.0;150.0;20.0;2.0;3.0;0.5;3.0;0.0;0.0;0.0;350.0;15.0;0.0;0.0;30.0;10.0;1.0;4.0;4.0;5.0;0;0.0;8.0;10.0
0087684001028;Tropical Punch Juice;50000000;;;;http://product.okfn.org.s3.amazonaws.com/images/gtin/gtin-008/0087684001028.jpg;6LW2P5;CapriSun;http://product.okfn.org.s3.amazonaws.com/images/brand/6LW2P5.jpg;http://www.caprisun.com;;;;;;0087684;0087684000007;Capri Sun, Inc.;US;Winnetka;60093;3 Lakes Dr;;IL;;0;10;;;;;177.0;;;;GS1 US;US;WATER; HIGH FRUCTOSE CORN SYRUP; APPLE JUICE CONCENTRATE; CITRIC ACID; GRAPE,PINEAPPLE,AND CHERRY JUICE CONCENTRATES; NATURAL FLAVOR; VITAMIN E ACETATE.;0.0;177.0;10.0;60.0;0.0;0.0;0.0;0.0;0.0;0.0;0.0;0.0;15.0;1.0;0.0;0.0;17.0;6.0;0.0;0.0;16.0;0.0;0;0.0;0.0;0.0
0087684001110;Grape Juice;50000000;;;;http://product.okfn.org.s3.amazonaws.com/images/gtin/gtin-008/0087684001110.jpg;6LW2P5;CapriSun;http://product.okfn.org.s3.amazonaws.com/images/brand/6LW2P5.jpg;http://www.caprisun.com;;;;;;0087684;0087684000007;Capri Sun, Inc.;US;Winnetka;60093;3 Lakes Dr;;IL;;0;10;;;;;177.0;;;;GS1 US;US;APPLE AND GRAPE JUICES FROM CONCENTRATE (WATER,APPLE AND GRAPE JUICE CONCENTRATES),CITRIC ACID (FOR TARTNESS),NATURAL FLAVOR.;0.0;177.0;10.0;80.0;0.0;0.0;0.0;0.0;0.0;0.0;0.0;0.0;25.0;1.0;0.0;0.0;22.0;7.0;0.0;0.0;21.0;0.0;0;0.0;0.0;0.0
0087684001141;Srawberry Kiwi Juice;50000000;;;;http://product.okfn.org.s3.amazonaws.com/images/gtin/gtin-008/0087684001141.jpg;6LW2P5;CapriSun;http://product.okfn.org.s3.amazonaws.com/images/brand/6LW2P5.jpg;http://www.caprisun.com;;;;;;0087684;0087684000007;Capri Sun, Inc.;US;Winnetka;60093;3 Lakes Dr;;IL;;0;10;;;;;177.0;;;;GS1 US;US;WATER,HIGH FRUCTOSE CORN SYRUP,CITRIC ACID,SUCRALOSE (SPLENDA(R) BRAND SWEETENER),NATURAL FLAVOR.;0.0;177.0;10.0;30.0;0.0;0.0;0.0;0.0;0.0;0.0;0.0;0.0;15.0;1.0;0.0;0.0;8.0;3.0;0.0;0.0;8.0;0.0;0;0.0;0.0;0.0
0087684001165;Berry Juice;50000000;;;;http://product.okfn.org.s3.amazonaws.com/images/gtin/gtin-008/0087684001165.jpg;6LW2P5;CapriSun;http://product.okfn.org.s3.amazonaws.com/images/brand/6LW2P5.jpg;http://www.caprisun.com;;;;;;0087684;0087684000007;Capri Sun, Inc.;US;Winnetka;60093;3 Lakes Dr;;IL;;0;10;;;;;177.0;;;;GS1 US;US;WATER,HIGH FRUCTOSE CORN SYRUP,CITRIC ACID,SUCRALOSE (SPLENDA(R) BRAND SWEETENER),NATURAL FLAVOR.;0.0;177.0;10.0;30.0;0.0;0.0;0.0;0.0;0.0;0.0;0.0;0.0;15.0;1.0;0.0;0.0;8.0;3.0;0.0;0.0;8.0;0.0;0;0.0;0.0;0.0
0836093012053;Juice Clementine;50000000;;;;http://product.okfn.org.s3.amazonaws.com/images/gtin/gtin-083/0836093012053.jpg;BI5TXW;Izze;http://product.okfn.org.s3.amazonaws.com/images/brand/BI5TXW.jpg;http://www.izze.com;Pepsico;000012;http://www.pepsico.com;http://en.wikipedia.org/wiki/Pepsico;http://product.okfn.org.s3.amazonaws.com/images/group/000012.jpg;083609301;0021224000003;PepsiCo, Inc.;US;Purchase;10577;700 Anderson Hill Rd;;NY;;0;4;;;;;;8.4;;;GS1 US;US;PURE JUICE MADE FROM APPLE,WHITE GRAPE,ORANGE,CLEMENTINE AND ACEROLA JUICE CONCENTRATES,SPARKLING WATER,CITRIC ACID,GUM ARABIC,NATURAL FLAVOR,BETA CAROTENE (COLOR),ASCORBIC ACID (VITAMIN C),NIACINAMIDE,PYRIDOXINE HYDROCHLORIDE (VITAMIN B6);0.0;250.0;1.0;90.0;0.0;0.0;0.0;0.0;0.0;0.0;0.0;0.0;15.0;1.0;0.0;0.0;21.0;7.0;0.0;0.0;19.0;0.0;0;30.0;0.0;0.0
0836093013074;Juice Apple;50000000;;;;http://product.okfn.org.s3.amazonaws.com/images/gtin/gtin-083/0836093013074.jpg;BI5TXW;Izze;http://product.okfn.org.s3.amazonaws.com/images/brand/BI5TXW.jpg;http://www.izze.com;Pepsico;000012;http://www.pepsico.com;http://en.wikipedia.org/wiki/Pepsico;http://product.okfn.org.s3.amazonaws.com/images/group/000012.jpg;083609301;0021224000003;PepsiCo, Inc.;US;Purchase;10577;700 Anderson Hill Rd;;NY;;0;24;;;;;;8.4;;;GS1 US;US;PURE JUICE MADE FROM APPLE,WHITE GRAPE AND ACEROLA JUICE CONCENTRATES,SPARKLING WATER,NATURAL FLAVOR,CITRIC ACID,ASCORBIC ACID (VITAMIN C),NIACINAMIDE,PYRIDOXINE HYDROCHLORIDE (VITAMIN B6);0.0;250.0;1.0;90.0;0.0;0.0;0.0;0.0;0.0;0.0;0.0;0.0;15.0;1.0;0.0;0.0;23.0;8.0;0.0;0.0;21.0;0.0;0;30.0;0.0;0.0
0836093014026;Juice Blackberry;50000000;;;;http://product.okfn.org.s3.amazonaws.com/images/gtin/gtin-083/0836093014026.jpg;BI5TXW;Izze;http://product.okfn.org.s3.amazonaws.com/images/brand/BI5TXW.jpg;http://www.izze.com;Pepsico;000012;http://www.pepsico.com;http://en.wikipedia.org/wiki/Pepsico;http://product.okfn.org.s3.amazonaws.com/images/group/000012.jpg;083609301;0021224000003;PepsiCo, Inc.;US;Purchase;10577;700 Anderson Hill Rd;;NY;;0;24;;;;;;8.4;;;GS1 US;US;PURE JUICE MADE FROM APPLE,WHITE GRAPE,BLACKBERRY,RASPBERRY AND ACEROLA JUICE CONCENTRATES,SPARKLING WATER,CITRIC ACID,NATURAL FLAVOR,RED GRAPE JUICE CONCENTRATE (COLOR),ASCORBIC ACID (VITAMIN C),NIACINAMIDE,PYRIDOXINE HYDROCHLORIDE (VITAMIN B6).;0.0;250.0;1.0;90.0;0.0;0.0;0.0;0.0;0.0;0.0;0.0;0.0;20.0;1.0;0.0;0.0;22.0;7.0;0.0;0.0;20.0;0.0;0;30.0;0.0;0.0
0836093401314;Juice Black Raspberry;50000000;;;;http://product.okfn.org.s3.amazonaws.com/images/gtin/gtin-083/0836093401314.jpg;BI5TXW;Izze;http://product.okfn.org.s3.amazonaws.com/images/brand/BI5TXW.jpg;http://www.izze.com;Pepsico;000012;http://www.pepsico.com;http://en.wikipedia.org/wiki/Pepsico;http://product.okfn.org.s3.amazonaws.com/images/group/000012.jpg;083609340;0021224000003;PepsiCo, Inc.;US;Purchase;10577;700 Anderson Hill Rd;;NY;;0;1;;;;;;12.0;;;GS1 US;US;SPARKLING WATER,JUICE MADE FROM WHITE GRAPE,APPLE,BLACKBERRY AND RED RASPBERRY CONCENTRATES,NATURAL FLAVOR,CITRIC ACID,BLUEBERRY AND CARROT JUICE CONCENTRATES (COLOR);0.0;360.0;1.0;50.0;0.0;0.0;0.0;0.0;0.0;0.0;0.0;0.0;10.0;1.0;0.0;0.0;12.0;4.0;0.0;0.0;11.0;0.0;0;0.0;0.0;0.0
0857063002119;Three Cheese Lasagna;50000000;;;;http://product.okfn.org.s3.amazonaws.com/images/gtin/gtin-085/0857063002119.jpg;MEJZBY;Saffron Road;http://product.okfn.org.s3.amazonaws.com/images/brand/MEJZBY.jpg;http://www.saffronroadfood.com;;;;;;0857063002;0857063002003;American Halal;US;Stamford;06905;1177 Summer St;;CT;;0;1;;;;11.0;;;;;GS1 US;US;Diced Tomatoes (Diced Tomatoes,Tomato Juice,Salt,Calcium Chloride,Citric Acid),Lasagna Noodles (Durum Winter Wheat Semolina,Niacin,Ferrous Sulfate,Thiamine Mononitrate,Riboflavin,Folic Acid,Water,Olive Oil),Tomato Puree (Tomato Concentrate,Water,Tomato Paste,Citric Acid),Ricotta Cheese (Pasteurized Milk,Vinegar,Salt)*,Zucchini,Onions,Eggplant,Mozzarella Cheese (Pasteurized Milk,Vinegar,Salt,Enzymes)*,Red Bell Pepper,Olive Oil,Parmesan Cheese (Cultured Milk,Enzymes,Salt)*,Fresh Basil,Garlic,Cane Sugar,Sea Salt,Oregano,Black Pepper,Thyme.*CHEESES CONTAIN NO ANIMAL RENNET AND ARE MADE FROM rBST-FREE MILK.CONTAINS: MILK,WHEAT.;163.0;0.0;2.0;210.0;90.0;10.0;15.0;5.0;26.0;0.0;30.0;10.0;440.0;18.0;105.0;3.0;19.0;6.0;2.0;7.0;4.0;12.0;10;10.0;25.0;6.0
0857063002218;Tandoori Chicken Nuggets;50000000;;;;http://product.okfn.org.s3.amazonaws.com/images/gtin/gtin-085/0857063002218.jpg;MEJZBY;Saffron Road;http://product.okfn.org.s3.amazonaws.com/images/brand/MEJZBY.jpg;http://www.saffronroadfood.com;;;;;;0857063002;0857063002003;American Halal;US;Stamford;06905;1177 Summer St;;CT;;0;1;;;;8.0;;;;;GS1 US;US;Chicken Breast Chunks,Water. Contains 2% Or Less Of: Rice Starch,Rice Flour,Corn Starch,Lemon Juice Concentrate,Vinegar,Corn Flour,Seasoning (Paprika,Salt,Spices,Onion Powder,Garlic Powder,Turmeric,Lemon Juice Solids,Citric Acid,Oleoresin Paprika,Natural Extractives of Annatto),Sea Salt,Spices,Garlic Powder,Onion Powder,Tocopherols (Vitamin E). GLAZED WITH: Water,Seasoning (Paprika,Salt,Spices,Onion Powder,Garlic Powder,Turmeric,Lemon Juice Solids,Citric Acid,Oleoresin Paprika,Natural Extractives of Annatto),Expeller Pressed Canola Oil,Corn Starch.;85.0;0.0;2.5;140.0;40.0;4.5;7.0;1.0;5.0;0.0;50.0;17.0;390.0;16.0;0.0;0.0;5.0;2.0;0.0;0.0;0.0;18.0;10;0.0;2.0;6.0
0857063002355;Dates, Tamarind & Walnuts;50000000;;;;http://product.okfn.org.s3.amazonaws.com/images/gtin/gtin-085/0857063002355.jpg;MEJZBY;Saffron Road;http://product.okfn.org.s3.amazonaws.com/images/brand/MEJZBY.jpg;http://www.saffronroadfood.com;;;;;;0857063002;0857063002003;American Halal;US;Stamford;06905;1177 Summer St;;CT;;0;1;;;;8.25;;;;;GS1 US;US;Phyllo Dough (Enriched Unbleached Unbromated Wheat Flour [Wheat Flour Enriched (Niacin,Iron,Thiamine Mononitrate,Riboflavin,Folic Acid),Malted Barley Flour],Filtered Water,Organic Wheat Starch,Organic Tapioca Starch,Malted Barley Flour,Natural Flavor,Organic Expeller Pressed Soy Oil,Salt,Non-GMO Soy Lecithin),Chopped Date (Dates,Rice Flour),Tamarind Puree (Tamarind,Cane Sugar),Walnuts,Organic Expeller Pressed Soy Oil,Cinnamon,Sea Salt,Red Chili Pepper,Clove. CONTAINS: WALNUTS,SOY AND WHEAT INGREDIENTS.;78.0;0.0;3.0;250.0;90.0;10.0;16.0;1.0;4.0;0.0;0.0;0.0;160.0;7.0;0.0;0.0;37.0;12.0;3.0;12.0;4.0;4.0;0;2.0;2.0;8.0
0857063002638;Lemongrass Basil;50000000;;;;http://product.okfn.org.s3.amazonaws.com/images/gtin/gtin-085/0857063002638.jpg;MEJZBY;Saffron Road;http://product.okfn.org.s3.amazonaws.com/images/brand/MEJZBY.jpg;http://www.saffronroadfood.com;;;;;;0857063002;0857063002003;American Halal;US;Stamford;06905;1177 Summer St;;CT;;0;1;;;;7.0;;;;;GS1 US;US;Water,Desiccated Coconut,Green Chile Puree (Green Chilies,Citric Acid),Sugar,Garlic Puree (Garlic,Vinegar),Canola Oil,Modified Corn Starch,Salt,Lemon Juice Concentrate,Lime Juice Concentrate,Natural Flavors,Soy Lecithin,Spices,Garlic Powder,Maltodextrin,Xanthan Gum,Dextrose,Turmeric,Sunflower Oil,Natural Smoke Flavor. CONTAINS: SOY,COCONUT.;30.0;0.0;7.0;70.0;45.0;5.0;8.0;3.5;17.0;0.0;0.0;0.0;125.0;5.0;0.0;0.0;4.0;1.0;0.0;4.0;2.0;0.0;0;2.0;0.0;2.0
0857063002669;Korma;50000000;;;;http://product.okfn.org.s3.amazonaws.com/images/gtin/gtin-085/0857063002669.jpg;MEJZBY;Saffron Road;http://product.okfn.org.s3.amazonaws.com/images/brand/MEJZBY.jpg;http://www.saffronroadfood.com;;;;;;0857063002;0857063002003;American Halal;US;Stamford;06905;1177 Summer St;;CT;;0;1;;;;7.0;;;;;GS1 US;US;Water,Organic Yogurt (Organic Cultured Grade A Skim Milk,Organic Cream),Coconut Milk (Coconut Milk,Water,Xanthan Gum),Apple Juice Concentrate,Non-Gmo Native Corn Starch,Ginger Puree,Onion,Non-Gmo Cane Sugar,Garlic,Spices,Sea Salt,Citric Acid,Xanthan Gum,Beta Carotene (Color). CONTAINS: MILK,COCONUT.;30.0;0.0;7.0;30.0;10.0;1.0;2.0;1.0;4.0;0.0;0.0;0.0;110.0;5.0;0.0;0.0;5.0;2.0;0.0;1.0;3.0;0.0;0;2.0;0.0;9.0
0857063002676;Thai Red Curry;50000000;;;;http://product.okfn.org.s3.amazonaws.com/images/gtin/gtin-085/0857063002676.jpg;MEJZBY;Saffron Road;http://product.okfn.org.s3.amazonaws.com/images/brand/MEJZBY.jpg;http://www.saffronroadfood.com;;;;;;0857063002;0857063002003;American Halal;US;Stamford;06905;1177 Summer St;;CT;;0;1;;;;7.0;;;;;GS1 US;US;Water,Coconut Milk (Coconut Milk,Water,Xanthan Gum),Lemongrass Puree (Lemongrass,Water,Xanthan Gum,Citric Acid),Apple Juice Concentrate,Ginger Puree,Non-Gmo Native Corn Starch,Paprika,Spices,Sea Salt,Lime Juice Concentrate,Garlic,Thai. Contains Coconut.;30.0;0.0;7.0;20.0;10.0;1.0;2.0;1.0;4.0;0.0;0.0;0.0;160.0;7.0;0.0;0.0;3.0;1.0;0.0;3.0;0.0;0.0;2;1.0;0.0;2.0
0012000013119;Water;50000000;;;;http://product.okfn.org.s3.amazonaws.com/images/gtin/gtin-001/0012000013119.jpg;48MHLZ;Aquafina;http://product.okfn.org.s3.amazonaws.com/images/brand/48MHLZ.jpg;http://www.aquafina.com;Pepsico;000012;http://www.pepsico.com;http://en.wikipedia.org/wiki/Pepsico;http://product.okfn.org.s3.amazonaws.com/images/group/000012.jpg;0012000;0012000000003;Pepsi-Cola North America Inc.;US;Purchase;10577;700 Anderson Hill Road;;NY;;0;32;;;;16.9;;;;;GS1 US;US;PURIFIED WATER;0.0;240.0;2.0;0.0;0.0;0.0;0.0;0.0;0.0;0.0;0.0;0.0;0.0;0.0;0.0;0.0;0.0;0.0;0.0;0.0;0.0;0.0;0;0.0;0.0;0.0
0012000017438;Flavored Water - Grape;50000000;;;;http://product.okfn.org.s3.amazonaws.com/images/gtin/gtin-001/0012000017438.jpg;48MHLZ;Aquafina;http://product.okfn.org.s3.amazonaws.com/images/brand/48MHLZ.jpg;http://www.aquafina.com;Pepsico;000012;http://www.pepsico.com;http://en.wikipedia.org/wiki/Pepsico;http://product.okfn.org.s3.amazonaws.com/images/group/000012.jpg;0012000;0012000000003;Pepsi-Cola North America Inc.;US;Purchase;10577;700 Anderson Hill Road;;NY;;0;6;;;;;;16.9;;;GS1 US;US;FILTERED WATER,NATURAL FLAVOR,PHOSPHORIC ACID,CITRIC ACID,SODIUM HEXAMETAPHOSPHATE (TO PROTECT FLAVOR),SODIUM CITRATE,SODIUM BENZOATE (PRESERVES FRESHNESS),SUCRALOSE,CALCIUM DISODIUM EDTA (TO PROTECT FLAVOR);0.0;240.0;2.0;0.0;0.0;0.0;0.0;0.0;0.0;0.0;0.0;0.0;180.0;7.0;0.0;0.0;0.0;0.0;0.0;0.0;0.0;0.0;0;0.0;0.0;0.0
0012000031120;Flavored Water - Lemon;50000000;;;;http://product.okfn.org.s3.amazonaws.com/images/gtin/gtin-001/0012000031120.jpg;48MHLZ;Aquafina;http://product.okfn.org.s3.amazonaws.com/images/brand/48MHLZ.jpg;http://www.aquafina.com;Pepsico;000012;http://www.pepsico.com;http://en.wikipedia.org/wiki/Pepsico;http://product.okfn.org.s3.amazonaws.com/images/group/000012.jpg;0012000;0012000000003;Pepsi-Cola North America Inc.;US;Purchase;10577;700 Anderson Hill Road;;NY;;0;6;;;;16.9;;;;;GS1 US;US;FILTERED WATER,CITRIC ACID,SODIUM HEXAMETAPHOSPHATE (TO PROTECT FLAVOR),POTASSIUM CITRATE,NATURAL FLAVOR,POTASSIUM SORBATE (PRESERVES FRESHNESS),PHOSPHORIC ACID,SUCRALOSE,ACESULFAME POTASSIUM,CALCIUM DISODIUM EDTA (TO PROTECT FLAVOR);0.0;240.0;2.0;0.0;0.0;0.0;0.0;0.0;0.0;0.0;0.0;0.0;65.0;3.0;0.0;0.0;0.0;0.0;0.0;0.0;0.0;0.0;0;0.0;0.0;0.0
0033383000848;Golden Delicious WAXF 2 1/4\ 3lb;50000000;;;;http://product.okfn.org.s3.amazonaws.com/images/gtin/gtin-003/0033383000848.jpg;8RB56Z;Washington Fruit & Produce Co.;http://product.okfn.org.s3.amazonaws.com/images/brand/8RB56Z.jpg;http://www.washfruit.com;;;;;;0033383;0033383000008;Produce Marketing Association Inc.;US;Newark;19714-6036;P.O. Box 6036;;DE;;0;1;;;1360.0;233.0;;;;;GS1 US;US;Apple;242.0;0.0;1.0;130.0;0.0;0.0;0.0;0.0;0.0;0.0;0.0;0.0;0.0;0.0;260.0;7.0;34.0;11.0;5.0;20.0;25.0;1.0;2;8.0;2.0;4.0
0033383004693;Braeburn WAXF 2 1/2\ 3lb;50000000;;;;http://product.okfn.org.s3.amazonaws.com/images/gtin/gtin-003/0033383004693.jpg;8RB56Z;Washington Fruit & Produce Co.;http://product.okfn.org.s3.amazonaws.com/images/brand/8RB56Z.jpg;http://www.washfruit.com;;;;;;0033383;0033383000008;Produce Marketing Association Inc.;US;Newark;19714-6036;P.O. Box 6036;;DE;;0;1;;;1360.0;233.0;;;;;GS1 US;US;Apple;242.0;0.0;1.0;130.0;0.0;0.0;0.0;0.0;0.0;0.0;0.0;0.0;0.0;0.0;260.0;7.0;34.0;11.0;5.0;20.0;25.0;1.0;2;8.0;2.0;4.0
0033383004716;Braeburn WAXF 2 1/2\ 5lb;50000000;;;;http://product.okfn.org.s3.amazonaws.com/images/gtin/gtin-003/0033383004716.jpg;8RB56Z;Washington Fruit & Produce Co.;http://product.okfn.org.s3.amazonaws.com/images/brand/8RB56Z.jpg;http://www.washfruit.com;;;;;;0033383;0033383000008;Produce Marketing Association Inc.;US;Newark;19714-6036;P.O. Box 6036;;DE;;0;1;;;2268.0;389.0;;;;;GS1 US;US;Apple;242.0;0.0;1.0;130.0;0.0;0.0;0.0;0.0;0.0;0.0;0.0;0.0;0.0;0.0;260.0;7.0;34.0;11.0;5.0;20.0;25.0;1.0;2;8.0;2.0;4.0
0033383005492;Jonagold WAXF 2 1/2\ 3lb;50000000;;;;http://product.okfn.org.s3.amazonaws.com/images/gtin/gtin-003/0033383005492.jpg;8RB56Z;Washington Fruit & Produce Co.;http://product.okfn.org.s3.amazonaws.com/images/brand/8RB56Z.jpg;http://www.washfruit.com;;;;;;0033383;0033383000008;Produce Marketing Association Inc.;US;Newark;19714-6036;P.O. Box 6036;;DE;;0;1;;;1360.0;233.0;;;;;GS1 US;US;Apple;242.0;0.0;1.0;130.0;0.0;0.0;0.0;0.0;0.0;0.0;0.0;0.0;0.0;0.0;260.0;7.0;34.0;11.0;5.0;20.0;25.0;1.0;2;8.0;2.0;4.0
0039400016014;Onion Baked Beans;50000000;;;;http://product.okfn.org.s3.amazonaws.com/images/gtin/gtin-003/0039400016014.jpg;D13UVY;Bush's best;http://product.okfn.org.s3.amazonaws.com/images/brand/D13UVY.jpg;http://www.bushbeans.com;;;;;;0039400;0039400000006;Bush Brothers and Company;US;Knoxville;37950;P.O. Box 52330;;TN;;0;1;;;;16.0;;;;;GS1 US;US;;130.0;0.0;1.0;140.0;10.0;1.0;2.0;0.0;0.0;0.0;0.0;0.0;550.0;23.0;0.0;0.0;29.0;10.0;5.0;20.0;12.0;6.0;0;0.0;4.0;10.0
0039400016786;Butter Beans Speckled;50000000;;;;http://product.okfn.org.s3.amazonaws.com/images/gtin/gtin-003/0039400016786.jpg;D13UVY;Bush's best;http://product.okfn.org.s3.amazonaws.com/images/brand/D13UVY.jpg;http://www.bushbeans.com;;;;;;0039400;0039400000006;Bush Brothers and Company;US;Knoxville;37950;P.O. Box 52330;;TN;;0;1;;;454.0;16.0;;;;;GS1 US;US;;130.0;0.0;1.0;90.0;0.0;0.0;0.0;0.0;0.0;0.0;0.0;0.0;460.0;19.0;350.0;10.0;21.0;7.0;6.0;24.0;0.0;6.0;0;0.0;6.0;10.0
0039400018841;Black Beans Seasoned Recipe;50000000;;;;http://product.okfn.org.s3.amazonaws.com/images/gtin/gtin-003/0039400018841.jpg;D13UVY;Bush's best;http://product.okfn.org.s3.amazonaws.com/images/brand/D13UVY.jpg;http://www.bushbeans.com;;;;;;0039400;0039400000006;Bush Brothers and Company;US;Knoxville;37950;P.O. Box 52330;;TN;;0;1;;;;15.0;;;;;GS1 US;US;;130.0;0.0;1.0;110.0;5.0;0.5;1.0;0.0;0.0;0.0;0.0;0.0;450.0;20.0;490.0;14.0;23.0;8.0;7.0;28.0;1.0;8.0;0;0.0;6.0;15.0
0039400018926;Refried Beans Fat Free;50000000;;;;http://product.okfn.org.s3.amazonaws.com/images/gtin/gtin-003/0039400018926.jpg;D13UVY;Bush's best;http://product.okfn.org.s3.amazonaws.com/images/brand/D13UVY.jpg;http://www.bushbeans.com;;;;;;0039400;0039400000006;Bush Brothers and Company;US;Knoxville;37950;P.O. Box 52330;;TN;;0;1;;;454.0;16.0;;;;;GS1 US;US;;125.0;0.0;1.0;130.0;0.0;0.0;0.0;0.0;0.0;0.0;0.0;0.0;480.0;20.0;500.0;14.0;24.0;8.0;7.0;28.0;0.0;9.0;0;0.0;6.0;15.0
0039400019121;Smokehouse Tradition;50000000;;;;http://product.okfn.org.s3.amazonaws.com/images/gtin/gtin-003/0039400019121.jpg;D13UVY;Bush's best;http://product.okfn.org.s3.amazonaws.com/images/brand/D13UVY.jpg;http://www.bushbeans.com;;;;;;0039400;0039400000006;Bush Brothers and Company;US;Knoxville;37950;P.O. Box 52330;;TN;;0;1;;;624.0;22.0;;;;;GS1 US;US;;130.0;0.0;1.0;160.0;10.0;1.0;2.0;0.0;0.0;0.0;0.0;0.0;570.0;24.0;0.0;0.0;34.0;11.0;5.0;20.0;15.0;7.0;0;0.0;6.0;6.0
0039400019206;Black Bean Fiesta;50000000;;;;http://product.okfn.org.s3.amazonaws.com/images/gtin/gtin-003/0039400019206.jpg;D13UVY;Bush's best;http://product.okfn.org.s3.amazonaws.com/images/brand/D13UVY.jpg;http://www.bushbeans.com;;;;;;0039400;0039400000006;Bush Brothers and Company;US;Knoxville;37950;P.O. Box 52330;;TN;;0;1;;;624.0;22.0;;;;;GS1 US;US;;130.0;0.0;1.0;110.0;10.0;1.0;2.0;0.0;0.0;0.0;0.0;0.0;570.0;24.0;0.0;0.0;21.0;7.0;5.0;20.0;2.0;5.0;0;0.0;6.0;8.0
0039400019695;Maple Cured Bacon Baked Beans;50000000;;;;http://product.okfn.org.s3.amazonaws.com/images/gtin/gtin-003/0039400019695.jpg;D13UVY;Bush's best;http://product.okfn.org.s3.amazonaws.com/images/brand/D13UVY.jpg;http://www.bushbeans.com;;;;;;0039400;0039400000006;Bush Brothers and Company;US;Knoxville;37950;P.O. Box 52330;;TN;;0;1;;;454.0;16.0;;;;;GS1 US;US;;130.0;0.0;1.0;140.0;10.0;1.0;2.0;0.0;0.0;0.0;0.0;0.0;620.0;26.0;0.0;0.0;28.0;9.0;5.0;20.0;11.0;6.0;0;2.0;6.0;10.0
0039400019725;Country Style Baked Beans;50000000;;;;http://product.okfn.org.s3.amazonaws.com/images/gtin/gtin-003/0039400019725.jpg;D13UVY;Bush's best;http://product.okfn.org.s3.amazonaws.com/images/brand/D13UVY.jpg;http://www.bushbeans.com;;;;;;0039400;0039400000006;Bush Brothers and Company;US;Knoxville;37950;P.O. Box 52330;;TN;;0;1;;;454.0;16.0;;;;;GS1 US;US;;130.0;0.0;1.0;160.0;10.0;1.0;2.0;0.0;0.0;0.0;0.0;0.0;680.0;28.0;0.0;0.0;33.0;11.0;5.0;20.0;16.0;6.0;0;0.0;4.0;10.0
0045587520107;Apricot Nectar;50000000;;;;http://product.okfn.org.s3.amazonaws.com/images/gtin/gtin-004/0045587520107.jpg;FCKJ3R;Looza;http://product.okfn.org.s3.amazonaws.com/images/brand/FCKJ3R.jpg;http://www.looza.be;Pepsico;000012;http://www.pepsico.com;http://en.wikipedia.org/wiki/Pepsico;http://product.okfn.org.s3.amazonaws.com/images/group/000012.jpg;0045587;0045587000005;Frito-Lay Trading Company GmbH;CH;Ch 3011 Bern;;Spitalgasse 2;;;;0;1;;;;;;33.8;;;GS1 US;US;WATER,APRICOT PUREE CONCENTRATE,SUGAR,ASCORBIC ACD (TO PROTECT FLAVOR);240.0;0.0;4.0;150.0;0.0;0.0;0.0;0.0;0.0;0.0;0.0;0.0;10.0;0.0;0.0;0.0;35.0;12.0;2.0;8.0;35.0;0.0;0;0.0;0.0;0.0
0045587533107;Peach Nectar;50000000;;;;http://product.okfn.org.s3.amazonaws.com/images/gtin/gtin-004/0045587533107.jpg;FCKJ3R;Looza;http://product.okfn.org.s3.amazonaws.com/images/brand/FCKJ3R.jpg;http://www.looza.be;Pepsico;000012;http://www.pepsico.com;http://en.wikipedia.org/wiki/Pepsico;http://product.okfn.org.s3.amazonaws.com/images/group/000012.jpg;0045587;0045587000005;Frito-Lay Trading Company GmbH;CH;Ch 3011 Bern;;Spitalgasse 2;;;;0;1;;;;;;33.8;;;GS1 US;US;WATER,PEACH PUREE CONCENTRATE,SUGAR,ASCORBIC ACID (TO PROTECT FLAVOR);0.0;240.0;4.0;160.0;0.0;0.0;0.0;0.0;0.0;0.0;0.0;0.0;10.0;0.0;0.0;0.0;38.0;13.0;2.0;7.0;38.0;0.0;0;0.0;0.0;0.0
0045587547104;Mango Nectar;50000000;;;;http://product.okfn.org.s3.amazonaws.com/images/gtin/gtin-004/0045587547104.jpg;FCKJ3R;Looza;http://product.okfn.org.s3.amazonaws.com/images/brand/FCKJ3R.jpg;http://www.looza.be;Pepsico;000012;http://www.pepsico.com;http://en.wikipedia.org/wiki/Pepsico;http://product.okfn.org.s3.amazonaws.com/images/group/000012.jpg;0045587;0045587000005;Frito-Lay Trading Company GmbH;CH;Ch 3011 Bern;;Spitalgasse 2;;;;0;1;;;;;;33.8;;;GS1 US;US;WATER,MANGO PUREE CONCENTRATE,SUGAR;0.0;240.0;4.0;130.0;0.0;0.0;0.0;0.0;0.0;0.0;0.0;0.0;10.0;0.0;0.0;0.0;30.0;10.0;1.0;4.0;30.0;0.0;0;0.0;0.0;0.0
0073410013540;Oat Bran;50000000;;;;http://product.okfn.org.s3.amazonaws.com/images/gtin/gtin-007/0073410013540.jpg;R1TS5M;Arnold;http://product.okfn.org.s3.amazonaws.com/images/brand/R1TS5M.jpg;http://www.arnoldbread.com;;;;;;0073410;0071330000008;Orograin Bakeries Manufacturing, Inc.;US;Horsham;19044;255 Business Center Dr;;PA;;0;1;;;680.0;24.0;;;;;GS1 US;US;UNBLEACHED ENRICHED WHEAT FLOUR [FLOUR,MALTED BARLEY FLOUR,REDUCED IRON,NIACIN,THIAMIN MONONITRATE (VITAMIN B1),RIBOFLAVIN (VITAMIN B2),FOLIC ACID],WATER,SUGAR,OAT BRAN,OATS,WHEAT GLUTEN,SOYBEAN OIL,YEAST,SALT,MOLASSES,MONOGLYCERIDES,CALCIUM PROPIONATE (PRESERVATIVE),CALCIUM CARBONATE,NATURAL FLAVOR,CALCIUM SULFATE,DATEM,GRAIN VINEGAR,CITRIC ACID,SOY LECITHIN,NUTS [WALNUTS AND/OR HAZELNUTS (FILBERTS) AND/OR ALMONDS],WHEY,SOY FLOUR,NONFAT MILK;43.0;0.0;16.0;110.0;15.0;1.5;2.0;0.0;0.0;0.0;0.0;0.0;150.0;6.0;0.0;0.0;20.0;7.0;1.0;4.0;3.0;4.0;0;0.0;8.0;8.0
0073410013557;Oatnut;50000000;;;;http://product.okfn.org.s3.amazonaws.com/images/gtin/gtin-007/0073410013557.jpg;R1TS5M;Arnold;http://product.okfn.org.s3.amazonaws.com/images/brand/R1TS5M.jpg;http://www.arnoldbread.com;;;;;;0073410;0071330000008;Orograin Bakeries Manufacturing, Inc.;US;Horsham;19044;255 Business Center Dr;;PA;;0;1;;;680.0;24.0;;;;;GS1 US;US;WHOLE WHITE WHEAT FLOUR,UNBLEACHED ENRICHED WHEAT FLOUR [FLOUR,MALTED BARLEY FLOUR,REDUCED IRON,NIACIN,THIAMIN MONONITRATE (VITAMIN B1),RIBOFLAVIN (VITAMIN B2),FOLIC ACID],WATER,SUGAR,OATS,YEAST,WHEAT GLUTEN,HAZELNUTS (FILBERTS),SOYBEAN OIL,SALT,SUNFLOWER SEEDS,CALCIUM PROPIONATE (PRESERVATIVE),MONOGLYCERIDES,DATEM,CALCIUM SULFATE,GRAIN VINEGAR,CITRIC ACID,SOY LECITHIN,CALCIUM CARBONATE,NUTS [WALNUTS AND/OR ALMONDS],WHEY,SOY FLOUR,NONFAT MILK;43.0;0.0;16.0;120.0;25.0;2.5;4.0;0.0;0.0;0.0;0.0;0.0;150.0;6.0;0.0;0.0;22.0;7.0;2.0;8.0;4.0;4.0;0;0.0;4.0;8.0
0073410013656;Health Nut;50000000;;;;http://product.okfn.org.s3.amazonaws.com/images/gtin/gtin-007/0073410013656.jpg;R1TS5M;Arnold;http://product.okfn.org.s3.amazonaws.com/images/brand/R1TS5M.jpg;http://www.arnoldbread.com;;;;;;0073410;0071330000008;Orograin Bakeries Manufacturing, Inc.;US;Horsham;19044;255 Business Center Dr;;PA;;0;1;;;680.0;24.0;;;;;GS1 US;US;WHOLE WHEAT FLOUR,UNBLEACHED ENRICHED WHEAT FLOUR [FLOUR,MALTED BARLEY FLOUR,REDUCED IRON,NIACIN,THIAMIN MONONITRATE (VITAMIN B1),RIBOFLAVIN (VITAMIN B2),FOLIC ACID],WATER,SUGAR,RYE,WHEAT GLUTEN,YEAST,SUNFLOWER SEEDS,GROUND CORN,NUTS (ALMONDS AND/OR WALNUTS),MOLASSES,SOYBEAN OIL,SALT,WHOLE WHITE WHEAT,BROWN RICE,OATS,TRITICALE,MONOGLYCERIDES,BARLEY,FLAXSEED,MILLET,CALCIUM PROPIONATE (PRESERVATIVE),CALCIUM SULFATE,DATEM,GRAIN VINEGAR,CITRIC ACID,SOY LECITHIN,HAZELNUTS (FILBERTS),WHEY,SOY FLOUR,NONFAT MILK;43.0;0.0;16.0;120.0;20.0;2.0;3.0;0.0;0.0;0.0;0.0;0.0;150.0;6.0;0.0;0.0;21.0;7.0;2.0;8.0;3.0;5.0;0;0.0;4.0;8.0
0073410013755;100% Whole Wheat;50000000;;;;http://product.okfn.org.s3.amazonaws.com/images/gtin/gtin-007/0073410013755.jpg;R1TS5M;Arnold;http://product.okfn.org.s3.amazonaws.com/images/brand/R1TS5M.jpg;http://www.arnoldbread.com;;;;;;0073410;0071330000008;Orograin Bakeries Manufacturing, Inc.;US;Horsham;19044;255 Business Center Dr;;PA;;0;1;;;680.0;24.0;;;;;GS1 US;US;WHOLE WHEAT FLOUR,WATER,SUGAR,WHEAT GLUTEN,YEAST,RAISIN JUICE CONCENTRATE,WHEAT BRAN,MOLASSES,SOYBEAN OIL,SALT,MONOGLYCERIDES,CALCIUM PROPIONATE (PRESERVATIVE),CALCIUM SULFATE,DATEM,GRAIN VINEGAR,CITRIC ACID,SOY LECITHIN,WHEY,NONFAT MILK;43.0;0.0;16.0;110.0;10.0;1.0;2.0;0.0;0.0;0.0;0.0;0.0;150.0;6.0;0.0;0.0;20.0;7.0;3.0;12.0;4.0;5.0;0;0.0;4.0;5.0
0073410013854;Healthy Multi-Grain;50000000;;;;http://product.okfn.org.s3.amazonaws.com/images/gtin/gtin-007/0073410013854.jpg;R1TS5M;Arnold;http://product.okfn.org.s3.amazonaws.com/images/brand/R1TS5M.jpg;http://www.arnoldbread.com;;;;;;0073410;0071330000008;Orograin Bakeries Manufacturing, Inc.;US;Horsham;19044;255 Business Center Dr;;PA;;0;1;;;680.0;24.0;;;;;GS1 US;US;WHOLE WHEAT FLOUR,WATER,SUGAR,WHEAT GLUTEN,BROWN RICE,CORNMEAL,OATS,WHEAT BRAN,YEAST,CELLULOSE FIBER,SOYBEAN OIL,BLACK & WHITE SESAME SEEDS,SALT,MOLASSES,DATEM,CALCIUM PROPIONATE (PRESERVATIVE),MONOGLYCERIDES,CALCIUM SULFATE,POPPY SEEDS,GRAIN VINEGAR,SOY LECITHIN,CITRIC ACID,CALCIUM CARBONATE,NUTS [WALNUTS AND/OR HAZELNUTS (FILBERTS) AND/OR ALMONDS],WHEY,NONFAT MILK;43.0;0.0;16.0;100.0;15.0;1.5;2.0;0.0;0.0;0.0;0.0;0.0;150.0;6.0;0.0;0.0;20.0;7.0;4.0;16.0;4.0;5.0;0;0.0;4.0;6.0
0073410025505;Whole Grain White;50000000;;;;http://product.okfn.org.s3.amazonaws.com/images/gtin/gtin-007/0073410025505.jpg;R1TS5M;Arnold;http://product.okfn.org.s3.amazonaws.com/images/brand/R1TS5M.jpg;http://www.arnoldbread.com;;;;;;0073410;0071330000008;Orograin Bakeries Manufacturing, Inc.;US;Horsham;19044;255 Business Center Dr;;PA;;0;1;;;624.0;22.0;;;;;GS1 US;US;UNBLEACHED ENRICHED WHEAT FLOUR [FLOUR,MALTED BARLEY FLOUR,REDUCED IRON,NIACIN,THIAMIN MONONITRATE (VITAMIN B1),RIBOFLAVIN (VITAMIN B2),FOLIC ACID],WATER,WHOLE WHITE WHEAT FLOUR,SUGAR,YEAST,WHEAT GLUTEN,SOYBEAN OIL,SALT,CULTURED WHEAT STARCH,ENRICHMENT (CALCIUM SULFATE,VITAMIN E ACETATE,VITAMIN A PALMITATE,VITAMIN D3),MONO- AND DIGLYCERIDES,DATEM,CITRIC ACID,GRAIN VINEGAR,MONOCALCIUM PHOSPHATE,SOY LECITHIN.;52.0;0.0;11.0;140.0;20.0;2.0;3.0;0.0;0.0;0.0;0.0;0.0;260.0;11.0;0.0;0.0;25.0;8.0;2.0;8.0;4.0;5.0;10;0.0;10.0;8.0
0073410025529;Honey Wheat;50000000;;;;http://product.okfn.org.s3.amazonaws.com/images/gtin/gtin-007/0073410025529.jpg;R1TS5M;Arnold;http://product.okfn.org.s3.amazonaws.com/images/brand/R1TS5M.jpg;http://www.arnoldbread.com;;;;;;0073410;0071330000008;Orograin Bakeries Manufacturing, Inc.;US;Horsham;19044;255 Business Center Dr;;PA;;0;1;;;624.0;22.0;;;;;GS1 US;US;UNBLEACHED ENRICHED WHEAT FLOUR [FLOUR,MALTED BARLEY FLOUR,REDUCED IRON,NIACIN,THIAMIN MONONITRATE (VITAMIN B1),RIBOFLAVIN (VITAMIN B2),FOLIC ACID],WATER,WHOLE WHEAT FLOUR,YEAST,HONEY,SUGAR,WHEAT GLUTEN,SOYBEAN OIL,SALT,CULTURED WHEAT STARCH,ENRICHMENT (CALCIUM SULFATE,VITAMIN E ACETATE,VITAMIN A PALMITATE,VITAMIN D3),MONO- AND DIGLYCERIDES,DATEM,CITRIC ACID,GRAIN VINEGAR,MONOCALCIUM PHOSPHATE,SOY LECITHIN.;52.0;0.0;11.0;140.0;20.0;2.0;3.0;0.0;0.0;0.0;0.0;0.0;240.0;10.0;0.0;0.0;25.0;8.0;2.0;8.0;4.0;5.0;10;0.0;10.0;8.0
0073410025543;Soft Family Bread;50000000;;;;http://product.okfn.org.s3.amazonaws.com/images/gtin/gtin-007/0073410025543.jpg;R1TS5M;Arnold;http://product.okfn.org.s3.amazonaws.com/images/brand/R1TS5M.jpg;http://www.arnoldbread.com;;;;;;0073410;0071330000008;Orograin Bakeries Manufacturing, Inc.;US;Horsham;19044;255 Business Center Dr;;PA;;0;1;;;624.0;22.0;;;;;GS1 US;US;WHOLE WHEAT FLOUR,WATER,SUGAR,YEAST,WHEAT GLUTEN,SOYBEAN OIL,SALT,CULTURED WHEAT STARCH,RAISIN JUICE CONCENTRATE,ENRICHMENT (CALCIUM SULFATE,VITAMIN E ACETATE,VITAMIN A PALMITATE,VITAMIN D3),MONO- AND DIGLYCERIDES,DATEM,GRAIN VINEGAR,CITRIC ACID,MONOCALCIUM PHOSPHATE,SOY LECITHIN.;52.0;0.0;11.0;130.0;25.0;2.5;4.0;0.0;0.0;0.0;0.0;0.0;240.0;10.0;0.0;0.0;23.0;8.0;3.0;12.0;4.0;6.0;10;0.0;10.0;6.0
0073410032022;Everything;50000000;;;;http://product.okfn.org.s3.amazonaws.com/images/gtin/gtin-007/0073410032022.jpg;R1TS5M;Arnold;http://product.okfn.org.s3.amazonaws.com/images/brand/R1TS5M.jpg;http://www.arnoldbread.com;;;;;;0073410;0071330000008;Orograin Bakeries Manufacturing, Inc.;US;Horsham;19044;255 Business Center Dr;;PA;;0;1;;;454.0;16.0;;;;;GS1 US;US;UNBLEACHED ENRICHED WHEAT FLOUR [FLOUR,MALTED BARLEY FLOUR,REDUCED IRON,NIACIN,THIAMIN MONONITRATE (VITAMIN B1),RIBOFLAVIN (VITAMIN B2),FOLIC ACID],WATER,RYE FLOUR,GROUND CARAWAY,CARAWAY SEEDS,WHEAT GLUTEN,SOYBEAN OIL,SUGAR,SUNFLOWER SEEDS,YEAST,ONIONS,SALT,SESAME SEEDS,GRAIN VINEGAR,MONO- AND DIGLYCERIDES,CALCIUM PROPIONATE (PRESERVATIVE),POPPY SEEDS,DATEM,ETHOXYLATED MONO- AND DIGLYCERIDES,GARLIC,CALCIUM SULFATE,FUMARIC ACID,LACTIC ACID,CALCIUM LACTATE,CITRIC ACID,GLUCONO DELTA LACTONE,POTASSIUM CITRATE,SODIUM DIACETATE,SOY LECITHIN,CALCIUM CARBONATE.;32.0;0.0;14.0;90.0;20.0;2.0;3.0;0.0;0.0;0.0;0.0;0.0;210.0;9.0;0.0;0.0;16.0;5.0;0.99;3.0;1.0;3.0;0;0.0;6.0;6.0
0073410113516;Hot Dog Rolls Potato;50000000;;;;http://product.okfn.org.s3.amazonaws.com/images/gtin/gtin-007/0073410113516.jpg;R1TS5M;Arnold;http://product.okfn.org.s3.amazonaws.com/images/brand/R1TS5M.jpg;http://www.arnoldbread.com;;;;;;0073410;0071330000008;Orograin Bakeries Manufacturing, Inc.;US;Horsham;19044;255 Business Center Dr;;PA;;0;1;;;;13.0;;;;;GS1 US;US;ENRICHED WHEAT FLOUR [FLOUR,MALTED BARLEY FLOUR,REDUCED IRON,NIACIN,THIAMIN MONONITRATE (VITAMIN B1),RIBOFLAVIN (VITAMIN B2),FOLIC ACID],WATER,HIGH FRUCTOSE CORN SYRUP,YEAST,SOYBEAN OIL,POTATO FLOUR,SALT,WHEAT GLUTEN,CORN FLOUR,MONO- AND DIGLYCERIDES,CALCIUM PROPIONATE (PRESERVATIVE),GRAIN VINEGAR,DATEM,MONOCALCIUM PHOSPHATE,CALCIUM SULFATE,SPICE & COLORING,SOY LECITHIN,NATURAL & ARTIFICIAL FLAVOR,AZODICARBONAMIDE.;50.0;0.0;8.0;140.0;20.0;2.0;3.0;0.0;0.0;0.0;0.0;0.0;240.0;10.0;0.0;0.0;28.0;9.0;1.0;4.0;4.0;4.0;0;0.0;4.0;8.0
0073410135341;Sandwich Thins Rolls Flax & Fiber;50000000;;;;http://product.okfn.org.s3.amazonaws.com/images/gtin/gtin-007/0073410135341.jpg;R1TS5M;Arnold;http://product.okfn.org.s3.amazonaws.com/images/brand/R1TS5M.jpg;http://www.arnoldbread.com;;;;;;0073410;0071330000008;Orograin Bakeries Manufacturing, Inc.;US;Horsham;19044;255 Business Center Dr;;PA;;0;1;;;340.0;12.0;;;;;GS1 US;US;WHOLE WHEAT FLOUR,WATER,SUGAR,YEAST,CELLULOSE FIBER,WHEAT GLUTEN,FLAXSEED,POLYDEXTROSE,SALT,AMARANTH SEEDS,MALT,PRESERVATIVES (CALCIUM PROPIONATE,SORBIC ACID),SOYBEAN AND/OR CANOLA OIL,GUAR GUM,NATURAL FLAVOR,WHEAT BRAN,MONOGLYCERIDES,DATEM,CITRIC ACID,STEVIA EXTRACT (A NATURAL SWEETENER),SOY LECITHIN.;43.0;0.0;8.0;100.0;10.0;1.0;2.0;0.0;0.0;0.0;0.0;0.0;170.0;7.0;0.0;0.0;21.0;7.0;5.0;20.0;2.0;5.0;0;0.0;4.0;6.0
0073410135426;Potato Sandwich Rolls;50000000;;;;http://product.okfn.org.s3.amazonaws.com/images/gtin/gtin-007/0073410135426.jpg;R1TS5M;Arnold;http://product.okfn.org.s3.amazonaws.com/images/brand/R1TS5M.jpg;http://www.arnoldbread.com;;;;;;0073410;0071330000008;Orograin Bakeries Manufacturing, Inc.;US;Horsham;19044;255 Business Center Dr;;PA;;0;1;;;454.0;16.0;;;;;GS1 US;US;ENRICHED WHEAT FLOUR [FLOUR,MALTED BARLEY FLOUR,REDUCED IRON,NIACIN,THIAMIN MONONITRATE (VITAMIN B1),RIBOFLAVIN (VITAMIN B2),FOLIC ACID],WATER,HIGH FRUCTOSE CORN SYRUP,YEAST,SOYBEAN OIL,POTATO FLOUR,SALT,WHEAT GLUTEN,CORN FLOUR,MONO- AND DIGLYCERIDES,CALCIUM PROPIONATE (PRESERVATIVE),GRAIN VINEGAR,DATEM,MONOCALCIUM PHOSPHATE,CALCIUM SULFATE,SPICE & COLORING,SOY LECITHIN,NATURAL & ARTIFICIAL FLAVOR,AZODICARBONAMIDE,SESAME SEEDS.;57.0;0.0;8.0;160.0;20.0;2.0;3.0;0.0;0.0;0.0;0.0;0.0;280.0;12.0;0.0;0.0;31.0;10.0;1.0;4.0;4.0;5.0;0;0.0;6.0;10.0
0073410135549;Wheat Sandwich Rolls;50000000;;;;http://product.okfn.org.s3.amazonaws.com/images/gtin/gtin-007/0073410135549.jpg;R1TS5M;Arnold;http://product.okfn.org.s3.amazonaws.com/images/brand/R1TS5M.jpg;http://www.arnoldbread.com;;;;;;0073410;0071330000008;Orograin Bakeries Manufacturing, Inc.;US;Horsham;19044;255 Business Center Dr;;PA;;0;1;;;454.0;16.0;;;;;GS1 US;US;WHOLE WHEAT FLOUR,ENRICHED WHEAT FLOUR [FLOUR,MALTED BARLEY FLOUR,NIACIN,REDUCED IRON,THIAMIN MONONITRATE (VITAMIN B1),RIBOFLAVIN (VITAMIN B2),FOLIC ACID],WATER,HIGH FRUCTOSE CORN SYRUP,YEAST,WHEAT GLUTEN,SOYBEAN OIL,MOLASSES,SALT,MONOGLYCERIDES,WHEAT FLOUR,CALCIUM PROPIONATE (PRESERVATIVE),ETHOXYLATED MONO- AND DIGLYCERIDES,CALCIUM SULFATE,GRAIN VINEGAR,MONOCALCIUM PHOSPHATE,DATEM,AZODICARBONAMIDE,SOY LECITHIN.;57.0;0.0;8.0;150.0;25.0;2.5;4.0;0.5;3.0;0.0;0.0;0.0;310.0;13.0;0.0;0.0;29.0;10.0;2.0;8.0;5.0;6.0;0;0.0;6.0;10.0
0073410136270;Multi-Grain Kaiser Rolls;50000000;;;;http://product.okfn.org.s3.amazonaws.com/images/gtin/gtin-007/0073410136270.jpg;R1TS5M;Arnold;http://product.okfn.org.s3.amazonaws.com/images/brand/R1TS5M.jpg;http://www.arnoldbread.com;;;;;;0073410;0071330000008;Orograin Bakeries Manufacturing, Inc.;US;Horsham;19044;255 Business Center Dr;;PA;;0;1;;;510.0;18.0;;;;;GS1 US;US;WHOLE WHEAT FLOUR,ENRICHED WHEAT FLOUR [FLOUR,MALTED BARLEY FLOUR,REDUCED IRON,NIACIN,THIAMIN MONONITRATE (VITAMIN B1),RIBOFLAVIN (VITAMIN B2),FOLIC ACID],WATER,HIGH FRUCTOSE CORN SYRUP,YEAST,WHEAT GLUTEN,WHEAT BRAN,OAT BRAN,WHEAT,SOYBEAN OIL,SALT,RYE,MOLASSES,BARLEY,CALCIUM PROPIONATE (PRESERVATIVE),MONOGLYCERIDES,DATEM,GRAIN VINEGAR,CALCIUM SULFATE,MONOCALCIUM PHOSPHATE,SOY LECITHIN,SOY FLOUR.;57.0;0.0;8.0;150.0;20.0;2.0;3.0;0.0;0.0;0.0;0.0;0.0;260.0;11.0;0.0;0.0;28.0;9.0;3.0;12.0;4.0;6.0;0;0.0;8.0;8.0
0073410138687;100% Whole Grain;50000000;;;;http://product.okfn.org.s3.amazonaws.com/images/gtin/gtin-007/0073410138687.jpg;R1TS5M;Arnold;http://product.okfn.org.s3.amazonaws.com/images/brand/R1TS5M.jpg;http://www.arnoldbread.com;;;;;;0073410;0071330000008;Orograin Bakeries Manufacturing, Inc.;US;Horsham;19044;255 Business Center Dr;;PA;;0;1;;;680.0;24.0;;;;;GS1 US;US;WHOLE WHEAT FLOUR,WATER,WHEAT GLUTEN,SUGAR,YEAST,SALT,SOYBEAN OIL,WHOLE GRAIN OAT FLOUR,WHOLE GRAIN BARLEY FLOUR,MOLASSES,CELLULOSE FIBER,ENRICHMENT (CALCIUM SULFATE,VITAMIN E ACETATE,VITAMIN A PALMITATE,VITAMIN D3),WHOLE GRAIN BROWN RICE FLOUR,MONOGLYCERIDES,CALCIUM PROPIONATE (PRESERVATIVE),DATEM,CITRIC ACID,BROWN FLAXMEAL,WHOLE GRAIN YELLOW CORN FLOUR,GRAIN VINEGAR,REB A (NATURAL STEVIA LEAF SWEETENER),SOY LECITHIN,POTASSIUM IODATE,CALCIUM PHOSPHATE,SOY FLOUR.;38.0;0.0;18.0;90.0;10.0;1.0;2.0;0.0;0.0;0.0;0.0;0.0;190.0;8.0;0.0;0.0;17.0;6.0;2.0;8.0;2.0;5.0;10;0.0;10.0;6.0
0087684000984;Red Berry Juice;50000000;;;;http://product.okfn.org.s3.amazonaws.com/images/gtin/gtin-008/0087684000984.jpg;6LW2P5;CapriSun;http://product.okfn.org.s3.amazonaws.com/images/brand/6LW2P5.jpg;http://www.caprisun.com;;;;;;0087684;0087684000007;Capri Sun, Inc.;US;Winnetka;60093;3 Lakes Dr;;IL;;0;10;;;;;177.0;;;;GS1 US;US;WATER,HIGH FRUCTOSE CORN SYRUP,PEAR JUICE CONCENTRATE,CITRIC ACID,STRAWBERRY JUICE CONCENTRATE,NATURAL FLAVOR,VITAMIN E ACETATE.;0.0;177.0;10.0;60.0;0.0;0.0;0.0;0.0;0.0;0.0;0.0;0.0;15.0;1.0;0.0;0.0;17.0;6.0;0.0;0.0;16.0;0.0;0;0.0;0.0;0.0
0087684001066;Lemonade Juice;50000000;;;;http://product.okfn.org.s3.amazonaws.com/images/gtin/gtin-008/0087684001066.jpg;6LW2P5;CapriSun;http://product.okfn.org.s3.amazonaws.com/images/brand/6LW2P5.jpg;http://www.caprisun.com;;;;;;0087684;0087684000007;Capri Sun, Inc.;US;Winnetka;60093;3 Lakes Dr;;IL;;0;10;;;;;177.0;;;;GS1 US;US;WATER,HIGH FRUCTOSE CORN SYRUP,LEMON JUICE CONCENTRATE,CITRIC ACID,POTASSIUM CITRATE,NATURAL FLAVOR,VITAMIN E ACETATE.;0.0;177.0;10.0;60.0;0.0;0.0;0.0;0.0;0.0;0.0;0.0;0.0;15.0;1.0;0.0;0.0;17.0;6.0;0.0;0.0;16.0;0.0;0;0.0;0.0;0.0
0087684001073;Fruit Punch Juice;50000000;;;;http://product.okfn.org.s3.amazonaws.com/images/gtin/gtin-008/0087684001073.jpg;6LW2P5;CapriSun;http://product.okfn.org.s3.amazonaws.com/images/brand/6LW2P5.jpg;http://www.caprisun.com;;;;;;0087684;0087684000007;Capri Sun, Inc.;US;Winnetka;60093;3 Lakes Dr;;IL;;0;10;;;;;177.0;;;;GS1 US;US;WATER,HIGH FRUCTOSE CORN SYRUP,APPLE AND GRAPE JUICE CONCENTRATES,CITRIC ACID,WATER EXTRACTED ORANGE AND PINEAPPLE JUICE CONCENTRATES,NATURAL FLAVOR,VITAMIN E ACETATE.;0.0;177.0;10.0;60.0;0.0;0.0;0.0;0.0;0.0;0.0;0.0;0.0;15.0;1.0;0.0;0.0;17.0;6.0;0.0;0.0;16.0;0.0;0;0.0;0.0;0.0
0087684001127;Tropical Fruit Juice;50000000;;;;http://product.okfn.org.s3.amazonaws.com/images/gtin/gtin-008/0087684001127.jpg;6LW2P5;CapriSun;http://product.okfn.org.s3.amazonaws.com/images/brand/6LW2P5.jpg;http://www.caprisun.com;;;;;;0087684;0087684000007;Capri Sun, Inc.;US;Winnetka;60093;3 Lakes Dr;;IL;;0;10;;;;;177.0;;;;GS1 US;US;WATER,HIGH FRUCTOSE CORN SYRUP,CITRIC ACID,SUCRALOSE (SPLENDA(R) BRAND SWEETENER),NATURAL FLAVOR.;0.0;177.0;10.0;30.0;0.0;0.0;0.0;0.0;0.0;0.0;0.0;0.0;15.0;1.0;0.0;0.0;8.0;3.0;0.0;0.0;8.0;0.0;0;0.0;0.0;0.0
0087684001158;Grape Juice;50000000;;;;http://product.okfn.org.s3.amazonaws.com/images/gtin/gtin-008/0087684001158.jpg;6LW2P5;CapriSun;http://product.okfn.org.s3.amazonaws.com/images/brand/6LW2P5.jpg;http://www.caprisun.com;;;;;;0087684;0087684000007;Capri Sun, Inc.;US;Winnetka;60093;3 Lakes Dr;;IL;;0;10;;;;;177.0;;;;GS1 US;US;WATER,HIGH FRUCTOSE CORN SYRUP,CITRIC ACID,SUCRALOSE (SPLENDA(R) BRAND SWEETENER),NATURAL FLAVOR.;0.0;177.0;10.0;30.0;0.0;0.0;0.0;0.0;0.0;0.0;0.0;0.0;15.0;1.0;0.0;0.0;8.0;3.0;0.0;0.0;8.0;0.0;0;0.0;0.0;0.0
0836093000005;Juice Ginger;50000000;;;;http://product.okfn.org.s3.amazonaws.com/images/gtin/gtin-083/0836093000005.jpg;BI5TXW;Izze;http://product.okfn.org.s3.amazonaws.com/images/brand/BI5TXW.jpg;http://www.izze.com;Pepsico;000012;http://www.pepsico.com;http://en.wikipedia.org/wiki/Pepsico;http://product.okfn.org.s3.amazonaws.com/images/group/000012.jpg;083609300;0021224000003;PepsiCo, Inc.;US;Purchase;10577;700 Anderson Hill Rd;;NY;;0;1;;;;;;12.0;;;GS1 US;US;SPARKLING WATER,SUGAR,NATURAL FLAVOR,CITRIC ACID,NATURAL APPLE EXTRACT (COLOR),GINGER OIL;0.0;360.0;1.0;120.0;0.0;0.0;0.0;0.0;0.0;0.0;0.0;0.0;5.0;0.0;0.0;0.0;29.0;10.0;0.0;0.0;29.0;0.0;0;0.0;0.0;0.0
0836093001026;Juice Blackberry;50000000;;;;http://product.okfn.org.s3.amazonaws.com/images/gtin/gtin-083/0836093001026.jpg;BI5TXW;Izze;http://product.okfn.org.s3.amazonaws.com/images/brand/BI5TXW.jpg;http://www.izze.com;Pepsico;000012;http://www.pepsico.com;http://en.wikipedia.org/wiki/Pepsico;http://product.okfn.org.s3.amazonaws.com/images/group/000012.jpg;083609300;0021224000003;PepsiCo, Inc.;US;Purchase;10577;700 Anderson Hill Rd;;NY;;0;1;;;;;;12.0;;;GS1 US;US;PURE JUICE MADE FROM APPLE,WHITE GRAPE,BLACKBERRY AND RASPBERRY JUICE CONCENTRATES,SPARKLING WATER,CITRIC ACID,NATURAL FLAVOR,RED GRAPE JUICE CONCENTRATE (COLOR);0.0;360.0;1.0;130.0;0.0;0.0;0.0;0.0;0.0;0.0;0.0;0.0;25.0;1.0;0.0;0.0;31.0;10.0;0.0;0.0;29.0;0.0;0;0.0;0.0;0.0
0836093002023;Juice Blackberry;50000000;;;;http://product.okfn.org.s3.amazonaws.com/images/gtin/gtin-083/0836093002023.jpg;BI5TXW;Izze;http://product.okfn.org.s3.amazonaws.com/images/brand/BI5TXW.jpg;http://www.izze.com;Pepsico;000012;http://www.pepsico.com;http://en.wikipedia.org/wiki/Pepsico;http://product.okfn.org.s3.amazonaws.com/images/group/000012.jpg;083609300;0021224000003;PepsiCo, Inc.;US;Purchase;10577;700 Anderson Hill Rd;;NY;;0;4;;;;;;12.0;;;GS1 US;US;PURE JUICE MADE FROM APPLE,WHITE GRAPE,BLACKBERRY AND RASPBERRY JUICE CONCENTRATES,SPARKLING WATER,CITRIC ACID,NATURAL FLAVOR,RED GRAPE JUICE CONCENTRATE (COLOR);0.0;360.0;1.0;130.0;0.0;0.0;0.0;0.0;0.0;0.0;0.0;0.0;25.0;1.0;0.0;0.0;31.0;10.0;0.0;0.0;29.0;0.0;0;0.0;0.0;0.0
0836093002061;Juice Blueberry;50000000;;;;http://product.okfn.org.s3.amazonaws.com/images/gtin/gtin-083/0836093002061.jpg;BI5TXW;Izze;http://product.okfn.org.s3.amazonaws.com/images/brand/BI5TXW.jpg;http://www.izze.com;Pepsico;000012;http://www.pepsico.com;http://en.wikipedia.org/wiki/Pepsico;http://product.okfn.org.s3.amazonaws.com/images/group/000012.jpg;083609300;0021224000003;PepsiCo, Inc.;US;Purchase;10577;700 Anderson Hill Rd;;NY;;0;4;;;;;;12.0;;;GS1 US;US;PURE JUICE MADE FROM WHITE GRAPE,APPLE AND BLUEBERRY JUICE CONCENTRATES,SPARKLING WATER,CITRIC ACID,RED GRAPE JUICE CONCENTRATE (COLOR),NATURAL FLAVOR;0.0;360.0;1.0;130.0;0.0;0.0;0.0;0.0;0.0;0.0;0.0;0.0;30.0;1.0;0.0;0.0;33.0;11.0;0.0;0.0;31.0;0.0;0;0.0;0.0;0.0
0836093011056;Juice Clementine;50000000;;;;http://product.okfn.org.s3.amazonaws.com/images/gtin/gtin-083/0836093011056.jpg;BI5TXW;Izze;http://product.okfn.org.s3.amazonaws.com/images/brand/BI5TXW.jpg;http://www.izze.com;Pepsico;000012;http://www.pepsico.com;http://en.wikipedia.org/wiki/Pepsico;http://product.okfn.org.s3.amazonaws.com/images/group/000012.jpg;083609301;0021224000003;PepsiCo, Inc.;US;Purchase;10577;700 Anderson Hill Rd;;NY;;0;1;;;;;;8.4;;;GS1 US;US;PURE JUICE MADE FROM APPLE,WHITE GRAPE,ORANGE,CLEMENTINE AND ACEROLA JUICE CONCENTRATES,SPARKLING WATER,CITRIC ACID,GUM ARABIC,NATURAL FLAVOR,BETA CAROTENE (COLOR),ASCORBIC ACID (VITAMIN C),NIACINAMIDE,PYRIDOXINE HYDROCHLORIDE (VITAMIN B6);0.0;250.0;1.0;90.0;0.0;0.0;0.0;0.0;0.0;0.0;0.0;0.0;15.0;1.0;0.0;0.0;21.0;7.0;0.0;0.0;19.0;0.0;0;30.0;0.0;0.0
0836093011070;Juice Apple;50000000;;;;http://product.okfn.org.s3.amazonaws.com/images/gtin/gtin-083/0836093011070.jpg;BI5TXW;Izze;http://product.okfn.org.s3.amazonaws.com/images/brand/BI5TXW.jpg;http://www.izze.com;Pepsico;000012;http://www.pepsico.com;http://en.wikipedia.org/wiki/Pepsico;http://product.okfn.org.s3.amazonaws.com/images/group/000012.jpg;083609301;0021224000003;PepsiCo, Inc.;US;Purchase;10577;700 Anderson Hill Rd;;NY;;0;1;;;;;;8.4;;;GS1 US;US;PURE JUICE MADE FROM APPLE,WHITE GRAPE AND ACEROLA JUICE CONCENTRATES,SPARKLING WATER,NATURAL FLAVOR,CITRIC ACID,ASCORBIC ACID (VITAMIN C),NIACINAMIDE,PYRIDOXINE HYDROCHLORIDE (VITAMIN B6);0.0;250.0;1.0;90.0;0.0;0.0;0.0;0.0;0.0;0.0;0.0;0.0;15.0;1.0;0.0;0.0;23.0;8.0;0.0;0.0;21.0;0.0;0;30.0;0.0;0.0
0836093011087;Juice Pomegranate;50000000;;;;http://product.okfn.org.s3.amazonaws.com/images/gtin/gtin-083/0836093011087.jpg;BI5TXW;Izze;http://product.okfn.org.s3.amazonaws.com/images/brand/BI5TXW.jpg;http://www.izze.com;Pepsico;000012;http://www.pepsico.com;http://en.wikipedia.org/wiki/Pepsico;http://product.okfn.org.s3.amazonaws.com/images/group/000012.jpg;083609301;0021224000003;PepsiCo, Inc.;US;Purchase;10577;700 Anderson Hill Rd;;NY;;0;1;;;;;;8.4;;;GS1 US;US;PURE JUICE MADE FROM APPLE,WHITE GRAPE,CLARIFIED PINEAPPLE,CRANBERRY,POMEGRANATE AND ACEROLA JUICE CONCENTRATES,SPARKLING WATER,NATURAL FLAVOR,CITRIC ACID,FRUIT AND VEGETABLE JUICE (COLOR),ASCORBIC ACID (VITAMIN C),NIACINAMIDE,PYRIDOXINE HYDROCHLORIDE (VITAMIN B6);0.0;250.0;1.0;90.0;0.0;0.0;0.0;0.0;0.0;0.0;0.0;0.0;10.0;1.0;0.0;0.0;22.0;7.0;0.0;0.0;18.0;0.0;0;30.0;0.0;0.0
0836093012022;Juice Blackberry;50000000;;;;http://product.okfn.org.s3.amazonaws.com/images/gtin/gtin-083/0836093012022.jpg;BI5TXW;Izze;http://product.okfn.org.s3.amazonaws.com/images/brand/BI5TXW.jpg;http://www.izze.com;Pepsico;000012;http://www.pepsico.com;http://en.wikipedia.org/wiki/Pepsico;http://product.okfn.org.s3.amazonaws.com/images/group/000012.jpg;083609301;0021224000003;PepsiCo, Inc.;US;Purchase;10577;700 Anderson Hill Rd;;NY;;0;4;;;;;;8.4;;;GS1 US;US;PURE JUICE MADE FROM APPLE,WHITE GRAPE,BLACKBERRY,RASPBERRY AND ACEROLA JUICE CONCENTRATES,SPARKLING WATER,CITRIC ACID,NATURAL FLAVOR,RED GRAPE JUICE CONCENTRATE (COLOR),ASCORBIC ACID (VITAMIN C),NIACINAMIDE,PYRIDOXINE HYDROCHLORIDE (VITAMIN B6).;0.0;250.0;1.0;90.0;0.0;0.0;0.0;0.0;0.0;0.0;0.0;0.0;20.0;1.0;0.0;0.0;22.0;7.0;0.0;0.0;20.0;0.0;0;30.0;0.0;0.0
0836093014057;Juice Clementine;50000000;;;;http://product.okfn.org.s3.amazonaws.com/images/gtin/gtin-083/0836093014057.jpg;BI5TXW;Izze;http://product.okfn.org.s3.amazonaws.com/images/brand/BI5TXW.jpg;http://www.izze.com;Pepsico;000012;http://www.pepsico.com;http://en.wikipedia.org/wiki/Pepsico;http://product.okfn.org.s3.amazonaws.com/images/group/000012.jpg;083609301;0021224000003;PepsiCo, Inc.;US;Purchase;10577;700 Anderson Hill Rd;;NY;;0;12;;;;;;8.4;;;GS1 US;US;PURE JUICE MADE FROM APPLE,WHITE GRAPE,ORANGE,CLEMENTINE AND ACEROLA JUICE CONCENTRATES,SPARKLING WATER,CITRIC ACID,GUM ARABIC,NATURAL FLAVOR,BETA CAROTENE (COLOR),ASCORBIC ACID (VITAMIN C),NIACINAMIDE,PYRIDOXINE HYDROCHLORIDE (VITAMIN B6);0.0;250.0;1.0;90.0;0.0;0.0;0.0;0.0;0.0;0.0;0.0;0.0;15.0;1.0;0.0;0.0;21.0;7.0;0.0;0.0;19.0;0.0;0;30.0;0.0;0.0
0836093021024;Juice Blackberry;50000000;;;;http://product.okfn.org.s3.amazonaws.com/images/gtin/gtin-083/0836093021024.jpg;BI5TXW;Izze;http://product.okfn.org.s3.amazonaws.com/images/brand/BI5TXW.jpg;http://www.izze.com;Pepsico;000012;http://www.pepsico.com;http://en.wikipedia.org/wiki/Pepsico;http://product.okfn.org.s3.amazonaws.com/images/group/000012.jpg;083609302;0021224000003;PepsiCo, Inc.;US;Purchase;10577;700 Anderson Hill Rd;;NY;;0;1;;;;;;16.0;;;GS1 US;US;PURE JUICE MADE FROM APPLE,WHITE GRAPE,BLACKBERRY AND RASPBERRY JUICE CONCENTRATES,SPARKLING WATER,CITRIC ACID,NATURAL FLAVOR,RED GRAPE JUICE CONCENTRATE (COLOR);0.0;480.0;1.0;170.0;0.0;0.0;0.0;0.0;0.0;0.0;0.0;0.0;35.0;1.0;0.0;0.0;41.0;14.0;0.0;0.0;39.0;0.0;0;0.0;0.0;0.0
0836093516087;Juice Birch;50000000;;;;http://product.okfn.org.s3.amazonaws.com/images/gtin/gtin-083/0836093516087.jpg;BI5TXW;Izze;http://product.okfn.org.s3.amazonaws.com/images/brand/BI5TXW.jpg;http://www.izze.com;Pepsico;000012;http://www.pepsico.com;http://en.wikipedia.org/wiki/Pepsico;http://product.okfn.org.s3.amazonaws.com/images/group/000012.jpg;083609351;0021224000003;PepsiCo, Inc.;US;Purchase;10577;700 Anderson Hill Rd;;NY;;0;4;;;;;;12.0;;;GS1 US;US;SPARKLING WATER,SUGAR,NATURAL FLAVOR,NATURAL APPLE EXTRACT (COLOR),CITRIC ACID,BIRCH OIL;0.0;360.0;1.0;120.0;0.0;0.0;0.0;0.0;0.0;0.0;0.0;0.0;10.0;1.0;0.0;0.0;29.0;10.0;0.0;0.0;29.0;0.0;0;0.0;0.0;0.0
0857063002065;Chicken Pad Thai;50000000;;;;http://product.okfn.org.s3.amazonaws.com/images/gtin/gtin-085/0857063002065.jpg;MEJZBY;Saffron Road;http://product.okfn.org.s3.amazonaws.com/images/brand/MEJZBY.jpg;http://www.saffronroadfood.com;;;;;;0857063002;0857063002003;American Halal;US;Stamford;06905;1177 Summer St;;CT;;0;1;;;;11.0;;;;;GS1 US;US;Cooked Rice Noodles (Water,Rice Flour),Sauce (Evaporated Cane Juice,Water,Tomato Paste [Tomatoes,Citric Acid],Peanut Butter [Roasted Peanuts],Organic Tamari Sauce [Water,Organic Soybeans,Salt],Vinegar,Vegetable Base [Dehydrated Vegetables including Onion,Tomato,Sweet Corn,Carrot,Celery,Pumpkin,Carrot Juice,Bell Pepper,Green Leek and Garlic;  Sea Salt,Sugar,Yeast Extract,Corn Oil,Spices and Extractives of Celery,Onion and Garlic],Cornstarch,Red Pepper),Chicken (Chicken Breast,Water,Expeller Pressed Canola Oil,Cornstarch,Garlic),Carrots,Scallions,Peanuts. Contains Peanuts,Soy.;312.0;0.0;1.0;450.0;70.0;8.0;12.0;2.0;10.0;0.0;40.0;13.0;690.0;29.0;0.0;0.0;60.0;20.0;3.0;12.0;24.0;21.0;40;4.0;6.0;15.0
0857063002102;Macaroni & Cheese;50000000;;;;http://product.okfn.org.s3.amazonaws.com/images/gtin/gtin-085/0857063002102.jpg;MEJZBY;Saffron Road;http://product.okfn.org.s3.amazonaws.com/images/brand/MEJZBY.jpg;http://www.saffronroadfood.com;;;;;;0857063002;0857063002003;American Halal;US;Stamford;06905;1177 Summer St;;CT;;0;1;;;;11.0;;;;;GS1 US;US;Deboles® Organic Jerusalem Artichoke Pasta (Organic Durum Wheat Semolina,Organic Jerusalem Artichoke Flour,Water),Wisconsin Yellow Sharp Cheese (Fresh Pasteurized Milk,Cheese Cultures,Salt,Enzymes,Annatto)*,rBST-Free Milk,rBST-Free Unsalted Butter,Unbleached Unbromated Wheat Flour (Wheat Flour,Niacin,Rreduced Iron,Thiamin Mononitrate,Riboflavin,Folic Acid),Olive Oil,Parmesan Cheese (Cultured Milk,Enzymes,Salt)*,Onions,Sea Salt,Garlic,Bay Leaves,Tabasco ® Hot Sauce (Distilled Vinegar,Aged Red Peppers,Salt),Black Pepper.*CHEESES CONTAIN NO ANIMAL RENNET AND ARE MADE FROM rBST-FREE MILK. Contains Milk,wheat.;156.0;0.0;2.0;260.0;110.0;13.0;20.0;7.0;34.0;0.0;30.0;10.0;260.0;11.0;125.0;4.0;26.0;9.0;1.0;4.0;3.0;10.0;6;0.0;20.0;6.0
0857063002126;Manchurian Dumplings;50000000;;;;http://product.okfn.org.s3.amazonaws.com/images/gtin/gtin-085/0857063002126.jpg;MEJZBY;Saffron Road;http://product.okfn.org.s3.amazonaws.com/images/brand/MEJZBY.jpg;http://www.saffronroadfood.com;;;;;;0857063002;0857063002003;American Halal;US;Stamford;06905;1177 Summer St;;CT;;0;1;;;;11.0;;;;;GS1 US;US;Rice (Basmati Rice,Water,Expeller-Pressed Canola Oil,Ginger,Garlic),Manchurian Sauce (Water,Onions,Tomato Paste [Tomatoes,Citric Acid],Mushrooms,Expeller-Pressed Canola Oil,Gluten-Free Soy Sauce Flavor [Water,Soybeans,Salt,Natural Flavor],Green Bell Peppers,Vinegar,Ginger,Garlic,Cane Sugar,Fresh Cilantro,Bay Leaf,Pure Sesame Oil,Sea Salt,Green Chilies,Crushed Red Pepper),Dumplings (Rice Flour,Cauliflower,Carrots,Cabbage,Green Bell Peppers,Green Beans,Onions,Garlic,Ginger,Fresh Green Onions,Green Chilies,Expeller-Pressed Canola Oil,Gluten-Free Soy Sauce Flavor [Water,Soybeans,Salt,Natural Flavor],Vinegar,Black Pepper,Crushed Red Pepper).;312.0;0.0;1.0;340.0;100.0;11.0;17.0;1.0;6.0;0.0;0.0;0.0;690.0;29.0;200.0;6.0;50.0;17.0;2.0;8.0;5.0;6.0;15;50.0;4.0;6.0
0857063002140;Thai Basil Chili w/ Tofu;50000000;;;;http://product.okfn.org.s3.amazonaws.com/images/gtin/gtin-085/0857063002140.jpg;MEJZBY;Saffron Road;http://product.okfn.org.s3.amazonaws.com/images/brand/MEJZBY.jpg;http://www.saffronroadfood.com;;;;;;0857063002;0857063002003;American Halal;US;Stamford;06905;1177 Summer St;;CT;;0;1;;;;11.0;;;;;GS1 US;US;Rice (Basmati Rice,Water,Expeller-Pressed Canola Oil,Ginger,Garlic),Organic Firm Tofu (Water,Organic Soybeans,Citric Acid,Calcium Chloride),Zucchini,Water,Mushrooms,Baby Corn,Red Bell Peppers,Carrots,Coconut Milk (Coconut Milk,Water,Guar Gum),Onions,Expeller-Pressed Canola Oil,Gluten-Free Soy Sauce Flavor (Water,Soybeans,Salt,Natural Flavor),Fresh Garlic,Lime Juice,Red Chili Paste (Vinegar,Water,Red Pepper),Cane Sugar,Rice Flour,Fresh Thai Basil,Fresh Mint Leaves,Fresh Thai Green Chilies. Contains: Soy,Coconut.;312.0;0.0;1.0;360.0;130.0;15.0;23.0;3.0;16.0;0.0;0.0;0.0;450.0;19.0;430.0;12.0;47.0;16.0;5.0;18.0;5.0;12.0;20;35.0;15.0;15.0
0857063002157;Chana Saag;50000000;;;;http://product.okfn.org.s3.amazonaws.com/images/gtin/gtin-085/0857063002157.jpg;MEJZBY;Saffron Road;http://product.okfn.org.s3.amazonaws.com/images/brand/MEJZBY.jpg;http://www.saffronroadfood.com;;;;;;0857063002;0857063002003;American Halal;US;Stamford;06905;1177 Summer St;;CT;;0;1;;;;11.0;;;;;GS1 US;US;Chana Saag: Spinach,Organic Chickpeas,Water,Diced Tomatoes (Diced Tomatoes,Tomato Juice,Salt,Calcium Chloride,Natural Citric Acid),Onions,Organic Cream,Tomato Puree (Tomato Concentrate [Water,Tomato Paste],Natural Citric Acid),Expeller Pressed Canola Oil,Fresh Garlic,Fresh Ginger,Spices,Sea Salt. Cumin Basmati Rice: Water,Basmati Rice,Cumin Seeds,Expeller Pressed Canola Oil,Garlic,Ginger. Contains : Milk;312.0;0.0;1.0;420.0;60.0;7.0;11.0;1.5;8.0;0.0;5.0;2.0;590.0;25.0;0.0;0.0;78.0;26.0;8.0;32.0;4.0;12.0;90;15.0;15.0;25.0
0029000075375;Peanuts Heat;50000000;;;;http://product.okfn.org.s3.amazonaws.com/images/gtin/gtin-002/0029000075375.jpg;P7IQL7;Planters;http://product.okfn.org.s3.amazonaws.com/images/brand/P7IQL7.jpg;http://www.planters.com;Kraft Foods;000003;http://www.kraftfoodscompany.com;http://en.wikipedia.org/wiki/Kraft_Foods;http://product.okfn.org.s3.amazonaws.com/images/group/000003.jpg;0029000;0041281000006;Nabisco Food Company;US;Parsippany;07054-0311;7 Campus Drive;;NJ;;0;1;;;;1.75;;;;;GS1 US;US;PEANUTS,PEANUT AND/OR COTTONSEED OIL,SEA SALT,DEXTROSE,DRIED CHILI PEPPERS,YELLOW CORN FLOUR,MONOSODIUM GLUTAMATE (FLAVOR ENHANCER),DRIED ONIONS,SPICES,DRIED TOMATOES,DRIED GARLIC,PAPRIKA EXTRACT (VEGETABLE COLOR). CONTAINS: PEANUT. MANUFACTURED ON EQUIPMENT THAT PROCESSES TREE NUTS.;49.0;0.0;1.0;290.0;220.0;25.0;38.0;3.5;18.0;0.0;0.0;0.0;300.0;13.0;0.0;0.0;9.0;3.0;4.0;16.0;5.0;12.0;0;0.0;4.0;15.0
0033383000015;Red Delicious WAXF 2 1/2\ 3lb;50000000;;;;http://product.okfn.org.s3.amazonaws.com/images/gtin/gtin-003/0033383000015.jpg;8RB56Z;Washington Fruit & Produce Co.;http://product.okfn.org.s3.amazonaws.com/images/brand/8RB56Z.jpg;http://www.washfruit.com;;;;;;0033383;0033383000008;Produce Marketing Association Inc.;US;Newark;19714-6036;P.O. Box 6036;;DE;;0;1;;;1360.0;233.0;;;;;GS1 US;US;Apple;242.0;0.0;1.0;130.0;0.0;0.0;0.0;0.0;0.0;0.0;0.0;0.0;0.0;0.0;260.0;7.0;34.0;11.0;5.0;20.0;25.0;1.0;2;8.0;2.0;4.0
0033383007014;Fuji WAXF 2 1/2\ 3lb;50000000;;;;http://product.okfn.org.s3.amazonaws.com/images/gtin/gtin-003/0033383007014.jpg;8RB56Z;Washington Fruit & Produce Co.;http://product.okfn.org.s3.amazonaws.com/images/brand/8RB56Z.jpg;http://www.washfruit.com;;;;;;0033383;0033383000008;Produce Marketing Association Inc.;US;Newark;19714-6036;P.O. Box 6036;;DE;;0;1;;;1360.0;233.0;;;;;GS1 US;US;Apple;242.0;0.0;1.0;130.0;0.0;0.0;0.0;0.0;0.0;0.0;0.0;0.0;0.0;0.0;260.0;7.0;34.0;11.0;5.0;20.0;25.0;1.0;2;8.0;2.0;4.0
0033383007045;Fuji WAXF 2 1/4\ 3lb;50000000;;;;http://product.okfn.org.s3.amazonaws.com/images/gtin/gtin-003/0033383007045.jpg;8RB56Z;Washington Fruit & Produce Co.;http://product.okfn.org.s3.amazonaws.com/images/brand/8RB56Z.jpg;http://www.washfruit.com;;;;;;0033383;0033383000008;Produce Marketing Association Inc.;US;Newark;19714-6036;P.O. Box 6036;;DE;;0;1;;;1360.0;233.0;;;;;GS1 US;US;Apple;242.0;0.0;1.0;130.0;0.0;0.0;0.0;0.0;0.0;0.0;0.0;0.0;0.0;0.0;260.0;7.0;34.0;11.0;5.0;20.0;25.0;1.0;2;8.0;2.0;4.0
0033383310640;Dark Sweet 2 Lb;50000000;;;;http://product.okfn.org.s3.amazonaws.com/images/gtin/gtin-003/0033383310640.jpg;8RB56Z;Washington Fruit & Produce Co.;http://product.okfn.org.s3.amazonaws.com/images/brand/8RB56Z.jpg;http://www.washfruit.com;;;;;;0033383;0033383000008;Produce Marketing Association Inc.;US;Newark;19714-6036;P.O. Box 6036;;DE;;0;1;;;907.0;155.0;;;;;GS1 US;US;Cherry;140.0;0.0;1.0;90.0;0.0;0.5;1.0;0.0;0.0;0.0;0.0;0.0;0.0;0.0;300.0;9.0;22.0;7.0;3.0;12.0;19.0;2.0;2;15.0;2.0;2.0
0039400016700;Butter Beans Baby;50000000;;;;http://product.okfn.org.s3.amazonaws.com/images/gtin/gtin-003/0039400016700.jpg;D13UVY;Bush's best;http://product.okfn.org.s3.amazonaws.com/images/brand/D13UVY.jpg;http://www.bushbeans.com;;;;;;0039400;0039400000006;Bush Brothers and Company;US;Knoxville;37950;P.O. Box 52330;;TN;;0;1;;;454.0;16.0;;;;;GS1 US;US;;130.0;0.0;1.0;90.0;0.0;0.0;0.0;0.0;0.0;0.0;0.0;0.0;470.0;20.0;330.0;9.0;21.0;7.0;5.0;20.0;1.0;6.0;0;0.0;6.0;10.0
0039400018919;Refried Beans Traditional;50000000;;;;http://product.okfn.org.s3.amazonaws.com/images/gtin/gtin-003/0039400018919.jpg;D13UVY;Bush's best;http://product.okfn.org.s3.amazonaws.com/images/brand/D13UVY.jpg;http://www.bushbeans.com;;;;;;0039400;0039400000006;Bush Brothers and Company;US;Knoxville;37950;P.O. Box 52330;;TN;;0;1;;;;16.0;;;;;GS1 US;US;;125.0;0.0;1.0;150.0;25.0;3.0;5.0;1.0;5.0;0.0;0.0;0.0;480.0;20.0;510.0;15.0;24.0;8.0;7.0;28.0;0.0;9.0;0;0.0;6.0;15.0
0039400019169;Steakhouse Recipe;50000000;;;;http://product.okfn.org.s3.amazonaws.com/images/gtin/gtin-003/0039400019169.jpg;D13UVY;Bush's best;http://product.okfn.org.s3.amazonaws.com/images/brand/D13UVY.jpg;http://www.bushbeans.com;;;;;;0039400;0039400000006;Bush Brothers and Company;US;Knoxville;37950;P.O. Box 52330;;TN;;0;1;;;624.0;22.0;;;;;GS1 US;US;;130.0;0.0;1.0;180.0;5.0;0.5;1.0;0.0;0.0;0.0;0.0;0.0;510.0;21.0;0.0;0.0;39.0;13.0;5.0;20.0;21.0;6.0;0;0.0;6.0;4.0
0039400019220;Sweet Mesquite;50000000;;;;http://product.okfn.org.s3.amazonaws.com/images/gtin/gtin-003/0039400019220.jpg;D13UVY;Bush's best;http://product.okfn.org.s3.amazonaws.com/images/brand/D13UVY.jpg;http://www.bushbeans.com;;;;;;0039400;0039400000006;Bush Brothers and Company;US;Knoxville;37950;P.O. Box 52330;;TN;;0;1;;;624.0;22.0;;;;;GS1 US;US;;130.0;0.0;1.0;160.0;10.0;1.0;2.0;0.0;0.0;0.0;0.0;0.0;450.0;19.0;0.0;0.0;32.0;11.0;5.0;20.0;13.0;6.0;0;0.0;6.0;10.0
0039400019541;Boston Recipe Baked Beans;50000000;;;;http://product.okfn.org.s3.amazonaws.com/images/gtin/gtin-003/0039400019541.jpg;D13UVY;Bush's best;http://product.okfn.org.s3.amazonaws.com/images/brand/D13UVY.jpg;http://www.bushbeans.com;;;;;;0039400;0039400000006;Bush Brothers and Company;US;Knoxville;37950;P.O. Box 52330;;TN;;0;1;;;;16.0;;;;;GS1 US;US;;130.0;0.0;1.0;150.0;10.0;1.0;2.0;0.0;0.0;0.0;0.0;0.0;440.0;18.0;0.0;0.0;31.0;10.0;5.0;20.0;11.0;6.0;0;0.0;8.0;25.0
0045587531103;Banana Nectar;50000000;;;;http://product.okfn.org.s3.amazonaws.com/images/gtin/gtin-004/0045587531103.jpg;FCKJ3R;Looza;http://product.okfn.org.s3.amazonaws.com/images/brand/FCKJ3R.jpg;http://www.looza.be;Pepsico;000012;http://www.pepsico.com;http://en.wikipedia.org/wiki/Pepsico;http://product.okfn.org.s3.amazonaws.com/images/group/000012.jpg;0045587;0045587000005;Frito-Lay Trading Company GmbH;CH;Ch 3011 Bern;;Spitalgasse 2;;;;0;1;;;;;;33.8;;;GS1 US;US;WATER,BANANA PUREE CONCENTRATE,NATURAL FLAVOR,CITRIC ACID,SUGAR;0.0;240.0;4.0;150.0;0.0;0.0;0.0;0.0;0.0;0.0;0.0;0.0;10.0;0.0;0.0;0.0;36.0;12.0;3.0;10.0;36.0;0.0;0;0.0;0.0;0.0
0073410005002;Brick Oven Premium White;50000000;;;;http://product.okfn.org.s3.amazonaws.com/images/gtin/gtin-007/0073410005002.jpg;R1TS5M;Arnold;http://product.okfn.org.s3.amazonaws.com/images/brand/R1TS5M.jpg;http://www.arnoldbread.com;;;;;;0073410;0071330000008;Orograin Bakeries Manufacturing, Inc.;US;Horsham;19044;255 Business Center Dr;;PA;;0;1;;;;32.0;;;;;GS1 US;US;UNBLEACHED ENRICHED WHEAT FLOUR [FLOUR,MALTED BARLEY FLOUR,REDUCED IRON,NIACIN,THIAMIN MONONITRATE (VITAMIN B1),RIBOFLAVIN (VITAMIN B2),FOLIC ACID],WATER,SUGAR,YEAST,SOYBEAN OIL,SALT,MONOGLYCERIDES,WHEAT GLUTEN,CALCIUM PROPIONATE (PRESERVATIVE),CALCIUM SULFATE,DATEM,NATURAL FLAVOR,SOY LECITHIN,AZODICARBONAMIDE.;33.0;0.0;17.0;90.0;15.0;1.5;2.0;0.0;0.0;0.0;0.0;0.0;190.0;8.0;0.0;0.0;17.0;6.0;0.99;3.0;3.0;3.0;0;0.0;4.0;6.0
0073410013090;Nutty Almond;50000000;;;;http://product.okfn.org.s3.amazonaws.com/images/gtin/gtin-007/0073410013090.jpg;R1TS5M;Arnold;http://product.okfn.org.s3.amazonaws.com/images/brand/R1TS5M.jpg;http://www.arnoldbread.com;;;;;;0073410;0071330000008;Orograin Bakeries Manufacturing, Inc.;US;Horsham;19044;255 Business Center Dr;;PA;;0;1;;;680.0;24.0;;;;;GS1 US;US;WHOLE WHEAT FLOUR,WATER,UNBLEACHED ENRICHED WHEAT FLOUR [FLOUR,MALTED BARLEY FLOUR,REDUCED IRON,NIACIN,THIAMIN MONONITRATE (VITAMIN B1),RIBOFLAVIN (VITAMIN B2),FOLIC ACID],SUGAR,FLAXSEED,BULGUR WHEAT,WHEAT GLUTEN,YEAST,ALMONDS (NUTS),MOLASSES,HAZELNUTS (FILBERTS),SOYBEAN OIL,SALT,SESAME SEEDS,CALCIUM PROPIONATE (PRESERVATIVE),MONO- AND DIGLYCERIDES,DATEM AND/OR SODIUM STEAROYL LACTYLATE,GRAIN VINEGAR,CALCIUM SULFATE,CARAMEL COLOR,NATURAL BLACK WALNUT FLAVOR,SOY LECITHIN,CITRIC ACID,WHEY,SOY FLOUR,NONFAT MILK;43.0;0.0;16.0;130.0;25.0;3.0;5.0;0.0;0.0;0.0;0.0;0.0;150.0;6.0;0.0;0.0;21.0;7.0;2.0;8.0;5.0;5.0;0;0.0;6.0;8.0
0073410042007;Pumpernickel Rye;50000000;;;;http://product.okfn.org.s3.amazonaws.com/images/gtin/gtin-007/0073410042007.jpg;R1TS5M;Arnold;http://product.okfn.org.s3.amazonaws.com/images/brand/R1TS5M.jpg;http://www.arnoldbread.com;;;;;;0073410;0071330000008;Orograin Bakeries Manufacturing, Inc.;US;Horsham;19044;255 Business Center Dr;;PA;;0;1;;;454.0;16.0;;;;;GS1 US;US;UNBLEACHED ENRICHED WHEAT FLOUR [FLOUR,MALTED BARLEY FLOUR,REDUCED IRON,NIACIN,THIAMIN MONONITRATE (VITAMIN B1),RIBOFLAVIN (VITAMIN B2),FOLIC ACID],WATER,RYE FLOUR,RYE MEAL,YEAST,CARAMEL COLOR,SALT,SUGAR,SOYBEAN OIL,GROUND CARAWAY,WHEAT GLUTEN,CORN FLOUR,MONO- AND DIGLYCERIDES,PRESERVATIVES (CALCIUM PROPIONATE,SODIUM PROPIONATE),DATEM,GRAIN VINEGAR,MALIC ACID,CALCIUM SULFATE,SOY FLOUR,ETHOXYLATED MONO- AND DIGLYCERIDES,ACETIC ACID,MONOCALCIUM PHOSPHATE,LACTIC ACID,SOY LECITHIN,NATURAL & ARTIFICIAL FLAVORS,POLYSORBATE 60,CALCIUM CARBONATE,PHOSPHORIC ACID.;30.0;0.0;15.0;80.0;10.0;1.0;2.0;0.0;0.0;0.0;0.0;0.0;220.0;9.0;0.0;0.0;15.0;5.0;0.99;3.0;1.0;2.0;0;0.0;4.0;4.0
0073410134160;Pocket Thins Flatbread Italian Herb;50000000;;;;http://product.okfn.org.s3.amazonaws.com/images/gtin/gtin-007/0073410134160.jpg;R1TS5M;Arnold;http://product.okfn.org.s3.amazonaws.com/images/brand/R1TS5M.jpg;http://www.arnoldbread.com;;;;;;0073410;0071330000008;Orograin Bakeries Manufacturing, Inc.;US;Horsham;19044;255 Business Center Dr;;PA;;0;1;;;333.0;11.75;;;;;GS1 US;US;UNBLEACHED ENRICHED WHEAT FLOUR [FLOUR,MALTED BARLEY FLOUR,REDUCED IRON,NIACIN,THIAMIN MONONITRATE (VITAMIN B1),RIBOFLAVIN (VITAMIN B2),FOLIC ACID],WATER,WHOLE WHITE WHEAT FLOUR,CELLULOSE FIBER,WHEAT GLUTEN,YEAST,SUGAR,SOYBEAN AND/OR CANOLA OIL,POLYDEXTROSE,SALT,PRESERVATIVES (CALCIUM PROPIONATE,SORBIC ACID),GUAR GUM,MONOGLYCERIDES,HERBS (ROSEMARY,BASIL,PARSLEY),MALTODEXTRIN,MODIFIED CORNSTARCH,EXTRA VIRGIN OLIVE OIL,CITRIC ACID,NATURAL FLAVOR,REB A (NATURAL STEVIA LEAF SWEETENER),SOY LECITHIN,SOY FLOUR.;42.0;0.0;8.0;100.0;15.0;1.5;2.0;0.0;0.0;0.0;0.0;0.0;200.0;8.0;0.0;0.0;20.0;7.0;5.0;20.0;1.0;5.0;0;0.0;4.0;6.0
0073410135457;Sandwich Thins Rolls Seedless Rye;50000000;;;;http://product.okfn.org.s3.amazonaws.com/images/gtin/gtin-007/0073410135457.jpg;R1TS5M;Arnold;http://product.okfn.org.s3.amazonaws.com/images/brand/R1TS5M.jpg;http://www.arnoldbread.com;;;;;;0073410;0071330000008;Orograin Bakeries Manufacturing, Inc.;US;Horsham;19044;255 Business Center Dr;;PA;;0;1;;;340.0;12.0;;;;;GS1 US;US;UNBLEACHED ENRICHED WHEAT FLOUR [FLOUR,MALTED BARLEY FLOUR,REDUCED IRON,NIACIN,THIAMIN MONONITRATE (VITAMIN B1),RIBOFLAVIN (VITAMIN B2),FOLIC ACID],WATER,WHOLE WHITE WHEAT FLOUR,RYE FLOUR,CELLULOSE FIBER,RYE MEAL,POLYDEXTROSE,WHEAT GLUTEN,YEAST,SUGAR,GROUND CARAWAY,SALT,SOYBEAN AND/OR CANOLA OIL,PRESERVATIVES (CALCIUM PROPIONATE,SORBIC ACID),GUAR GUM,MONOGLYCERIDES,FUMARIC ACID,CITRIC ACID,LACTIC ACID,CALCIUM LACTATE,GLUCONO DELTA LACTONE,POTASSIUM CITRATE,SODIUM DIACETATE,SOY LECITHIN.;43.0;0.0;8.0;100.0;10.0;1.0;2.0;0.0;0.0;0.0;0.0;0.0;170.0;7.0;0.0;0.0;23.0;8.0;5.0;20.0;2.0;4.0;0;0.0;4.0;6.0
0073410135525;Steak Rolls;50000000;;;;http://product.okfn.org.s3.amazonaws.com/images/gtin/gtin-007/0073410135525.jpg;R1TS5M;Arnold;http://product.okfn.org.s3.amazonaws.com/images/brand/R1TS5M.jpg;http://www.arnoldbread.com;;;;;;0073410;0071330000008;Orograin Bakeries Manufacturing, Inc.;US;Horsham;19044;255 Business Center Dr;;PA;;0;1;;;;15.0;;;;;GS1 US;US;ENRICHED WHEAT FLOUR [FLOUR,MALTED BARLEY FLOUR,REDUCED IRON,NIACIN,THIAMIN MONONITRATE (VITAMIN B1),RIBOFLAVIN (VITAMIN B2),FOLIC ACID],WATER,HIGH FRUCTOSE CORN SYRUP,YEAST,SALT,SOYBEAN OIL,WHEAT GLUTEN,MONOGLYCERIDES,CALCIUM PROPIONATE (PRESERVATIVE),MONOCALCIUM PHOSPHATE,CALCIUM SULFATE,DATEM,SOY LECITHIN,AZODICARBONAMIDE,SESAME SEEDS.;71.0;0.0;6.0;200.0;20.0;2.0;3.0;0.5;3.0;0.0;0.0;0.0;510.0;21.0;0.0;0.0;37.0;12.0;1.0;4.0;2.0;6.0;0;0.0;8.0;15.0
0073410135587;Hot Dog Rolls Wheat;50000000;;;;http://product.okfn.org.s3.amazonaws.com/images/gtin/gtin-007/0073410135587.jpg;R1TS5M;Arnold;http://product.okfn.org.s3.amazonaws.com/images/brand/R1TS5M.jpg;http://www.arnoldbread.com;;;;;;0073410;0071330000008;Orograin Bakeries Manufacturing, Inc.;US;Horsham;19044;255 Business Center Dr;;PA;;0;1;;;;14.0;;;;;GS1 US;US;WHOLE WHEAT FLOUR,ENRICHED WHEAT FLOUR [FLOUR,MALTED BARLEY FLOUR,NIACIN,REDUCED IRON,THIAMIN MONONITRATE (VITAMIN B1),RIBOFLAVIN (VITAMIN B2),FOLIC ACID],WATER,HIGH FRUCTOSE CORN SYRUP,YEAST,WHEAT GLUTEN,SOYBEAN OIL,MOLASSES,SALT,MONOGLYCERIDES,CALCIUM PROPIONATE (PRESERVATIVE),ETHOXYLATED MONO- AND DIGLYCERIDES,CALCIUM SULFATE,GRAIN VINEGAR,MONOCALCIUM PHOSPHATE,DATEM,AZODICARBONAMIDE,SOY LECITHIN.;50.0;0.0;8.0;140.0;20.0;2.0;3.0;0.5;3.0;0.0;0.0;0.0;270.0;11.0;0.0;0.0;25.0;8.0;2.0;8.0;5.0;5.0;0;0.0;6.0;8.0
0073410135723;Italian Rolls;50000000;;;;http://product.okfn.org.s3.amazonaws.com/images/gtin/gtin-007/0073410135723.jpg;R1TS5M;Arnold;http://product.okfn.org.s3.amazonaws.com/images/brand/R1TS5M.jpg;http://www.arnoldbread.com;;;;;;0073410;0071330000008;Orograin Bakeries Manufacturing, Inc.;US;Horsham;19044;255 Business Center Dr;;PA;;0;1;;;;19.0;;;;;GS1 US;US;ENRICHED WHEAT FLOUR [FLOUR,MALTED BARLEY FLOUR,REDUCED IRON,NIACIN,THIAMIN MONONITRATE (VITAMIN B1),RIBOFLAVIN (VITAMIN B2),FOLIC ACID],WATER,HIGH FRUCTOSE CORN SYRUP,SOYBEAN OIL,YEAST,SALT,WHEAT GLUTEN,MONOGLYCERIDES,CALCIUM PROPIONATE (PRESERVATIVE),MONOCALCIUM PHOSPHATE,GRAIN VINEGAR,CALCIUM SULFATE,DATEM,SOY LECITHIN,CALCIUM IODATE,SESAME SEEDS.;67.0;0.0;8.0;190.0;25.0;2.5;4.0;0.5;3.0;0.0;0.0;0.0;380.0;16.0;0.0;0.0;36.0;12.0;1.0;4.0;2.0;6.0;0;0.0;8.0;10.0
0073410138359;100% Whole Wheat;50000000;;;;http://product.okfn.org.s3.amazonaws.com/images/gtin/gtin-007/0073410138359.jpg;R1TS5M;Arnold;http://product.okfn.org.s3.amazonaws.com/images/brand/R1TS5M.jpg;http://www.arnoldbread.com;;;;;;0073410;0071330000008;Orograin Bakeries Manufacturing, Inc.;US;Horsham;19044;255 Business Center Dr;;PA;;0;1;;;680.0;24.0;;;;;GS1 US;US;WHOLE WHEAT FLOUR,WATER,SUGAR,WHEAT GLUTEN,SOYBEAN OIL,YEAST,WHEAT BRAN,SALT,ENRICHMENT (CALCIUM SULFATE,VITAMIN E ACETATE,VITAMIN A PALMITATE,VITAMIN D3),MONO- AND DIGLYCERIDES,CALCIUM PROPIONATE (PRESERVATIVE),DATEM,ETHOXYLATED MONO- AND DIGLYCERIDES,MONOCALCIUM PHOSPHATE,GRAIN VINEGAR,SOY LECITHIN.;38.0;0.0;18.0;100.0;15.0;1.5;2.0;0.0;0.0;0.0;0.0;0.0;200.0;8.0;0.0;0.0;18.0;6.0;3.0;12.0;3.0;4.0;15;0.0;10.0;4.0
0073410138557;Butter Split Top;50000000;;;;http://product.okfn.org.s3.amazonaws.com/images/gtin/gtin-007/0073410138557.jpg;R1TS5M;Arnold;http://product.okfn.org.s3.amazonaws.com/images/brand/R1TS5M.jpg;http://www.arnoldbread.com;;;;;;0073410;0071330000008;Orograin Bakeries Manufacturing, Inc.;US;Horsham;19044;255 Business Center Dr;;PA;;0;1;;;624.0;22.0;;;;;GS1 US;US;UNBLEACHED ENRICHED WHEAT FLOUR [FLOUR,MALTED BARLEY FLOUR,REDUCED IRON,NIACIN,THIAMIN MONONITRATE (VITAMIN B1),RIBOFLAVIN (VITAMIN B2),FOLIC ACID],WATER,SUGAR,YEAST,SALT,WHEAT GLUTEN,SOYBEAN OIL,ENRICHMENT (CALCIUM SULFATE,VITAMIN E ACETATE,VITAMIN A PALMITATE,VITAMIN D3),BUTTER (MILK),CALCIUM PROPIONATE (PRESERVATIVE),MONOCALCIUM PHOSPHATE,CORN FLOUR,DATEM,MONO- AND DIGLYCERIDES,SOY LECITHIN,SPICE & COLORING,NATURAL & ARTIFICIAL FLAVOR.;35.0;0.0;18.0;90.0;10.0;1.0;2.0;0.0;0.0;0.0;0.0;0.0;180.0;8.0;0.0;0.0;18.0;6.0;0.99;3.0;2.0;3.0;15;0.0;10.0;6.0
0073410139592;Premium Italian;50000000;;;;http://product.okfn.org.s3.amazonaws.com/images/gtin/gtin-007/0073410139592.jpg;R1TS5M;Arnold;http://product.okfn.org.s3.amazonaws.com/images/brand/R1TS5M.jpg;http://www.arnoldbread.com;;;;;;0073410;0071330000008;Orograin Bakeries Manufacturing, Inc.;US;Horsham;19044;255 Business Center Dr;;PA;;0;1;;;567.0;20.0;;;;;GS1 US;US;UNBLEACHED ENRICHED WHEAT FLOUR [FLOUR,MALTED BARLEY FLOUR,REDUCED IRON,NIACIN,THIAMIN MONONITRATE (VITAMIN B1),RIBOFLAVIN (VITAMIN B2),FOLIC ACID],WATER,YEAST,SUGAR,SALT,SOYBEAN OIL,MONO- AND DIGLYCERIDES,WHEAT GLUTEN,CALCIUM PROPIONATE (PRESERVATIVE),CALCIUM SULFATE,DATEM,SOY LECITHIN,AZODICARBONAMIDE.;31.0;0.0;29.0;90.0;15.0;1.5;2.0;0.0;0.0;0.0;0.0;0.0;180.0;8.0;0.0;0.0;16.0;5.0;0.99;3.0;3.0;2.0;0;0.0;4.0;4.0
0073410163412;Hot Dog Rolls Chicago;50000000;;;;http://product.okfn.org.s3.amazonaws.com/images/gtin/gtin-007/0073410163412.jpg;R1TS5M;Arnold;http://product.okfn.org.s3.amazonaws.com/images/brand/R1TS5M.jpg;http://www.arnoldbread.com;;;;;;0073410;0071330000008;Orograin Bakeries Manufacturing, Inc.;US;Horsham;19044;255 Business Center Dr;;PA;;0;1;;;;;;;;;GS1 US;US;ENRICHED WHEAT FLOUR [FLOUR,MALTED BARLEY FLOUR,REDUCED IRON,NIACIN,THIAMIN MONONITRATE (VITAMIN B1),RIBOFLAVIN (VITAMIN B2),FOLIC ACID],WATER,HIGH FRUCTOSE CORN SYRUP,YEAST,SOYBEAN OIL,POPPY SEEDS,WHEAT GLUTEN,SALT,CALCIUM SULFATE,PRESERVATIVES (CALCIUM PROPIONATE,POTASSIUM SORBATE),MONOCALCIUM PHOSPHATE,PAPRIKA,DATEM,AZODICARBONAMIDE,RED PEPPER,SOY FLOUR.;50.0;0.0;8.0;140.0;25.0;2.5;4.0;0.0;0.0;0.0;0.0;0.0;230.0;10.0;0.0;0.0;25.0;8.0;1.0;4.0;3.0;5.0;0;0.0;8.0;8.0
0087684000977;Splash Cooler Juice;50000000;;;;http://product.okfn.org.s3.amazonaws.com/images/gtin/gtin-008/0087684000977.jpg;6LW2P5;CapriSun;http://product.okfn.org.s3.amazonaws.com/images/brand/6LW2P5.jpg;http://www.caprisun.com;;;;;;0087684;0087684000007;Capri Sun, Inc.;US;Winnetka;60093;3 Lakes Dr;;IL;;0;10;;;;;177.0;;;;GS1 US;US;WATER,HIGH FRUCTOSE CORN SYRUP,APPLE AND GRAPE JUICE CONCENTRATES,CITRIC ACID,STRAWBERRY JUICE CONCENTRATE,NATURAL FLAVOR,VITAMIN E ACETATE.;0.0;177.0;10.0;60.0;0.0;0.0;0.0;0.0;0.0;0.0;0.0;0.0;15.0;1.0;0.0;0.0;17.0;6.0;0.0;0.0;16.0;0.0;0;0.0;0.0;0.0
0087684001004;Wild Cherry Juice;50000000;;;;http://product.okfn.org.s3.amazonaws.com/images/gtin/gtin-008/0087684001004.jpg;6LW2P5;CapriSun;http://product.okfn.org.s3.amazonaws.com/images/brand/6LW2P5.jpg;http://www.caprisun.com;;;;;;0087684;0087684000007;Capri Sun, Inc.;US;Winnetka;60093;3 Lakes Dr;;IL;;0;10;;;;;177.0;;;;GS1 US;US;WATER,HIGH FRUCTOSE CORN SYRUP,APPLE AND CHERRY JUICE CONCENTRATES,CITRIC ACID,GRAPE JUICE CONCENTRATE,NATURAL FLAVOR,VITAMIN E ACETATE.;0.0;177.0;10.0;60.0;0.0;0.0;0.0;0.0;0.0;0.0;0.0;0.0;15.0;1.0;0.0;0.0;17.0;6.0;0.0;0.0;16.0;0.0;0;0.0;0.0;0.0
0087684001080;Apple Juice;50000000;;;;http://product.okfn.org.s3.amazonaws.com/images/gtin/gtin-008/0087684001080.jpg;6LW2P5;CapriSun;http://product.okfn.org.s3.amazonaws.com/images/brand/6LW2P5.jpg;http://www.caprisun.com;;;;;;0087684;0087684000007;Capri Sun, Inc.;US;Winnetka;60093;3 Lakes Dr;;IL;;0;10;;;;;177.0;;;;GS1 US;US;APPLE JUICE FROM CONCENTRATE (WATER,APPLE JUICE CONCENTRATE),CITRIC ACID (FOR TARTNESS),NATURAL FLAVOR.;0.0;177.0;10.0;80.0;0.0;0.0;0.0;0.0;0.0;0.0;0.0;0.0;25.0;1.0;0.0;0.0;21.0;7.0;0.0;0.0;20.0;0.0;0;0.0;0.0;0.0
0087684001097;Berry Juice;50000000;;;;http://product.okfn.org.s3.amazonaws.com/images/gtin/gtin-008/0087684001097.jpg;6LW2P5;CapriSun;http://product.okfn.org.s3.amazonaws.com/images/brand/6LW2P5.jpg;http://www.caprisun.com;;;;;;0087684;0087684000007;Capri Sun, Inc.;US;Winnetka;60093;3 Lakes Dr;;IL;;0;10;;;;;177.0;;;;GS1 US;US;APPLE,GRAPE,AND STRAWBERRY JUICES FROM CONCENTRATE (WATER; APPLE,GRAPE,AND STRAWBERRY JUICE CONCENTRATES); CITRIC ACID (FOR TARTNESS); NATURAL FLAVOR.;0.0;177.0;10.0;80.0;0.0;0.0;0.0;0.0;0.0;0.0;0.0;0.0;25.0;1.0;0.0;0.0;21.0;7.0;0.0;0.0;20.0;0.0;0;0.0;0.0;0.0
0087684001103;Fruit Punch Juice;50000000;;;;http://product.okfn.org.s3.amazonaws.com/images/gtin/gtin-008/0087684001103.jpg;6LW2P5;CapriSun;http://product.okfn.org.s3.amazonaws.com/images/brand/6LW2P5.jpg;http://www.caprisun.com;;;;;;0087684;0087684000007;Capri Sun, Inc.;US;Winnetka;60093;3 Lakes Dr;;IL;;0;10;;;;;177.0;;;;GS1 US;US;APPLE,GRAPE,AND CHERRY JUICES FROM CONCENTRATE (WATER; APPLE,CHERRY AND GRAPE JUICE CONCENTRATES); CITRIC ACID (FOR TARTNESS); NATURAL FLAVOR.;0.0;177.0;10.0;80.0;0.0;0.0;0.0;0.0;0.0;0.0;0.0;0.0;25.0;1.0;0.0;0.0;21.0;7.0;0.0;0.0;20.0;0.0;0;0.0;0.0;0.0
0087684001134;Wild Cherry Juice;50000000;;;;http://product.okfn.org.s3.amazonaws.com/images/gtin/gtin-008/0087684001134.jpg;6LW2P5;CapriSun;http://product.okfn.org.s3.amazonaws.com/images/brand/6LW2P5.jpg;http://www.caprisun.com;;;;;;0087684;0087684000007;Capri Sun, Inc.;US;Winnetka;60093;3 Lakes Dr;;IL;;0;10;;;;;177.0;;;;GS1 US;US;WATER,HIGH FRUCTOSE CORN SYRUP,CITRIC ACID,SUCRALOSE (SPLENDA(R) BRAND SWEETENER),NATURAL FLAVOR.;0.0;177.0;10.0;30.0;0.0;0.0;0.0;0.0;0.0;0.0;0.0;0.0;15.0;1.0;0.0;0.0;8.0;3.0;0.0;0.0;8.0;0.0;0;0.0;0.0;0.0
0836093001057;Juice Clementine;50000000;;;;http://product.okfn.org.s3.amazonaws.com/images/gtin/gtin-083/0836093001057.jpg;BI5TXW;Izze;http://product.okfn.org.s3.amazonaws.com/images/brand/BI5TXW.jpg;http://www.izze.com;Pepsico;000012;http://www.pepsico.com;http://en.wikipedia.org/wiki/Pepsico;http://product.okfn.org.s3.amazonaws.com/images/group/000012.jpg;083609300;0021224000003;PepsiCo, Inc.;US;Purchase;10577;700 Anderson Hill Rd;;NY;;0;1;;;;;;12.0;;;GS1 US;US;PURE JUICE MADE FROM APPLE,WHITE GRAPE,ORANGE AND CLEMENTINE JUICE CONCENTRATES,SPARKLING WATER,CITRIC ACID,GUM ARABIC,NATURAL FLAVOR,BETA CAROTENE (COLOR);0.0;360.0;1.0;120.0;0.0;0.0;0.0;0.0;0.0;0.0;0.0;0.0;25.0;1.0;0.0;0.0;30.0;10.0;0.0;0.0;27.0;0.0;0;0.0;0.0;0.0
0836093001101;Juice Peach;50000000;;;;http://product.okfn.org.s3.amazonaws.com/images/gtin/gtin-083/0836093001101.jpg;BI5TXW;Izze;http://product.okfn.org.s3.amazonaws.com/images/brand/BI5TXW.jpg;http://www.izze.com;Pepsico;000012;http://www.pepsico.com;http://en.wikipedia.org/wiki/Pepsico;http://product.okfn.org.s3.amazonaws.com/images/group/000012.jpg;083609300;0021224000003;PepsiCo, Inc.;US;Purchase;10577;700 Anderson Hill Rd;;NY;;0;1;;;;;;12.0;;;GS1 US;US;PURE JUICE MADE FROM APPLE,WHITE GRAPE AND PEACH JUICE CONCENTRATES,SPARKLING WATER,CITRIC ACID,NATURAL FLAVOR,GUM ARABIC,BETA CAROTENE (COLOR),RED RADISH JUICE CONCENTRATE (COLOR);0.0;360.0;1.0;130.0;0.0;0.0;0.0;0.0;0.0;0.0;0.0;0.0;20.0;1.0;0.0;0.0;32.0;11.0;0.0;0.0;30.0;0.0;0;0.0;0.0;0.0
0836093011049;Juice Grapefruit;50000000;;;;http://product.okfn.org.s3.amazonaws.com/images/gtin/gtin-083/0836093011049.jpg;BI5TXW;Izze;http://product.okfn.org.s3.amazonaws.com/images/brand/BI5TXW.jpg;http://www.izze.com;Pepsico;000012;http://www.pepsico.com;http://en.wikipedia.org/wiki/Pepsico;http://product.okfn.org.s3.amazonaws.com/images/group/000012.jpg;083609301;0021224000003;PepsiCo, Inc.;US;Purchase;10577;700 Anderson Hill Rd;;NY;;0;1;;;;;;8.4;;;GS1 US;US;PURE JUICE MADE FROM APPLE,WHITE GRAPE,ORANGE,GRAPEFRUIT AND ACEROLA JUICE CONCENTRATES,SPARKLING WATER,CITRIC ACID,NATURAL FLAVOR,GUM ARABIC,RED RADISH JUICE (COLOR),ASCORBIC ACID (VITAMIN C),NIACINAMIDE,PYRIDOXINE HYDROCHLORIDE (VITAMIN B6);0.0;250.0;1.0;90.0;0.0;0.0;0.0;0.0;0.0;0.0;0.0;0.0;15.0;1.0;0.0;0.0;22.0;7.0;0.0;0.0;20.0;0.0;0;30.0;0.0;0.0
0836093012084;Juice Pomegranate;50000000;;;;http://product.okfn.org.s3.amazonaws.com/images/gtin/gtin-083/0836093012084.jpg;BI5TXW;Izze;http://product.okfn.org.s3.amazonaws.com/images/brand/BI5TXW.jpg;http://www.izze.com;Pepsico;000012;http://www.pepsico.com;http://en.wikipedia.org/wiki/Pepsico;http://product.okfn.org.s3.amazonaws.com/images/group/000012.jpg;083609301;0021224000003;PepsiCo, Inc.;US;Purchase;10577;700 Anderson Hill Rd;;NY;;0;4;;;;;;8.4;;;GS1 US;US;PURE JUICE MADE FROM APPLE,WHITE GRAPE,CLARIFIED PINEAPPLE,CRANBERRY,POMEGRANATE AND ACEROLA JUICE CONCENTRATES,SPARKLING WATER,NATURAL FLAVOR,CITRIC ACID,FRUIT AND VEGETABLE JUICE (COLOR),ASCORBIC ACID (VITAMIN C),NIACINAMIDE,PYRIDOXINE HYDROCHLORIDE (VITAMIN B6);0.0;250.0;1.0;90.0;0.0;0.0;0.0;0.0;0.0;0.0;0.0;0.0;10.0;1.0;0.0;0.0;22.0;7.0;0.0;0.0;18.0;0.0;0;30.0;0.0;0.0
0836093014040;Juice Grapefruit;50000000;;;;http://product.okfn.org.s3.amazonaws.com/images/gtin/gtin-083/0836093014040.jpg;BI5TXW;Izze;http://product.okfn.org.s3.amazonaws.com/images/brand/BI5TXW.jpg;http://www.izze.com;Pepsico;000012;http://www.pepsico.com;http://en.wikipedia.org/wiki/Pepsico;http://product.okfn.org.s3.amazonaws.com/images/group/000012.jpg;083609301;0021224000003;PepsiCo, Inc.;US;Purchase;10577;700 Anderson Hill Rd;;NY;;0;12;;;;;;8.4;;;GS1 US;US;PURE JUICE MADE FROM APPLE,WHITE GRAPE,ORANGE,GRAPEFRUIT AND ACEROLA JUICE CONCENTRATES,SPARKLING WATER,CITRIC ACID,NATURAL FLAVOR,GUM ARABIC,RED RADISH JUICE (COLOR),ASCORBIC ACID (VITAMIN C),NIACINAMIDE,PYRIDOXINE HYDROCHLORIDE (VITAMIN B6);0.0;250.0;1.0;90.0;0.0;0.0;0.0;0.0;0.0;0.0;0.0;0.0;15.0;1.0;0.0;0.0;22.0;7.0;0.0;0.0;20.0;0.0;0;30.0;0.0;0.0
0836093014088;Juice Pomegranate;50000000;;;;http://product.okfn.org.s3.amazonaws.com/images/gtin/gtin-083/0836093014088.jpg;BI5TXW;Izze;http://product.okfn.org.s3.amazonaws.com/images/brand/BI5TXW.jpg;http://www.izze.com;Pepsico;000012;http://www.pepsico.com;http://en.wikipedia.org/wiki/Pepsico;http://product.okfn.org.s3.amazonaws.com/images/group/000012.jpg;083609301;0021224000003;PepsiCo, Inc.;US;Purchase;10577;700 Anderson Hill Rd;;NY;;0;12;;;;;;8.4;;;GS1 US;US;PURE JUICE MADE FROM APPLE,WHITE GRAPE,CLARIFIED PINEAPPLE,CRANBERRY,POMEGRANATE AND ACEROLA JUICE CONCENTRATES,SPARKLING WATER,NATURAL FLAVOR,CITRIC ACID,FRUIT AND VEGETABLE JUICE (COLOR),ASCORBIC ACID (VITAMIN C),NIACINAMIDE,PYRIDOXINE HYDROCHLORIDE (VITAMIN B6);0.0;250.0;1.0;90.0;0.0;0.0;0.0;0.0;0.0;0.0;0.0;0.0;10.0;1.0;0.0;0.0;22.0;7.0;0.0;0.0;18.0;0.0;0;30.0;0.0;0.0
0857063002027;Lamb Saag;50000000;;;;http://product.okfn.org.s3.amazonaws.com/images/gtin/gtin-085/0857063002027.jpg;MEJZBY;Saffron Road;http://product.okfn.org.s3.amazonaws.com/images/brand/MEJZBY.jpg;http://www.saffronroadfood.com;;;;;;0857063002;0857063002003;American Halal;US;Stamford;06905;1177 Summer St;;CT;;0;1;;;;11.0;;;;;GS1 US;US;Spinach Sauce (Spinach,Water,Diced Tomatoes [Diced Tomatoes,Tomato Juice,Salt,Calcium Chloride,Citric Acid],Onions,Lamb Broth,Cream,Tomato Paste [Tomatoes,Citric Acid],Expeller Pressed Canola Oil,Ginger,Garlic,Spices,Sea salt),Basmati Rice (Water,Basmati Rice,Expeller Pressed Canola Oil,Ginger,Garlic),Lamb (Lamb,Nonfat Yogurt (Cultured Nonfat Milk,Pectin),Water,Cornstarch,Ginger,Sea salt,Garlic,Spices,Expeller Pressed Canola Oil). Contains Milk.;312.0;0.0;1.0;300.0;60.0;7.0;11.0;2.5;13.0;0.0;30.0;10.0;590.0;25.0;0.0;0.0;36.0;12.0;4.0;16.0;1.0;19.0;40;8.0;15.0;15.0
0857063002034;Lamb Vindaloo;50000000;;;;http://product.okfn.org.s3.amazonaws.com/images/gtin/gtin-085/0857063002034.jpg;MEJZBY;Saffron Road;http://product.okfn.org.s3.amazonaws.com/images/brand/MEJZBY.jpg;http://www.saffronroadfood.com;;;;;;0857063002;0857063002003;American Halal;US;Stamford;06905;1177 Summer St;;CT;;0;1;;;;11.0;;;;;GS1 US;US;Vindaloo Sauce (Water,Diced Potatoes,Tomato Paste,Lamb Broth,Diced Onions,Spices,Garlic Puree,White Distilled Vinegar,Ginger,Canola Oil,Tamarind,Sugar,Sea Salt),Saffron Rice (Water,Basmati Rice,Saffron Salt),Lamb (Lamb,Nonfat Yogurt (Cultured Nonfat Milk,Pectin),Water,Cornstarch,Ginger,Sea Salt,Spices,Canola Oil). Contains Milk.;312.0;0.0;1.0;340.0;70.0;7.0;11.0;2.0;10.0;0.0;40.0;13.0;650.0;27.0;0.0;0.0;54.0;18.0;5.0;20.0;2.0;16.0;30;10.0;8.0;20.0
0857063002041;Chicken Biryani;50000000;;;;http://product.okfn.org.s3.amazonaws.com/images/gtin/gtin-085/0857063002041.jpg;MEJZBY;Saffron Road;http://product.okfn.org.s3.amazonaws.com/images/brand/MEJZBY.jpg;http://www.saffronroadfood.com;;;;;;0857063002;0857063002003;American Halal;US;Stamford;06905;1177 Summer St;;CT;;0;1;;;;11.0;;;;;GS1 US;US;Basmati Rice (Water,Basmati Rice,Expeller Pressed Canola Oil,Garlic,Ginger,Turmeric),Chicken (Boneless Chicken,Nonfat Yogurt [Cultured Nonfat Milk,Pectin],Expeller Pressed Canola Oil,Garlic,Ginger,Sea Salt,Spices),Biryani Sauce (Onions,Yogurt [Cultured Nonfat Milk,Pectin],Tomato Puree [Tomato,Citric Acid],Chicken Stock,Expeller Pressed Canola Oil,Ginger,Garlic,Unsalted Butter,Spices,Sea Salt,Turmeric),Caramelized Onions (Onions,Expeller Pressed Canola Oil),Fresh Mint. Contains Milk.;312.0;0.0;1.0;400.0;110.0;12.0;18.0;2.0;10.0;0.0;55.0;18.0;590.0;25.0;0.0;0.0;48.0;16.0;3.0;12.0;4.0;25.0;8;8.0;10.0;15.0
0857063002225;Chicken Tenders;50000000;;;;http://product.okfn.org.s3.amazonaws.com/images/gtin/gtin-085/0857063002225.jpg;MEJZBY;Saffron Road;http://product.okfn.org.s3.amazonaws.com/images/brand/MEJZBY.jpg;http://www.saffronroadfood.com;;;;;;0857063002;0857063002003;American Halal;US;Stamford;06905;1177 Summer St;;CT;;0;1;;;;8.0;;;;;GS1 US;US;Chicken Breast Strips,Water.  Contains 2% Or Less Of: Rice Starch,Lemon Juice Concentrate,Sea Salt,Vinegar,Tocopherols (Vitamin E). PREDUSTED,BATTERED,AND BREADED WITH: Dried Potatoes,Water,Rice Flour,Corn Flour,Corn Starch,Corn Meal,Salt,Garlic Powder,Onion Powder,Expeller Pressed Canola Oil,Cream of Tartar,Sodium Bicarbonate,Spices,Xanthan Gum.;85.0;0.0;2.5;160.0;30.0;3.0;5.0;0.5;3.0;0.0;35.0;12.0;360.0;15.0;0.0;0.0;17.0;6.0;1.0;4.0;0.0;15.0;0;4.0;2.0;4.0
0857063002232;Chicken Bites;50000000;;;;http://product.okfn.org.s3.amazonaws.com/images/gtin/gtin-085/0857063002232.jpg;MEJZBY;Saffron Road;http://product.okfn.org.s3.amazonaws.com/images/brand/MEJZBY.jpg;http://www.saffronroadfood.com;;;;;;0857063002;0857063002003;American Halal;US;Stamford;06905;1177 Summer St;;CT;;0;1;;;;8.0;;;;;GS1 US;US;Chicken Breast Chunks,Water.  Contains 2% Or Less Of: Rice Starch,Lemon Juice Concentrate,Sea Salt,Vinegar,Tocopherols (Vitamin E). PREDUSTED,BATTERED,AND BREADED WITH: Dried Potatoes,Water,Rice Flour,Corn Flour,Corn Starch,Corn Meal,Salt,Garlic Powder,Onion Powder,Expeller Pressed Canola Oil,Cream of Tartar,Sodium Bicarbonate,Spices,Xanthan Gum.;85.0;0.0;2.5;160.0;30.0;3.0;5.0;0.5;3.0;0.0;35.0;12.0;360.0;15.0;0.0;0.0;17.0;6.0;1.0;4.0;0.0;15.0;0;4.0;2.0;4.0
0857063002249;Chicken Tikka Masala;50000000;;;;http://product.okfn.org.s3.amazonaws.com/images/gtin/gtin-085/0857063002249.jpg;MEJZBY;Saffron Road;http://product.okfn.org.s3.amazonaws.com/images/brand/MEJZBY.jpg;http://www.saffronroadfood.com;;;;;;0857063002;0857063002003;American Halal;US;Stamford;06905;1177 Summer St;;CT;;0;1;;;;5.5;;;;;GS1 US;US;Boneless Chicken,Nonfat Plain Yogurt (Cultured Nonfat Milk,Pectin),Water,Ginger,Cornstarch,Garlic,Sea Salt,Expeller Pressed Canola Oil,Spices. Masala Sauce: Water,Diced Onions,Tomato Paste (Tomatoes,Citric Acid),Cream,Spices,Garlic,Expeller Pressed Canola Oil,Sea Salt,Cane Sugar. Basmati Rice: Water,Basmati Rice,Expeller Pressed Canola Oil,Garlic,Ginger. Whole Grain Wrap: Whole Wheat Flour,Water,Expeller Pressed Canola Oil,Sea Salt;156.0;0.0;1.0;310.0;70.0;8.0;12.0;1.5;8.0;0.0;40.0;13.0;440.0;18.0;5.0;0.0;37.0;12.0;6.0;24.0;2.0;21.0;0;0.0;2.0;15.0
0857063002256;Keema with Chicken;50000000;;;;http://product.okfn.org.s3.amazonaws.com/images/gtin/gtin-085/0857063002256.jpg;MEJZBY;Saffron Road;http://product.okfn.org.s3.amazonaws.com/images/brand/MEJZBY.jpg;http://www.saffronroadfood.com;;;;;;0857063002;0857063002003;American Halal;US;Stamford;06905;1177 Summer St;;CT;;0;1;;;;5.5;;;;;GS1 US;US;Keema Filling: Boneless Chicken,Basmati Rice (Water,Basmati Rice,Expeller Pressed Canola Oil,Garlic,Ginger),Green Peas,Tomato Puree (Tomato Concentrate [Water,Tomato Paste],Citric Acid),Diced Onions,Diced Tomatoes,Diced Red Bell Pepper,Cream,Spices,Expeller Pressed Canola Oil,Ginger,Unsalted Butter,Sea Salt. Whole Grain Wrap: Whole Wheat Flour,Water,Expeller Pressed Canola Oil,Sea Salt.;156.0;0.0;1.0;300.0;70.0;8.0;12.0;1.5;9.0;0.0;20.0;7.0;460.0;19.0;120.0;3.0;42.0;14.0;7.0;30.0;3.0;15.0;8;15.0;2.0;20.0
0857063002300;Crispy Samosas With Vegetables;50000000;;;;http://product.okfn.org.s3.amazonaws.com/images/gtin/gtin-085/0857063002300.jpg;MEJZBY;Saffron Road;http://product.okfn.org.s3.amazonaws.com/images/brand/MEJZBY.jpg;http://www.saffronroadfood.com;;;;;;0857063002;0857063002003;American Halal;US;Stamford;06905;1177 Summer St;;CT;;0;1;;;;8.25;;;;;GS1 US;US;Phyllo Dough (Enriched Unbleached Unbromated Wheat Flour [Wheat Flour Enriched (Niacin,Iron,Thiamine Mononitrate,Riboflavin,Folic Acid),Malted Barley Flour],Filtered Water,Organic Wheat Starch,Organic Tapioca Starch,Malted Barley Flour,Natural Flavor,Organic Expeller Pressed Soy Oil,Salt,Non-GMO Soy Lecithin),Potatoes,Organic Expeller Pressed Soy Oil,Carrots,Spinach,Lentil Beans,Onions,Garlic,Fennel,Sea Salt,Coriander,Black Pepper. CONTAINS: SOY AND WHEAT INGREDIENTS.;78.0;0.0;3.0;180.0;70.0;8.0;12.0;0.5;3.0;0.0;0.0;0.0;240.0;10.0;0.0;0.0;25.0;8.0;2.0;8.0;2.0;4.0;25;4.0;4.0;15.0
0857063002317;Crispy Samosas With Saag Paneer;50000000;;;;http://product.okfn.org.s3.amazonaws.com/images/gtin/gtin-085/0857063002317.jpg;MEJZBY;Saffron Road;http://product.okfn.org.s3.amazonaws.com/images/brand/MEJZBY.jpg;http://www.saffronroadfood.com;;;;;;0857063002;0857063002003;American Halal;US;Stamford;06905;1177 Summer St;;CT;;0;1;;;;8.25;;;;;GS1 US;US;Phyllo Dough (Enriched Unbleached Unbromated Wheat Flour [Wheat Flour Enriched (Niacin,Iron,Thiamine Mononitrate,Riboflavin,Folic Acid),Malted Barley Flour],Filtered Water,Organic Wheat Starch,Organic Tapioca Starch,Malted Barley Flour,Natural Flavor,Organic Expeller Pressed Soy Oil,Salt,Non-GMO Soy Lecithin),Spinach,rBST-Free Paneer Cheese* (Milk,Vinegar,Salt),Onions,Organic Expeller Pressed Soy Oil,Tomatoes,Clarified Sweet Butter (Cream & Natural Flavoring),Garlic,Ginger,Sea Salt,Cumin,Paprika,Coriander,Red Chili Pepper,Cinnamon,Clove. CONTAINS: MILK,SOY AND WHEAT INGREDIENTS.;78.0;0.0;3.0;160.0;60.0;7.0;10.0;1.5;7.0;0.0;5.0;1.0;250.0;10.0;0.0;0.0;21.0;7.0;2.0;7.0;3.0;4.0;60;2.0;6.0;8.0
0857063002621;Moroccan Tagine;50000000;;;;http://product.okfn.org.s3.amazonaws.com/images/gtin/gtin-085/0857063002621.jpg;MEJZBY;Saffron Road;http://product.okfn.org.s3.amazonaws.com/images/brand/MEJZBY.jpg;http://www.saffronroadfood.com;;;;;;0857063002;0857063002003;American Halal;US;Stamford;06905;1177 Summer St;;CT;;0;1;;;;7.0;;;;;GS1 US;US;Water,Date Paste (Dates,Water),Sugar,White Honey,Tomato Paste,Canola Oil,Salt,Modified Corn Starch,Spices,Tamarind Puree,Lemon Juice Concentrate,Dehydrated Garlic,Paprika,Soy Lecithin,Natural Flavors,Turmeric,Xanthan Gum,Sunflower Oil,Natural Smoke Flavor. CONTAINS: SOY.;30.0;0.0;7.0;50.0;15.0;1.5;3.0;0.0;0.0;0.0;4.9;0.0;200.0;10.0;0.0;0.0;8.0;3.0;0.0;2.0;6.0;0.0;3;3.0;0.0;2.0
0012000012075;Flavored Water - Wild Berry;50000000;;;;http://product.okfn.org.s3.amazonaws.com/images/gtin/gtin-001/0012000012075.jpg;48MHLZ;Aquafina;http://product.okfn.org.s3.amazonaws.com/images/brand/48MHLZ.jpg;http://www.aquafina.com;Pepsico;000012;http://www.pepsico.com;http://en.wikipedia.org/wiki/Pepsico;http://product.okfn.org.s3.amazonaws.com/images/group/000012.jpg;0012000;0012000000003;Pepsi-Cola North America Inc.;US;Purchase;10577;700 Anderson Hill Road;;NY;;0;6;;;;;;16.9;;;GS1 US;US;FILTERED WATER,NATURAL FLAVOR,CITRIC ACID,SODIUM HEXAMETAPHOSPHATE (TO PROTECT FLAVOR),PHOSPHORIC ACID,SODIUM BENZOATE (PRESERVES FRESHNESS),SODIUM CITRATE,SUCRALOSE,CALCIUM DISODIUM EDTA (TO PROTECT FLAVOR);0.0;240.0;2.0;0.0;0.0;0.0;0.0;0.0;0.0;0.0;0.0;0.0;140.0;6.0;0.0;0.0;0.0;0.0;0.0;0.0;0.0;0.0;0;0.0;0.0;0.0
0012000031090;Flavored Water - Strawberry Kiwi;50000000;;;;http://product.okfn.org.s3.amazonaws.com/images/gtin/gtin-001/0012000031090.jpg;48MHLZ;Aquafina;http://product.okfn.org.s3.amazonaws.com/images/brand/48MHLZ.jpg;http://www.aquafina.com;Pepsico;000012;http://www.pepsico.com;http://en.wikipedia.org/wiki/Pepsico;http://product.okfn.org.s3.amazonaws.com/images/group/000012.jpg;0012000;0012000000003;Pepsi-Cola North America Inc.;US;Purchase;10577;700 Anderson Hill Road;;NY;;0;1;;;;20.0;;;;;GS1 US;US;FILTERED WATER,CITRIC ACID,NATURAL FLAVOR,SODIUM HEXAMETAPHOSPHATE (TO PROTECT FLAVOR),PHOSPHORIC ACID,POTASSIUM CITRATE,POTASSIUM SORBATE (PRESERVES FRESHNESS),SUCRALOSE,ACESULFAME POTASSIUM,CALCIUM DISODIUM EDTA (TO PROTECT FLAVOR);0.0;240.0;2.5;0.0;0.0;0.0;0.0;0.0;0.0;0.0;0.0;0.0;160.0;7.0;0.0;0.0;0.0;0.0;0.0;0.0;0.0;0.0;0;0.0;0.0;0.0
0033383000053;Red Delicious WAXF 2 1/4\ 3lb;50000000;;;;http://product.okfn.org.s3.amazonaws.com/images/gtin/gtin-003/0033383000053.jpg;8RB56Z;Washington Fruit & Produce Co.;http://product.okfn.org.s3.amazonaws.com/images/brand/8RB56Z.jpg;http://www.washfruit.com;;;;;;0033383;0033383000008;Produce Marketing Association Inc.;US;Newark;19714-6036;P.O. Box 6036;;DE;;0;1;;;1360.0;233.0;;;;;GS1 US;US;Apple;242.0;0.0;1.0;130.0;0.0;0.0;0.0;0.0;0.0;0.0;0.0;0.0;0.0;0.0;260.0;7.0;34.0;11.0;5.0;20.0;25.0;1.0;2;8.0;2.0;4.0
0033383007434;Gala WAXF 2 1/2\ 5lb;50000000;;;;http://product.okfn.org.s3.amazonaws.com/images/gtin/gtin-003/0033383007434.jpg;8RB56Z;Washington Fruit & Produce Co.;http://product.okfn.org.s3.amazonaws.com/images/brand/8RB56Z.jpg;http://www.washfruit.com;;;;;;0033383;0033383000008;Produce Marketing Association Inc.;US;Newark;19714-6036;P.O. Box 6036;;DE;;0;1;;;2268.0;389.0;;;;;GS1 US;US;Apple;242.0;0.0;1.0;130.0;0.0;0.0;0.0;0.0;0.0;0.0;0.0;0.0;0.0;0.0;260.0;7.0;34.0;11.0;5.0;20.0;25.0;1.0;2;8.0;2.0;4.0
0033383300511;Bosc US#1 2 1/8 3lb;50000000;;;;http://product.okfn.org.s3.amazonaws.com/images/gtin/gtin-003/0033383300511.jpg;8RB56Z;Washington Fruit & Produce Co.;http://product.okfn.org.s3.amazonaws.com/images/brand/8RB56Z.jpg;http://www.washfruit.com;;;;;;0033383;0033383000008;Produce Marketing Association Inc.;US;Newark;19714-6036;P.O. Box 6036;;DE;;0;1;;;1360.0;233.0;;;;;GS1 US;US;Pear;166.0;0.0;1.0;100.0;10.0;1.0;2.0;0.0;0.0;0.0;0.0;0.0;0.0;0.0;0.0;0.0;25.0;8.0;4.0;16.0;17.0;1.0;0;10.0;2.0;0.0
0033383300528;Bartlett US#1 2 1/8 3lb;50000000;;;;http://product.okfn.org.s3.amazonaws.com/images/gtin/gtin-003/0033383300528.jpg;8RB56Z;Washington Fruit & Produce Co.;http://product.okfn.org.s3.amazonaws.com/images/brand/8RB56Z.jpg;http://www.washfruit.com;;;;;;0033383;0033383000008;Produce Marketing Association Inc.;US;Newark;19714-6036;P.O. Box 6036;;DE;;0;1;;;1360.0;233.0;;;;;GS1 US;US;Pear;166.0;0.0;1.0;100.0;10.0;1.0;2.0;0.0;0.0;0.0;0.0;0.0;0.0;0.0;0.0;0.0;25.0;8.0;4.0;16.0;17.0;1.0;0;10.0;2.0;0.0
0033383310633;Dark Sweet 1 Lb;50000000;;;;http://product.okfn.org.s3.amazonaws.com/images/gtin/gtin-003/0033383310633.jpg;8RB56Z;Washington Fruit & Produce Co.;http://product.okfn.org.s3.amazonaws.com/images/brand/8RB56Z.jpg;http://www.washfruit.com;;;;;;0033383;0033383000008;Produce Marketing Association Inc.;US;Newark;19714-6036;P.O. Box 6036;;DE;;0;1;;;454.0;78.0;;;;;GS1 US;US;Cherry;140.0;0.0;1.0;90.0;0.0;0.5;1.0;0.0;0.0;0.0;0.0;0.0;0.0;0.0;300.0;9.0;22.0;7.0;3.0;12.0;19.0;2.0;2;15.0;2.0;2.0
0033383310701;Rainier 2 Lb;50000000;;;;http://product.okfn.org.s3.amazonaws.com/images/gtin/gtin-003/0033383310701.jpg;8RB56Z;Washington Fruit & Produce Co.;http://product.okfn.org.s3.amazonaws.com/images/brand/8RB56Z.jpg;http://www.washfruit.com;;;;;;0033383;0033383000008;Produce Marketing Association Inc.;US;Newark;19714-6036;P.O. Box 6036;;DE;;0;1;;;907.0;155.0;;;;;GS1 US;US;Cherry;140.0;0.0;1.0;90.0;0.0;0.5;1.0;0.0;0.0;0.0;0.0;0.0;0.0;0.0;300.0;9.0;22.0;7.0;3.0;12.0;19.0;2.0;2;15.0;2.0;2.0
0039400016335;Vegetarian Baked Beans;50000000;;;;http://product.okfn.org.s3.amazonaws.com/images/gtin/gtin-003/0039400016335.jpg;D13UVY;Bush's best;http://product.okfn.org.s3.amazonaws.com/images/brand/D13UVY.jpg;http://www.bushbeans.com;;;;;;0039400;0039400000006;Bush Brothers and Company;US;Knoxville;37950;P.O. Box 52330;;TN;;0;1;;;;16.0;;;;;GS1 US;US;;13.0;0.0;1.0;130.0;0.0;0.0;0.0;0.0;0.0;0.0;0.0;0.0;550.0;23.0;0.0;0.0;29.0;10.0;5.0;20.0;12.0;6.0;0;0.0;4.0;10.0
0039400016908;Chili Beans;50000000;;;;http://product.okfn.org.s3.amazonaws.com/images/gtin/gtin-003/0039400016908.jpg;D13UVY;Bush's best;http://product.okfn.org.s3.amazonaws.com/images/brand/D13UVY.jpg;http://www.bushbeans.com;;;;;;0039400;0039400000006;Bush Brothers and Company;US;Knoxville;37950;P.O. Box 52330;;TN;;0;1;;;;16.0;;;;;GS1 US;US;;130.0;0.0;1.0;110.0;10.0;1.0;2.0;0.0;0.0;0.0;0.0;0.0;530.0;22.0;400.0;11.0;20.0;7.0;6.0;24.0;2.0;6.0;0;0.0;4.0;8.0
0039400018100;Pinto Beans;50000000;;;;http://product.okfn.org.s3.amazonaws.com/images/gtin/gtin-003/0039400018100.jpg;D13UVY;Bush's best;http://product.okfn.org.s3.amazonaws.com/images/brand/D13UVY.jpg;http://www.bushbeans.com;;;;;;0039400;0039400000006;Bush Brothers and Company;US;Knoxville;37950;P.O. Box 52330;;TN;;0;1;;;;16.0;;;;;GS1 US;US;;130.0;0.0;1.0;100.0;0.0;0.0;0.0;0.0;0.0;0.0;0.0;0.0;450.0;19.0;310.0;9.0;18.0;6.0;7.0;28.0;0.0;6.0;0;0.0;4.0;8.0
0039400018216;Pinto Beans With Bacon;50000000;;;;http://product.okfn.org.s3.amazonaws.com/images/gtin/gtin-003/0039400018216.jpg;D13UVY;Bush's best;http://product.okfn.org.s3.amazonaws.com/images/brand/D13UVY.jpg;http://www.bushbeans.com;;;;;;0039400;0039400000006;Bush Brothers and Company;US;Knoxville;37950;P.O. Box 52330;;TN;;0;1;;;;15.5;;;;;GS1 US;US;;130.0;0.0;1.0;80.0;10.0;1.0;2.0;0.0;0.0;0.0;0.0;0.0;440.0;18.0;260.0;7.0;19.0;6.0;7.0;28.0;0.0;6.0;0;0.0;4.0;8.0
0039400018285;Pinto Beans Seasoned Recipe;50000000;;;;http://product.okfn.org.s3.amazonaws.com/images/gtin/gtin-003/0039400018285.jpg;D13UVY;Bush's best;http://product.okfn.org.s3.amazonaws.com/images/brand/D13UVY.jpg;http://www.bushbeans.com;;;;;;0039400;0039400000006;Bush Brothers and Company;US;Knoxville;37950;P.O. Box 52330;;TN;;0;1;;;;16.0;;;;;GS1 US;US;;130.0;0.0;1.0;100.0;10.0;1.0;2.0;0.0;0.0;0.0;0.0;0.0;480.0;20.0;180.0;5.0;17.0;6.0;5.0;20.0;1.0;6.0;0;0.0;4.0;8.0
0039400018834;Black Beans Reduced Sodium;50000000;;;;http://product.okfn.org.s3.amazonaws.com/images/gtin/gtin-003/0039400018834.jpg;D13UVY;Bush's best;http://product.okfn.org.s3.amazonaws.com/images/brand/D13UVY.jpg;http://www.bushbeans.com;;;;;;0039400;0039400000006;Bush Brothers and Company;US;Knoxville;37950;P.O. Box 52330;;TN;;0;1;;;;15.0;;;;;GS1 US;US;;130.0;0.0;1.0;105.0;5.0;0.5;1.0;0.0;0.0;0.0;0.0;0.0;240.0;10.0;480.0;14.0;23.0;8.0;6.0;25.0;1.0;7.0;0;0.0;6.0;15.0
0039400019145;Southern Pit Barbecue;50000000;;;;http://product.okfn.org.s3.amazonaws.com/images/gtin/gtin-003/0039400019145.jpg;D13UVY;Bush's best;http://product.okfn.org.s3.amazonaws.com/images/brand/D13UVY.jpg;http://www.bushbeans.com;;;;;;0039400;0039400000006;Bush Brothers and Company;US;Knoxville;37950;P.O. Box 52330;;TN;;0;1;;;624.0;22.0;;;;;GS1 US;US;;130.0;0.0;1.0;170.0;5.0;0.5;1.0;0.0;0.0;0.0;0.0;0.0;550.0;23.0;0.0;0.0;35.0;12.0;6.0;24.0;16.0;6.0;0;0.0;6.0;4.0
0073410001387;7 Grain;50000000;;;;http://product.okfn.org.s3.amazonaws.com/images/gtin/gtin-007/0073410001387.jpg;R1TS5M;Arnold;http://product.okfn.org.s3.amazonaws.com/images/brand/R1TS5M.jpg;http://www.arnoldbread.com;;;;;;0073410;0071330000008;Orograin Bakeries Manufacturing, Inc.;US;Horsham;19044;255 Business Center Dr;;PA;;0;1;;;680.0;24.0;;;;;GS1 US;US;WHOLE WHEAT FLOUR,UNBLEACHED ENRICHED WHEAT FLOUR [FLOUR,MALTED BARLEY FLOUR,REDUCED IRON,NIACIN,THIAMIN MONONITRATE (VITAMIN B1),RIBOFLAVIN (VITAMIN B2),FOLIC ACID],WATER,SUGAR,MOLASSES,YEAST,WHEAT,CELLULOSE FIBER,WHEAT GLUTEN,RYE,SOYBEAN OIL,GROUND CORN,SALT,BROWN RICE,OATS,CALCIUM PROPIONATE (PRESERVATIVE),MONOGLYCERIDES,DATEM,GRAIN VINEGAR,TRITICALE,CALCIUM SULFATE,BARLEY,FLAXSEED,MILLET,CITRIC ACID,SOY LECITHIN,CALCIUM CARBONATE,NUTS [WALNUTS AND/OR HAZELNUTS (FILBERTS) AND/OR ALMONDS],WHEY,SOY FLOUR,NONFAT MILK;43.0;0.0;16.0;110.0;15.0;1.5;2.0;0.0;0.0;0.0;0.0;0.0;150.0;6.0;0.0;0.0;21.0;7.0;3.0;12.0;3.0;4.0;0;0.0;4.0;8.0
0073410003435;Sourdough;50000000;;;;http://product.okfn.org.s3.amazonaws.com/images/gtin/gtin-007/0073410003435.jpg;R1TS5M;Arnold;http://product.okfn.org.s3.amazonaws.com/images/brand/R1TS5M.jpg;http://www.arnoldbread.com;;;;;;0073410;0071330000008;Orograin Bakeries Manufacturing, Inc.;US;Horsham;19044;255 Business Center Dr;;PA;;0;1;;;680.0;24.0;;;;;GS1 US;US;UNBLEACHED ENRICHED WHEAT FLOUR [FLOUR,MALTED BARLEY FLOUR,REDUCED IRON,NIACIN,THIAMIN MONONITRATE (VITAMIN B1),RIBOFLAVIN (VITAMIN B2),FOLIC ACID],WATER,YEAST,DEHYDRATED SOURDOUGH,SOYBEAN OIL,SALT,SUGAR,WHEAT GLUTEN,MONOGLYCERIDES,GRAIN VINEGAR,CALCIUM PROPIONATE (PRESERVATIVE),CALCIUM SULFATE,SOY LECITHIN,CITRIC ACID,DATEM AND/OR SODIUM STEAROYL LACTYLATE,WHEY,SOY FLOUR,NONFAT MILK.;43.0;0.0;16.0;1.5;2.0;0.0;0.0;0.0;0.0;0.0;0.0;0.0;150.0;6.0;0.0;0.0;21.0;7.0;1.0;4.0;0.99;3.0;0;0.0;4.0;8.0
0073410012604;Bakery Light 100% Whole Wheat;50000000;;;;http://product.okfn.org.s3.amazonaws.com/images/gtin/gtin-007/0073410012604.jpg;R1TS5M;Arnold;http://product.okfn.org.s3.amazonaws.com/images/brand/R1TS5M.jpg;http://www.arnoldbread.com;;;;;;0073410;0071330000008;Orograin Bakeries Manufacturing, Inc.;US;Horsham;19044;255 Business Center Dr;;PA;;0;1;;;454.0;16.0;;;;;GS1 US;US;WHOLE WHEAT FLOUR,WATER,CELLULOSE FIBER,WHEAT GLUTEN,YEAST,SUGAR,SALT,WHEAT BRAN,MOLASSES,MONO- AND DIGLYCERIDES,CALCIUM PROPIONATE (PRESERVATIVE),DATEM,GRAIN VINEGAR,NATURAL & ARTIFICIAL FLAVOR,CALCIUM SULFATE,MONOCALCIUM PHOSPHATE,ETHOXYLATED MONO- AND DIGLYCERIDES,SOY LECITHIN,SUCRALOSE,AZODICARBONAMIDE,SOY FLOUR.;42.0;0.0;12.0;80.0;5.0;0.5;1.0;0.0;0.0;0.0;0.0;0.0;170.0;7.0;0.0;0.0;18.0;6.0;5.0;20.0;2.0;5.0;0;0.0;4.0;4.0
0073410013502;100% Whole Wheat;50000000;;;;http://product.okfn.org.s3.amazonaws.com/images/gtin/gtin-007/0073410013502.jpg;R1TS5M;Arnold;http://product.okfn.org.s3.amazonaws.com/images/brand/R1TS5M.jpg;http://www.arnoldbread.com;;;;;;0073410;0071330000008;Orograin Bakeries Manufacturing, Inc.;US;Horsham;19044;255 Business Center Dr;;PA;;0;1;;;680.0;24.0;;;;;GS1 US;US;WHOLE WHEAT FLOUR,UNBLEACHED ENRICHED WHEAT FLOUR [FLOUR,MALTED BARLEY FLOUR,REDUCED IRON,NIACIN,THIAMIN MONONITRATE (VITAMIN B1),RIBOFLAVIN (VITAMIN B2),FOLIC ACID],WATER,WHEAT GLUTEN,WHEAT FIBER,YEAST,INULIN (CHICKORY ROOT FIBER),CELLULOSE FIBER,SUGAR,SUNFLOWER SEEDS,WHEAT,POLYDEXTROSE,RYE,MOLASSES,SALT,WHEAT PROTEIN ISOLATE,GROUND CORN,CULTURED DEXTROSE AND MALTODEXTRIN,RAISIN JUICE CONCENTRATE,BUCKWHEAT,DATEM,MONOGLYCERIDES,BROWN RICE,OATS,TRITICALE,CITRIC ACID,BARLEY,FLAXSEED,MILLET,STEVIA EXTRACT (A NATURAL SWEETENER),CALCIUM SULFATE,GRAIN VINEGAR,ETHOXYLATED MONO- AND DIGLYCERIDES,SOY LECITHIN,CALCIUM CARBONATE,NUTS (WALNUTS AND/OR HAZELNUTS AND/OR ALMONDS),RICE PROTEIN,WHEY,SOY FLOUR,NONFAT MILK.;43.0;0.0;16.0;120.0;15.0;1.5;2.0;0.0;0.0;0.0;0.0;0.0;150.0;6.0;0.0;0.0;21.0;7.0;2.0;8.0;4.0;4.0;0;0.0;6.0;6.0
0073410013519;Honey Whole Wheat;50000000;;;;http://product.okfn.org.s3.amazonaws.com/images/gtin/gtin-007/0073410013519.jpg;R1TS5M;Arnold;http://product.okfn.org.s3.amazonaws.com/images/brand/R1TS5M.jpg;http://www.arnoldbread.com;;;;;;0073410;0071330000008;Orograin Bakeries Manufacturing, Inc.;US;Horsham;19044;255 Business Center Dr;;PA;;0;1;;;680.0;24.0;;;;;GS1 US;US;WHOLE WHEAT FLOUR,WATER,HONEY,SUGAR,WHEAT GLUTEN,YEAST,WHEAT BRAN,SOYBEAN OIL,SALT,MONOGLYCERIDES,CALCIUM PROPIONATE (PRESERVATIVE),DATEM,CALCIUM SULFATE,GRAIN VINEGAR,CITRIC ACID,SOY LECITHIN,CALCIUM CARBONATE,WHEY,NONFAT MILK;43.0;0.0;16.0;100.0;10.0;1.0;2.0;0.0;0.0;0.0;0.0;0.0;150.0;6.0;0.0;0.0;20.0;7.0;3.0;12.0;4.0;5.0;0;0.0;4.0;6.0
0073410013748;Double Protein;50000000;;;;http://product.okfn.org.s3.amazonaws.com/images/gtin/gtin-007/0073410013748.jpg;R1TS5M;Arnold;http://product.okfn.org.s3.amazonaws.com/images/brand/R1TS5M.jpg;http://www.arnoldbread.com;;;;;;0073410;0071330000008;Orograin Bakeries Manufacturing, Inc.;US;Horsham;19044;255 Business Center Dr;;PA;;0;1;;;680.0;24.0;;;;;GS1 US;US;WHOLE WHEAT FLOUR,WATER,SUGAR,WHEAT GLUTEN,WHEAT PROTEIN ISOLATE,OATS,YEAST,CRACKED WHEAT,INULIN (CHICKORY ROOT FIBER),SOYBEAN OIL,SUNFLOWER SEEDS,RICE PROTEIN,SALT,BARLEY FLAKES,TRITICALE,WHEAT FLAKES,RAISIN JUICE CONCENTRATE,GRAIN VINEGAR,RYE,AMARANTH,FLAXSEED,MONOGLYCERIDES,WHEAT GERM,CORNMEAL,CALCIUM PROPIONATE (PRESERVATIVE),DATEM,CALCIUM SULFATE,CITRIC ACID,SOY LECITHIN,CALCIUM CARBONATE,WHEY,NONFAT MILK;43.0;0.0;16.0;110.0;15.0;1.5;2.0;0.0;0.0;0.0;0.0;0.0;150.0;6.0;0.0;0.0;18.0;6.0;3.0;12.0;2.0;7.0;0;0.0;4.0;6.0
0073410032008;Seedless;50000000;;;;http://product.okfn.org.s3.amazonaws.com/images/gtin/gtin-007/0073410032008.jpg;R1TS5M;Arnold;http://product.okfn.org.s3.amazonaws.com/images/brand/R1TS5M.jpg;http://www.arnoldbread.com;;;;;;0073410;0071330000008;Orograin Bakeries Manufacturing, Inc.;US;Horsham;19044;255 Business Center Dr;;PA;;0;1;;;454.0;16.0;;;;;GS1 US;US;UNBLEACHED ENRICHED WHEAT FLOUR [FLOUR,MALTED BARLEY FLOUR,REDUCED IRON,NIACIN,THIAMIN MONONITRATE (VITAMIN B1),RIBOFLAVIN (VITAMIN B2),FOLIC ACID],WATER,RYE FLOUR,SUGAR,SOYBEAN OIL,SALT,GROUND CARAWAY,WHEAT GLUTEN,YEAST,PRESERVATIVES (CALCIUM PROPIONATE,SODIUM PROPIONATE),GRAIN VINEGAR,DATEM,MONO- AND DIGLYCERIDES,FUMARIC ACID,LACTIC ACID,CALCIUM LACTATE,ETHOXYLATED MONO- AND DIGLYCERIDES,CITRIC ACID,GLUCONO DELTA LACTONE,POTASSIUM CITRATE,SODIUM DIACETATE,SOY LECITHIN,CALCIUM CARBONATE,POLYSORBATE 60,CALCIUM SULFATE,PHOSPHORIC ACID.;41.0;0.0;11.0;110.0;15.0;1.5;2.0;0.0;0.0;0.0;0.0;0.0;290.0;12.0;0.0;0.0;20.0;7.0;0.99;3.0;2.0;3.0;0;0.0;4.0;6.0
0073410032053;Seeded;50000000;;;;http://product.okfn.org.s3.amazonaws.com/images/gtin/gtin-007/0073410032053.jpg;R1TS5M;Arnold;http://product.okfn.org.s3.amazonaws.com/images/brand/R1TS5M.jpg;http://www.arnoldbread.com;;;;;;0073410;0071330000008;Orograin Bakeries Manufacturing, Inc.;US;Horsham;19044;255 Business Center Dr;;PA;;0;1;;;454.0;16.0;;;;;GS1 US;US;UNBLEACHED ENRICHED WHEAT FLOUR [FLOUR,MALTED BARLEY FLOUR,REDUCED IRON,NIACIN,THIAMIN MONONITRATE (VITAMIN B1),RIBOFLAVIN (VITAMIN B2),FOLIC ACID],WATER,RYE FLOUR,SUGAR,SOYBEAN OIL,SALT,WHEAT GLUTEN,CARAWAY SEEDS,YEAST,PRESERVATIVES (CALCIUM PROPIONATE,SODIUM PROPIONATE),GRAIN VINEGAR,GROUND CARAWAY,DATEM,MONO- AND DIGLYCERIDES,FUMARIC ACID,LACTIC ACID,CALCIUM LACTATE,ETHOXYLATED MONO- AND DIGLYCERIDES,CITRIC ACID,GLUCONO DELTA LACTONE,POTASSIUM CITRATE,SODIUM DIACETATE,SOY LECITHIN,CALCIUM CARBONATE,POLYSORBATE 60,CALCIUM SULFATE,PHOSPHORIC ACID.;30.0;0.0;15.0;80.0;10.0;1.0;2.0;0.0;0.0;0.0;0.0;0.0;220.0;9.0;14.0;5.0;14.0;5.0;0.99;3.0;1.0;3.0;0;0.0;4.0;4.0
0073410117910;Extra Fiber;50000000;;;;http://product.okfn.org.s3.amazonaws.com/images/gtin/gtin-007/0073410117910.jpg;R1TS5M;Arnold;http://product.okfn.org.s3.amazonaws.com/images/brand/R1TS5M.jpg;http://www.arnoldbread.com;;;;;;0073410;0071330000008;Orograin Bakeries Manufacturing, Inc.;US;Horsham;19044;255 Business Center Dr;;PA;;0;1;;;680.0;24.0;;;;;GS1 US;US;WHOLE WHEAT FLOUR,WATER,SUGAR,WHEAT GLUTEN,YEAST,INULIN (CHICKORY ROOT FIBER),SOYBEAN OIL,WHEAT FIBER,SALT,WHEAT BRAN,MOLASSES,ENRICHMENT (CALCIUM SULFATE,VITAMIN E ACETATE,VITAMIN A PALMITATE,VITAMIN D3),DATEM,MONO- AND DIGLYCERIDES,CALCIUM PROPIONATE (PRESERVATIVE),MONOCALCIUM PHOSPHATE,SOY LECITHIN.;38.0;0.0;18.0;90.0;15.0;1.5;2.0;0.0;0.0;0.0;0.0;0.0;190.0;8.0;0.0;0.0;18.0;6.0;4.0;16.0;3.0;4.0;10;0.0;10.0;6.0
0073410135433;Sandwich Thins Rolls Honey Wheat;50000000;;;;http://product.okfn.org.s3.amazonaws.com/images/gtin/gtin-007/0073410135433.jpg;R1TS5M;Arnold;http://product.okfn.org.s3.amazonaws.com/images/brand/R1TS5M.jpg;http://www.arnoldbread.com;;;;;;0073410;0071330000008;Orograin Bakeries Manufacturing, Inc.;US;Horsham;19044;255 Business Center Dr;;PA;;0;1;;;340.0;12.0;;;;;GS1 US;US;WHOLE WHEAT FLOUR,WATER,UNBLEACHED ENRICHED WHEAT FLOUR [FLOUR,MALTED BARLEY FLOUR,REDUCED IRON,NIACIN,THIAMIN MONONITRATE (VITAMIN B1),RIBOFLAVIN (VITAMIN B2),FOLIC ACID],CELLULOSE FIBER,FLAKED WHEAT,HONEY,YEAST,WHEAT GLUTEN,POLYDEXTROSE,SALT,SOYBEAN AND/OR CANOLA OIL,PRESERVATIVES (CALCIUM PROPIONATE,SORBIC ACID),GUAR GUM,MONOGLYCERIDES,NATURAL FLAVOR,CITRIC ACID,STEVIA EXTRACT (A NATURAL SWEETENER),SOY LECITHIN.;43.0;0.0;8.0;100.0;10.0;1.0;2.0;0.0;0.0;0.0;0.0;0.0;170.0;7.0;0.0;0.0;22.0;7.0;5.0;20.0;2.0;4.0;0;0.0;4.0;6.0
0073410135464;Sandwich Thins Rolls 100% Whole Wheat;50000000;;;;http://product.okfn.org.s3.amazonaws.com/images/gtin/gtin-007/0073410135464.jpg;R1TS5M;Arnold;http://product.okfn.org.s3.amazonaws.com/images/brand/R1TS5M.jpg;http://www.arnoldbread.com;;;;;;0073410;0071330000008;Orograin Bakeries Manufacturing, Inc.;US;Horsham;19044;255 Business Center Dr;;PA;;0;1;;;340.0;12.0;;;;;GS1 US;US;WHOLE WHEAT FLOUR,WATER,WHEAT BRAN,SUGAR,YEAST,CELLULOSE FIBER,WHEAT GLUTEN,POLYDEXTROSE,SALT,SOYBEAN AND/OR CANOLA OIL,PRESERVATIVES (CALCIUM PROPIONATE,SORBIC ACID),GUAR GUM,MONOGLYCERIDES,DATEM,CITRIC ACID,STEVIA EXTRACT (A NATURAL SWEETENER),SOY LECITHIN.;43.0;0.0;8.0;100.0;10.0;1.0;2.0;0.0;0.0;0.0;0.0;0.0;170.0;7.0;0.0;0.0;22.0;7.0;5.0;20.0;2.0;5.0;0;0.0;4.0;6.0
0073410135471;Sandwich Thins Rolls Multi-Grain;50000000;;;;http://product.okfn.org.s3.amazonaws.com/images/gtin/gtin-007/0073410135471.jpg;R1TS5M;Arnold;http://product.okfn.org.s3.amazonaws.com/images/brand/R1TS5M.jpg;http://www.arnoldbread.com;;;;;;0073410;0071330000008;Orograin Bakeries Manufacturing, Inc.;US;Horsham;19044;255 Business Center Dr;;PA;;0;1;;;340.0;12.0;;;;;GS1 US;US;WHOLE WHEAT FLOUR,WATER,UNBLEACHED ENRICHED WHEAT FLOUR [FLOUR,MALTED BARLEY FLOUR,REDUCED IRON,NIACIN,THIAMIN MONONITRATE (VITAMIN B1),RIBOFLAVIN (VITAMIN B2),FOLIC ACID],CELLULOSE FIBER,WHEAT GLUTEN,YEAST,SUGAR,RYE,POLYDEXTROSE,SALT,SOYBEAN AND/OR CANOLA OIL,CRACKED WHEAT,GROUND CORN,OATS,PRESERVATIVES (CALCIUM PROPIONATE,SORBIC ACID),CORN GRITS,GRAIN VINEGAR,GUAR GUM,MONOGLYCERIDES,BROWN RICE,TRITICALE,BARLEY,FLAXSEED,MILLET,CITRIC ACID,STEVIA EXTRACT (A NATURAL SWEETENER),SOY LECITHIN.;43.0;0.0;8.0;100.0;10.0;1.0;2.0;0.0;0.0;0.0;0.0;0.0;170.0;7.0;0.0;0.0;22.0;7.0;5.0;20.0;2.0;4.0;0;0.0;4.0;6.0
0073410136232;100% Whole Wheat Sandwich Rolls;50000000;;;;http://product.okfn.org.s3.amazonaws.com/images/gtin/gtin-007/0073410136232.jpg;R1TS5M;Arnold;http://product.okfn.org.s3.amazonaws.com/images/brand/R1TS5M.jpg;http://www.arnoldbread.com;;;;;;0073410;0071330000008;Orograin Bakeries Manufacturing, Inc.;US;Horsham;19044;255 Business Center Dr;;PA;;0;1;;;510.0;18.0;;;;;GS1 US;US;WHOLE WHEAT FLOUR,WATER,WHEAT GLUTEN,HIGH FRUCTOSE CORN SYRUP,YEAST,HONEY,SOYBEAN OIL,SALT,MOLASSES,OAT BRAN,DATEM,GRAIN VINEGAR,MONOGLYCERIDES,CALCIUM PROPIONATE (PRESERVATIVE),CALCIUM SULFATE,MONOCALCIUM PHOSPHATE,AZODICARBONAMIDE,SOY LECITHIN.;64.0;0.0;8.0;160.0;20.0;2.0;3.0;0.5;3.0;0.0;0.0;0.0;310.0;13.0;0.0;0.0;26.0;9.0;4.0;16.0;4.0;8.0;0;0.0;8.0;8.0
0073410163320;Hot Dog Rolls White;50000000;;;;http://product.okfn.org.s3.amazonaws.com/images/gtin/gtin-007/0073410163320.jpg;R1TS5M;Arnold;http://product.okfn.org.s3.amazonaws.com/images/brand/R1TS5M.jpg;http://www.arnoldbread.com;;;;;;0073410;0071330000008;Orograin Bakeries Manufacturing, Inc.;US;Horsham;19044;255 Business Center Dr;;PA;;0;1;;;;14.0;;;;;GS1 US;US;ENRICHED WHEAT FLOUR [FLOUR,MALTED BARLEY FLOUR,NIACIN,REDUCED IRON,THIAMIN MONONITRATE (VITAMIN B1),RIBOFLAVIN (VITAMIN B2),FOLIC ACID],WATER,HIGH FRUCTOSE CORN SYRUP,YEAST,SOYBEAN OIL,SALT,WHEAT GLUTEN,MONOGLYCERIDES,CALCIUM PROPIONATE (PRESERVATIVE),CALCIUM SULFATE,DATEM,GRAIN VINEGAR,MONOCALCIUM PHOSPHATE,AZODICARBONAMIDE,SOY LECITHIN.;50.0;0.0;8.0;130.0;20.0;2.0;3.0;0.5;3.0;0.0;0.0;0.0;310.0;13.0;0.0;0.0;26.0;9.0;1.0;4.0;4.0;4.0;0;0.0;6.0;8.0
0073410164006;Hot Dog Rolls White New England;50000000;;;;http://product.okfn.org.s3.amazonaws.com/images/gtin/gtin-007/0073410164006.jpg;R1TS5M;Arnold;http://product.okfn.org.s3.amazonaws.com/images/brand/R1TS5M.jpg;http://www.arnoldbread.com;;;;;;0073410;0071330000008;Orograin Bakeries Manufacturing, Inc.;US;Horsham;19044;255 Business Center Dr;;PA;;0;1;;;340.0;12.0;;;;;GS1 US;US;ENRICHED WHEAT FLOUR [FLOUR,MALTED BARLEY FLOUR,REDUCED IRON,NIACIN,THIAMIN MONONITRATE (VITAMIN B1),RIBOFLAVIN (VITAMIN B2),FOLIC ACID],WATER,HIGH FRUCTOSE CORN SYRUP,YEAST,SOYBEAN OIL,SALT,WHEAT GLUTEN,MONOGLYCERIDES,CALCIUM PROPIONATE (PRESERVATIVE),CALCIUM SULFATE,DATEM,GRAIN VINEGAR,MONOCALCIUM PHOSPHATE,SOY LECITHIN,AZODICARBONAMIDE.;50.0;0.0;8.0;130.0;20.0;2.0;3.0;0.5;3.0;0.0;0.0;0.0;310.0;13.0;0.0;0.0;26.0;9.0;1.0;4.0;4.0;4.0;0;0.0;6.0;8.0
0073410312001;Stuffing Seasoned;50000000;;;;http://product.okfn.org.s3.amazonaws.com/images/gtin/gtin-007/0073410312001.jpg;R1TS5M;Arnold;http://product.okfn.org.s3.amazonaws.com/images/brand/R1TS5M.jpg;http://www.arnoldbread.com;;;;;;0073410;0071330000008;Orograin Bakeries Manufacturing, Inc.;US;Horsham;19044;255 Business Center Dr;;PA;;0;1;;;396.0;14.0;;;;;GS1 US;US;ENRICHED FLOUR [WHEAT FLOUR,MALTED BARLEY FLOUR,NIACIN,IRON,THIAMIN MONONITRATE (VITAMIN B1),RIBOFLAVIN (VITAMIN B2),FOLIC ACID],HIGH FRUCTOSE CORN SYRUP,SALT,PARTIALLY HYDROGENATED VEGETABLE OIL (SOYBEAN AND/OR COTTONSEED). CONTAINS 2% OR LESS OF EACH OF THE FOLLOWING: DEHYDRATED ONION,YEAST,SPICES,DISTILLED VINEGAR,SOY LECITHIN,SOY FLOUR.;27.0;0.0;16.0;110.0;25.0;2.5;4.0;0.0;0.0;0.0;0.0;0.0;390.0;16.0;0.0;0.0;19.0;6.0;0.99;3.0;1.0;3.0;0;0.0;0.0;0.0
0073410312100;Stuffing Unseasoned;50000000;;;;http://product.okfn.org.s3.amazonaws.com/images/gtin/gtin-007/0073410312100.jpg;R1TS5M;Arnold;http://product.okfn.org.s3.amazonaws.com/images/brand/R1TS5M.jpg;http://www.arnoldbread.com;;;;;;0073410;0071330000008;Orograin Bakeries Manufacturing, Inc.;US;Horsham;19044;255 Business Center Dr;;PA;;0;1;;;425.0;15.0;;;;;GS1 US;US;ENRICHED FLOUR [WHEAT FLOUR,MALTED BARLEY FLOUR,NIACIN,IRON,THIAMIN MONONITRATE (VITAMIN B1),RIBOFLAVIN (VITAMIN B2),FOLIC ACID],HIGH FRUCTOSE CORN SYRUP,PARTIALLY HYDROGENATED VEGETABLE OIL (SOYBEAN AND/OR COTTONSEED),SALT. CONTAINS 2% OR LESS OF EACH OF THE FOLLOWING: YEAST,DISTILLED VINEGAR,SOY LECITHIN,SOY FLOUR.;27.0;0.0;16.0;110.0;20.0;2.0;3.0;0.0;0.0;0.0;0.0;0.0;210.0;9.0;0.0;0.0;19.0;6.0;0.99;2.0;2.0;3.0;0;0.0;0.0;0.0
0087684000946;Mountain Cooler Juice;50000000;;;;http://product.okfn.org.s3.amazonaws.com/images/gtin/gtin-008/0087684000946.jpg;6LW2P5;CapriSun;http://product.okfn.org.s3.amazonaws.com/images/brand/6LW2P5.jpg;http://www.caprisun.com;;;;;;0087684;0087684000007;Capri Sun, Inc.;US;Winnetka;60093;3 Lakes Dr;;IL;;0;10;;;;;177.0;;;;GS1 US;US;WATER,HIGH FRUCTOSE CORN SYRUP,APPLE JUICE CONCENTRATE,CITRIC ACID,NATURAL FLAVOR,VITAMIN E ACETATE.;0.0;177.0;10.0;60.0;0.0;0.0;0.0;0.0;0.0;0.0;0.0;0.0;15.0;1.0;0.0;0.0;17.0;6.0;0.0;0.0;16.0;0.0;0;0.0;0.0;0.0
0087684000953;Pacific Cooler Juice;50000000;;;;http://product.okfn.org.s3.amazonaws.com/images/gtin/gtin-008/0087684000953.jpg;6LW2P5;CapriSun;http://product.okfn.org.s3.amazonaws.com/images/brand/6LW2P5.jpg;http://www.caprisun.com;;;;;;0087684;0087684000007;Capri Sun, Inc.;US;Winnetka;60093;3 Lakes Dr;;IL;;0;10;;;;;177.0;;;;GS1 US;US;WATER; HIGH FRUCTOSE CORN SYRUP; APPLE,GRAPE,AND WATER EXTRACTED ORANGE JUICE CONCENTRATES; CITRIC ACID; PINEAPPLE JUICE CONCENTRATE; NATURAL FLAVOR; VITAMIN E ACETATE.;0.0;177.0;10.0;60.0;0.0;0.0;0.0;0.0;0.0;0.0;0.0;0.0;15.0;1.0;0.0;0.0;17.0;6.0;0.0;0.0;16.0;0.0;0;0.0;0.0;0.0
0087684000960;Coastal Cooler Juice;50000000;;;;http://product.okfn.org.s3.amazonaws.com/images/gtin/gtin-008/0087684000960.jpg;6LW2P5;CapriSun;http://product.okfn.org.s3.amazonaws.com/images/brand/6LW2P5.jpg;http://www.caprisun.com;;;;;;0087684;0087684000007;Capri Sun, Inc.;US;Winnetka;60093;3 Lakes Dr;;IL;;0;10;;;;;177.0;;;;GS1 US;US;WATER,HIGH FRUCTOSE CORN SYRUP,APPLE JUICE CONCENTRATE,CITRIC ACID,STRAWBERRY JUICE CONCENTRATE,NATURAL FLAVOR,VITAMIN E ACETATE.;0.0;177.0;10.0;60.0;0.0;0.0;0.0;0.0;0.0;0.0;0.0;0.0;15.0;1.0;0.0;0.0;17.0;6.0;0.0;0.0;16.0;0.0;0;0.0;0.0;0.0
0087684000991;Stawberry Kiwi Juice;50000000;;;;http://product.okfn.org.s3.amazonaws.com/images/gtin/gtin-008/0087684000991.jpg;6LW2P5;CapriSun;http://product.okfn.org.s3.amazonaws.com/images/brand/6LW2P5.jpg;http://www.caprisun.com;;;;;;0087684;0087684000007;Capri Sun, Inc.;US;Winnetka;60093;3 Lakes Dr;;IL;;0;10;;;;;177.0;;;;GS1 US;US;WATER,HIGH FRUCTOSE CORN SYRUP,APPLE AND STRAWBERRY JUICE CONCENTRATES,CITRIC ACID,NATURAL FLAVOR,VITAMIN E ACETATE.;0.0;177.0;10.0;60.0;0.0;0.0;0.0;0.0;0.0;0.0;0.0;0.0;15.0;1.0;0.0;0.0;17.0;6.0;0.0;0.0;16.0;0.0;0;0.0;0.0;0.0
0087684001011;Strawberry Juice;50000000;;;;http://product.okfn.org.s3.amazonaws.com/images/gtin/gtin-008/0087684001011.jpg;6LW2P5;CapriSun;http://product.okfn.org.s3.amazonaws.com/images/brand/6LW2P5.jpg;http://www.caprisun.com;;;;;;0087684;0087684000007;Capri Sun, Inc.;US;Winnetka;60093;3 Lakes Dr;;IL;;0;10;;;;;177.0;;;;GS1 US;US;WATER,HIGH FRUCTOSE CORN SYRUP,PEAR AND APPLE JUICE CONCENTRATES,CITRIC ACID,STRAWBERRY JUICE CONCENTRATE,NATURAL FLAVOR,VITAMIN E ACETATE.;0.0;177.0;10.0;60.0;0.0;0.0;0.0;0.0;0.0;0.0;0.0;0.0;15.0;1.0;0.0;0.0;17.0;6.0;0.0;0.0;16.0;0.0;0;0.0;0.0;0.0
0087684001042;Surf Cooler Juice;50000000;;;;http://product.okfn.org.s3.amazonaws.com/images/gtin/gtin-008/0087684001042.jpg;6LW2P5;CapriSun;http://product.okfn.org.s3.amazonaws.com/images/brand/6LW2P5.jpg;http://www.caprisun.com;;;;;;0087684;0087684000007;Capri Sun, Inc.;US;Winnetka;60093;3 Lakes Dr;;IL;;0;10;;;;;177.0;;;;GS1 US;US;WATER; HIGH FRUCTOSE CORN SYRUP; PEAR,WATER EXTRACTED ORANGE,AND PINEAPPLE JUICE CONCENTRATES; CITRIC ACID; NATURAL FLAVOR; VITAMIN E ACETATE.;0.0;177.0;10.0;60.0;0.0;0.0;0.0;0.0;0.0;0.0;0.0;0.0;15.0;1.0;0.0;0.0;17.0;6.0;0.0;0.0;16.0;0.0;0;0.0;0.0;0.0
0087684002872;Fruit Punch Juice;50000000;;;;http://product.okfn.org.s3.amazonaws.com/images/gtin/gtin-008/0087684002872.jpg;6LW2P5;CapriSun;http://product.okfn.org.s3.amazonaws.com/images/brand/6LW2P5.jpg;http://www.caprisun.com;;;;;;0087684;0087684000007;Capri Sun, Inc.;US;Winnetka;60093;3 Lakes Dr;;IL;;0;10;;;;;177.0;;;;GS1 US;US;WATER,HIGH FRUCTOSE CORN SYRUP,CITRIC ACID,SUCRALOSE (SPLENDA(R) BRAND SWEETENER),NATURAL FLAVOR.;0.0;177.0;10.0;30.0;0.0;0.0;0.0;0.0;0.0;0.0;0.0;0.0;15.0;1.0;0.0;0.0;8.0;3.0;0.0;0.0;8.0;0.0;0;0.0;0.0;0.0
0836093001064;Juice Blueberry;50000000;;;;http://product.okfn.org.s3.amazonaws.com/images/gtin/gtin-083/0836093001064.jpg;BI5TXW;Izze;http://product.okfn.org.s3.amazonaws.com/images/brand/BI5TXW.jpg;http://www.izze.com;Pepsico;000012;http://www.pepsico.com;http://en.wikipedia.org/wiki/Pepsico;http://product.okfn.org.s3.amazonaws.com/images/group/000012.jpg;083609300;0021224000003;PepsiCo, Inc.;US;Purchase;10577;700 Anderson Hill Rd;;NY;;0;1;;;;;;12.0;;;GS1 US;US;PURE JUICE MADE FROM WHITE GRAPE,APPLE AND BLUEBERRY JUICE CONCENTRATES,SPARKLING WATER,CITRIC ACID,RED GRAPE JUICE CONCENTRATE (COLOR),NATURAL FLAVOR;0.0;360.0;1.0;130.0;0.0;0.0;0.0;0.0;0.0;0.0;0.0;0.0;30.0;1.0;0.0;0.0;33.0;11.0;0.0;0.0;31.0;0.0;0;0.0;0.0;0.0
0836093001071;Juice Apple;50000000;;;;http://product.okfn.org.s3.amazonaws.com/images/gtin/gtin-083/0836093001071.jpg;BI5TXW;Izze;http://product.okfn.org.s3.amazonaws.com/images/brand/BI5TXW.jpg;http://www.izze.com;Pepsico;000012;http://www.pepsico.com;http://en.wikipedia.org/wiki/Pepsico;http://product.okfn.org.s3.amazonaws.com/images/group/000012.jpg;083609300;0021224000003;PepsiCo, Inc.;US;Purchase;10577;700 Anderson Hill Rd;;NY;;0;1;;;;;;12.0;;;GS1 US;US;PURE JUICE MADE FROM APPLE AND WHITE GRAPE JUICE CONCENTRATES,SPARKLING WATER,NATURAL FLAVOR,CITRIC ACID;0.0;360.0;1.0;130.0;0.0;0.0;0.0;0.0;0.0;0.0;0.0;0.0;20.0;1.0;0.0;0.0;33.0;11.0;0.0;0.0;30.0;0.0;0;0.0;0.0;0.0
0836093002054;Juice Clementine;50000000;;;;http://product.okfn.org.s3.amazonaws.com/images/gtin/gtin-083/0836093002054.jpg;BI5TXW;Izze;http://product.okfn.org.s3.amazonaws.com/images/brand/BI5TXW.jpg;http://www.izze.com;Pepsico;000012;http://www.pepsico.com;http://en.wikipedia.org/wiki/Pepsico;http://product.okfn.org.s3.amazonaws.com/images/group/000012.jpg;083609300;0021224000003;PepsiCo, Inc.;US;Purchase;10577;700 Anderson Hill Rd;;NY;;0;4;;;;;;12.0;;;GS1 US;US;PURE JUICE MADE FROM APPLE,WHITE GRAPE,ORANGE AND CLEMENTINE JUICE CONCENTRATES,SPARKLING WATER,CITRIC ACID,GUM ARABIC,NATURAL FLAVOR,BETA CAROTENE (COLOR);0.0;360.0;1.0;120.0;0.0;0.0;0.0;0.0;0.0;0.0;0.0;0.0;25.0;1.0;0.0;0.0;30.0;10.0;0.0;0.0;27.0;0.0;0;0.0;0.0;0.0
0836093002078;Juice Apple;50000000;;;;http://product.okfn.org.s3.amazonaws.com/images/gtin/gtin-083/0836093002078.jpg;BI5TXW;Izze;http://product.okfn.org.s3.amazonaws.com/images/brand/BI5TXW.jpg;http://www.izze.com;Pepsico;000012;http://www.pepsico.com;http://en.wikipedia.org/wiki/Pepsico;http://product.okfn.org.s3.amazonaws.com/images/group/000012.jpg;083609300;0021224000003;PepsiCo, Inc.;US;Purchase;10577;700 Anderson Hill Rd;;NY;;0;4;;;;;;12.0;;;GS1 US;US;PURE JUICE MADE FROM APPLE AND WHITE GRAPE JUICE CONCENTRATES,SPARKLING WATER,NATURAL FLAVOR,CITRIC ACID;0.0;360.0;1.0;130.0;0.0;0.0;0.0;0.0;0.0;0.0;0.0;0.0;20.0;1.0;0.0;0.0;33.0;11.0;0.0;0.0;30.0;0.0;0;0.0;0.0;0.0
0836093504091;Juice Ginger;50000000;;;;http://product.okfn.org.s3.amazonaws.com/images/gtin/gtin-083/0836093504091.jpg;BI5TXW;Izze;http://product.okfn.org.s3.amazonaws.com/images/brand/BI5TXW.jpg;http://www.izze.com;Pepsico;000012;http://www.pepsico.com;http://en.wikipedia.org/wiki/Pepsico;http://product.okfn.org.s3.amazonaws.com/images/group/000012.jpg;083609350;0021224000003;PepsiCo, Inc.;US;Purchase;10577;700 Anderson Hill Rd;;NY;;0;4;;;;;;12.0;;;GS1 US;US;SPARKLING WATER,SUGAR,NATURAL FLAVOR,CITRIC ACID,NATURAL APPLE EXTRACT (COLOR),GINGER OIL;0.0;360.0;1.0;120.0;0.0;0.0;0.0;0.0;0.0;0.0;0.0;0.0;5.0;0.0;0.0;0.0;29.0;10.0;0.0;0.0;29.0;0.0;0;0.0;0.0;0.0
0857063002072;Lemongrass Basil Chicken;50000000;;;;http://product.okfn.org.s3.amazonaws.com/images/gtin/gtin-085/0857063002072.jpg;MEJZBY;Saffron Road;http://product.okfn.org.s3.amazonaws.com/images/brand/MEJZBY.jpg;http://www.saffronroadfood.com;;;;;;0857063002;0857063002003;American Halal;US;Stamford;06905;1177 Summer St;;CT;;0;1;;;;11.0;;;;;GS1 US;US;Basmati Rice (Water,Basmati Rice,Expeller Pressed Canola Oil,Ginger,Garlic),Sauce (Water,Coconut Milk [Coconut Extract,Water],Green Bell Peppers,Onions,Cane Sugar,Garlic,Fresh Basil,Lemon Juice Concentrate,Ginger,Green Curry Paste [Fresh Green Chilies,Garlic,Wild Ginger,Shallot,Lemongrass,Salt,Kaffir Lime,Sugar,Galangal,Spices,Pepper],Expeller Pressed Canola Oil,Cornstarch,Spices,Lemongrass Extract (Soybean Oil,Lemongrass Extractives),Chicken (Chicken Breast,Water,Expeller Pressed Canola Oil,Cornstarch,Sea Salt,Garlic). Contains Coconut;312.0;0.0;1.0;370.0;80.0;9.0;14.0;6.0;30.0;0.0;50.0;17.0;460.0;19.0;0.0;0.0;44.0;15.0;2.0;8.0;13.0;20.0;10;45.0;6.0;25.0
0857063002089;Moroccan Lamb Stew;50000000;;;;http://product.okfn.org.s3.amazonaws.com/images/gtin/gtin-085/0857063002089.jpg;MEJZBY;Saffron Road;http://product.okfn.org.s3.amazonaws.com/images/brand/MEJZBY.jpg;http://www.saffronroadfood.com;;;;;;0857063002;0857063002003;American Halal;US;Stamford;06905;1177 Summer St;;CT;;0;1;;;;11.0;;;;;GS1 US;US;Sauce (Diced Tomatoes,Water,Lamb Broth,Sweet Potatoes,Onion,Dried Apricots,Garlic,Ginger,Extra Virgin Olive Oil,Honey,Tomato Paste [Tomatoes,Citric Acid],Orange Peel,Spices,Sea Salt),Couscous (Water,Couscous [semolina wheat],Expeller Pressed Canola Oil,Vegetable Base [Dehydrated Vegetables including Onion,Tomato,Sweet Corn,Carrot,Celery,Pumpkin,Carrot Juice,Bell Pepper,Green Leek and Garlic; Sea Salt,Sugar,Yeast Extract,Corn Oil,Spices and Extractives of Celery,Onion & Garlic],Dried Parsley),Lamb (Lamb,Nonfat Yogurt [Cultured Nonfat Milk,Pectin],Water,Cornstarch,Ginger,Sea Salt,Garlic,Spices,Expeller Pressed Canola Oil). Contains Milk,Wheat.;312.0;0.0;1.0;370.0;110.0;12.0;18.0;3.0;15.0;0.0;40.0;13.0;680.0;28.0;0.0;0.0;40.0;13.0;4.0;16.0;18.0;18.0;45;6.0;15.0;15.0
0857063002201;Chicken Nuggets;50000000;;;;http://product.okfn.org.s3.amazonaws.com/images/gtin/gtin-085/0857063002201.jpg;MEJZBY;Saffron Road;http://product.okfn.org.s3.amazonaws.com/images/brand/MEJZBY.jpg;http://www.saffronroadfood.com;;;;;;0857063002;0857063002003;American Halal;US;Stamford;06905;1177 Summer St;;CT;;0;1;;;;8.0;;;;;GS1 US;US;Chicken Breast Meat,Water.  Contains 2% Or Less Of: Rice Starch,Lemon Juice Concentrate,Sea Salt,Vinegar,Tocopherols (Vitamin E). PREDUSTED,BATTERED,AND BREADED WITH: Dried Potatoes,Water,Rice Flour,Corn Flour,Corn Starch,Corn Meal,Salt,Garlic Powder,Onion Powder,Expeller Pressed Canola Oil,Cream of Tartar,Sodium Bicarbonate,Spices,Xanthan Gum.;85.0;0.0;2.5;170.0;30.0;3.5;5.0;0.5;3.0;0.0;40.0;13.0;370.0;15.0;0.0;0.0;17.0;6.0;1.0;4.0;0.0;17.0;0;4.0;2.0;4.0
0857063002348;Turkish Figs & Goat Cheese;50000000;;;;http://product.okfn.org.s3.amazonaws.com/images/gtin/gtin-085/0857063002348.jpg;MEJZBY;Saffron Road;http://product.okfn.org.s3.amazonaws.com/images/brand/MEJZBY.jpg;http://www.saffronroadfood.com;;;;;;0857063002;0857063002003;American Halal;US;Stamford;06905;1177 Summer St;;CT;;0;1;;;;8.25;;;;;GS1 US;US;Phyllo Dough (Enriched Unbleached Unbromated Wheat Flour [Wheat Flour Enriched (Niacin,Iron,Thiamine Mononitrate,Riboflavin,Folic Acid),Malted Barley Flour],Filtered Water,Organic Wheat Starch,Organic Tapioca Starch,Malted Barley Flour,Natural Flavor,Organic Expeller Pressed Soy Oil,Salt,Non-GMO Soy Lecithin),rBST-Free Cream Cheese* (Cultured Pasteurized Milk And Cream,Skim Milk,Salt,Carob Bean Gum),Figs,Chèvre (Cultured Pasteurized Goat Milk,Salt,Cultures And Enzymes),Organic Expeller Pressed Soy Oil,Clarified Sweet Butter (Cream & Natural Flavoring),Coriander,Clove. CONTAINS: MILK,SOY AND WHEAT INGREDIENTS.;78.0;0.0;3.0;270.0;130.0;15.0;23.0;7.0;36.0;0.0;30.0;10.0;210.0;9.0;0.0;0.0;28.0;9.0;1.0;5.0;7.0;6.0;8;0.0;6.0;8.0
0857063002430;Bombay Spice Chickpeas;50000000;;;;http://product.okfn.org.s3.amazonaws.com/images/gtin/gtin-085/0857063002430.jpg;MEJZBY;Saffron Road;http://product.okfn.org.s3.amazonaws.com/images/brand/MEJZBY.jpg;http://www.saffronroadfood.com;;;;;;0857063002;0857063002003;American Halal;US;Stamford;06905;1177 Summer St;;CT;;0;1;;;;6.0;;;;;GS1 US;US;Organic Chickpeas,Expeller Pressed Canola Oil,Cane Sugar,Salt,Spices,Paprika,Black Bean Powder (Black Beans,Sugar),Onion Powder,Garlic Powder,Tumeric,Yeast Extract,Citric Acid,Extractives Of Paprika And Annato.;28.0;0.0;6.0;120.0;29.0;4.0;5.0;0.0;0.0;0.0;0.0;0.0;200.0;8.0;0.0;0.0;16.0;6.0;1.0;4.0;2.0;6.0;0;0.0;0.0;0.0
0857063002508;Artisan Roasted Chicken Broth;50000000;;;;http://product.okfn.org.s3.amazonaws.com/images/gtin/gtin-085/0857063002508.jpg;MEJZBY;Saffron Road;http://product.okfn.org.s3.amazonaws.com/images/brand/MEJZBY.jpg;http://www.saffronroadfood.com;;;;;;0857063002;0857063002003;American Halal;US;Stamford;06905;1177 Summer St;;CT;;0;1;;;;32.0;;;;;GS1 US;US;Chicken Stock,Carrot Stock,Onion Stock,Celery Stock,Sea Salt,Chicken Fat,Toasted Onion Powder,Natural Flavor,Spices.;0.0;240.0;4.0;20.0;5.0;0.5;1.0;0.0;0.0;0.0;0.0;0.0;530.0;22.0;115.0;3.0;0.0;0.0;0.0;0.0;0.0;3.0;2;0.0;0.0;0.0
0857063002607;Tikka Masala;50000000;;;;http://product.okfn.org.s3.amazonaws.com/images/gtin/gtin-085/0857063002607.jpg;MEJZBY;Saffron Road;http://product.okfn.org.s3.amazonaws.com/images/brand/MEJZBY.jpg;http://www.saffronroadfood.com;;;;;;0857063002;0857063002003;American Halal;US;Stamford;06905;1177 Summer St;;CT;;0;1;;;;7.0;;;;;GS1 US;US;Water,Tomato Paste,Sugar,Canola Oil,Cream,Salt,Modified Corn Starch,Spices,Lemon Juice Concentrate,Yogurt Powder (Cultured Nonfat Milk),Dehydrated Garlic,Paprika,Soy Lecithin,Natural Flavors,Lactic Acid,Turmeric,Sunflower Oil,Xanthan Gum,Natural Smoke Flavor.CONTAINS: MILK,SOY.;30.0;0.0;7.0;35.0;20.0;2.0;3.0;0.5;2.0;0.0;4.99;1.0;240.0;10.0;0.0;0.0;4.0;1.0;0.0;0.0;3.0;0.99;4;6.0;0.0;2.0
0857063002652;Harissa;50000000;;;;http://product.okfn.org.s3.amazonaws.com/images/gtin/gtin-085/0857063002652.jpg;MEJZBY;Saffron Road;http://product.okfn.org.s3.amazonaws.com/images/brand/MEJZBY.jpg;http://www.saffronroadfood.com;;;;;;0857063002;0857063002003;American Halal;US;Stamford;06905;1177 Summer St;;CT;;0;1;;;;7.0;;;;;GS1 US;US;Water,Roasted Red Pepper Puree,Tomato Paste,Red Bell Pepper,Pear Juice Concentrate,Non-Gmo Native Corn Starch,Lemon Juice Concentrate,Sea Salt,Spices,Onion,Garlic.;30.0;0.0;7.0;15.0;0.0;0.0;0.0;0.0;0.0;0.0;0.0;0.0;170.0;7.0;0.0;0.0;3.0;1.0;0.0;2.0;1.0;0.0;7;26.0;0.0;4.0
0012000012068;Flavored Water - Raspberry;50000000;;;;http://product.okfn.org.s3.amazonaws.com/images/gtin/gtin-001/0012000012068.jpg;48MHLZ;Aquafina;http://product.okfn.org.s3.amazonaws.com/images/brand/48MHLZ.jpg;http://www.aquafina.com;Pepsico;000012;http://www.pepsico.com;http://en.wikipedia.org/wiki/Pepsico;http://product.okfn.org.s3.amazonaws.com/images/group/000012.jpg;0012000;0012000000003;Pepsi-Cola North America Inc.;US;Purchase;10577;700 Anderson Hill Road;;NY;;0;6;;;;;;16.9;;;GS1 US;US;FILTERED WATER,NATURAL FLAVOR,CITRIC ACID,SODIUM HEXAMETAPHOSPHATE (TO PROTECT FLAVOR),PHOSPHORIC ACID,SODIUM BENZOATE (PRESERVES FRESHNESS),SODIUM CITRATE,SUCRALOSE,CALCIUM DISODIUM EDTA (TO PROTECT FLAVOR);0.0;240.0;2.0;0.0;0.0;0.0;0.0;0.0;0.0;0.0;0.0;0.0;140.0;6.0;0.0;0.0;0.0;0.0;0.0;0.0;0.0;0.0;0;0.0;0.0;0.0
0012000031144;Flavored Water - Peach Mango;50000000;;;;http://product.okfn.org.s3.amazonaws.com/images/gtin/gtin-001/0012000031144.jpg;48MHLZ;Aquafina;http://product.okfn.org.s3.amazonaws.com/images/brand/48MHLZ.jpg;http://www.aquafina.com;Pepsico;000012;http://www.pepsico.com;http://en.wikipedia.org/wiki/Pepsico;http://product.okfn.org.s3.amazonaws.com/images/group/000012.jpg;0012000;0012000000003;Pepsi-Cola North America Inc.;US;Purchase;10577;700 Anderson Hill Road;;NY;;0;6;;;;16.9;;;;;GS1 US;US;FILTERED WATER,NATURAL FLAVOR,CITRIC ACID,SODIUM HEXAMETAPHOSPHATE (TO PROTECT FLAVOR),PHOSPHORIC ACID,POTASSIUM CITRATE,POTASSIUM SORBATE (PRESERVES FRESHNESS),SUCRALOSE,ACESULFAME POTASSIUM,CALCIUM DISODIUM EDTA (TO PROTECT FLAVOR);0.0;240.0;2.0;0.0;0.0;0.0;0.0;0.0;0.0;0.0;0.0;0.0;135.0;6.0;0.0;0.0;0.0;0.0;0.0;0.0;0.0;0.0;0;0.0;0.0;0.0
0033383007038;Fuji WAXF 2 1/2\ 5lb;50000000;;;;http://product.okfn.org.s3.amazonaws.com/images/gtin/gtin-003/0033383007038.jpg;8RB56Z;Washington Fruit & Produce Co.;http://product.okfn.org.s3.amazonaws.com/images/brand/8RB56Z.jpg;http://www.washfruit.com;;;;;;0033383;0033383000008;Produce Marketing Association Inc.;US;Newark;19714-6036;P.O. Box 6036;;DE;;0;1;;;2268.0;389.0;;;;;GS1 US;US;Apple;242.0;0.0;1.0;130.0;0.0;0.0;0.0;0.0;0.0;0.0;0.0;0.0;0.0;0.0;260.0;7.0;34.0;11.0;5.0;20.0;25.0;1.0;2;8.0;2.0;4.0
0033383010243;Cripps Pink WAXF 3lb 2 ½”;50000000;;;;http://product.okfn.org.s3.amazonaws.com/images/gtin/gtin-003/0033383010243.jpg;8RB56Z;Washington Fruit & Produce Co.;http://product.okfn.org.s3.amazonaws.com/images/brand/8RB56Z.jpg;http://www.washfruit.com;;;;;;0033383;0033383000008;Produce Marketing Association Inc.;US;Newark;19714-6036;P.O. Box 6036;;DE;;0;1;;;1360.0;233.0;;;;;GS1 US;US;Apple;242.0;0.0;1.0;130.0;0.0;0.0;0.0;0.0;0.0;0.0;0.0;0.0;0.0;0.0;260.0;7.0;34.0;11.0;5.0;20.0;25.0;1.0;2;8.0;2.0;4.0
0033383300504;D'anjou US#1 2 1/8 3lb;50000000;;;;http://product.okfn.org.s3.amazonaws.com/images/gtin/gtin-003/0033383300504.jpg;8RB56Z;Washington Fruit & Produce Co.;http://product.okfn.org.s3.amazonaws.com/images/brand/8RB56Z.jpg;http://www.washfruit.com;;;;;;0033383;0033383000008;Produce Marketing Association Inc.;US;Newark;19714-6036;P.O. Box 6036;;DE;;0;1;;;1360.0;233.0;;;;;GS1 US;US;Pear;166.0;0.0;1.0;100.0;10.0;1.0;2.0;0.0;0.0;0.0;0.0;0.0;0.0;0.0;0.0;0.0;25.0;8.0;4.0;16.0;17.0;1.0;0;10.0;2.0;0.0
0033383310664;Dark Sweet 4 Lb;50000000;;;;http://product.okfn.org.s3.amazonaws.com/images/gtin/gtin-003/0033383310664.jpg;8RB56Z;Washington Fruit & Produce Co.;http://product.okfn.org.s3.amazonaws.com/images/brand/8RB56Z.jpg;http://www.washfruit.com;;;;;;0033383;0033383000008;Produce Marketing Association Inc.;US;Newark;19714-6036;P.O. Box 6036;;DE;;0;1;;;1814.0;311.0;;;;;GS1 US;US;Cherry;140.0;0.0;1.0;90.0;0.0;0.5;1.0;0.0;0.0;0.0;0.0;0.0;0.0;0.0;300.0;9.0;22.0;7.0;3.0;12.0;19.0;2.0;2;15.0;2.0;2.0
0033383310695;Rainier 1 Lb;50000000;;;;http://product.okfn.org.s3.amazonaws.com/images/gtin/gtin-003/0033383310695.jpg;8RB56Z;Washington Fruit & Produce Co.;http://product.okfn.org.s3.amazonaws.com/images/brand/8RB56Z.jpg;http://www.washfruit.com;;;;;;0033383;0033383000008;Produce Marketing Association Inc.;US;Newark;19714-6036;P.O. Box 6036;;DE;;0;1;;;454.0;78.0;;;;;GS1 US;US;Cherry;140.0;0.0;1.0;90.0;0.0;0.5;1.0;0.0;0.0;0.0;0.0;0.0;0.0;0.0;300.0;9.0;22.0;7.0;3.0;12.0;19.0;2.0;2;15.0;2.0;2.0
0039400016069;Original Baked Beans;50000000;;;;http://product.okfn.org.s3.amazonaws.com/images/gtin/gtin-003/0039400016069.jpg;D13UVY;Bush's best;http://product.okfn.org.s3.amazonaws.com/images/brand/D13UVY.jpg;http://www.bushbeans.com;;;;;;0039400;0039400000006;Bush Brothers and Company;US;Knoxville;37950;P.O. Box 52330;;TN;;0;1;;;;8.3;;;;;GS1 US;US;;130.0;0.0;1.0;140.0;10.0;1.0;2.0;0.0;0.0;0.0;0.0;0.0;550.0;23.0;0.0;0.0;29.0;10.0;5.0;20.0;12.0;6.0;0;0.0;4.0;10.0
0039400018940;Refried Black Beans;50000000;;;;http://product.okfn.org.s3.amazonaws.com/images/gtin/gtin-003/0039400018940.jpg;D13UVY;Bush's best;http://product.okfn.org.s3.amazonaws.com/images/brand/D13UVY.jpg;http://www.bushbeans.com;;;;;;0039400;0039400000006;Bush Brothers and Company;US;Knoxville;37950;P.O. Box 52330;;TN;;0;1;;;;16.0;;;;;GS1 US;US;;130.0;0.0;1.0;150.0;25.0;3.0;5.0;1.0;5.0;0.0;2.0;1.0;440.0;18.0;580.0;17.0;23.0;7.0;7.0;28.0;2.0;8.0;0;0.0;3.0;10.0
0039400019183;Texas Ranchero;50000000;;;;http://product.okfn.org.s3.amazonaws.com/images/gtin/gtin-003/0039400019183.jpg;D13UVY;Bush's best;http://product.okfn.org.s3.amazonaws.com/images/brand/D13UVY.jpg;http://www.bushbeans.com;;;;;;0039400;0039400000006;Bush Brothers and Company;US;Knoxville;37950;P.O. Box 52330;;TN;;0;1;;;624.0;22.0;;;;;GS1 US;US;;130.0;0.0;1.0;120.0;20.0;2.0;3.0;0.0;0.0;0.0;0.0;0.0;630.0;26.0;0.0;0.0;20.0;7.0;5.0;20.0;2.0;6.0;0;0.0;4.0;8.0
0073410000267;12 Grain;50000000;;;;http://product.okfn.org.s3.amazonaws.com/images/gtin/gtin-007/0073410000267.jpg;R1TS5M;Arnold;http://product.okfn.org.s3.amazonaws.com/images/brand/R1TS5M.jpg;http://www.arnoldbread.com;;;;;;0073410;0071330000008;Orograin Bakeries Manufacturing, Inc.;US;Horsham;19044;255 Business Center Dr;;PA;;0;1;;;680.0;24.0;;;;;GS1 US;US;WHOLE WHEAT FLOUR,UNBLEACHED ENRICHED WHEAT FLOUR [FLOUR,MALTED BARLEY FLOUR,REDUCED IRON,NIACIN,THIAMIN MONONITRATE (VITAMIN B1),RIBOFLAVIN (VITAMIN B2),FOLIC ACID],WATER,SUGAR,SUNFLOWER SEEDS,WHEAT GLUTEN,WHEAT,RYE,CELLULOSE FIBER,OATS,YEAST,SOYBEAN OIL,GROUND CORN,SALT,MOLASSES,BUCKWHEAT,BROWN RICE,CALCIUM PROPIONATE (PRESERVATIVE),MONOGLYCERIDES,TRITICALE,BARLEY,FLAXSEED,MILLET,CALCIUM SULFATE,DATEM,GRAIN VINEGAR,CALCIUM CARBONATE,CITRIC ACID,SOY LECITHIN,NUTS [WALNUTS AND/OR HAZELNUTS (FILBERTS) AND/OR ALMONDS],WHEY,SOY FLOUR,NONFAT MILK;43.0;0.0;16.0;110.0;15.0;1.5;2.0;0.0;0.0;0.0;0.0;0.0;170.0;7.0;0.0;0.0;21.0;7.0;3.0;12.0;3.0;5.0;0;0.0;4.0;6.0
0073410025901;Double Fiber;50000000;;;;http://product.okfn.org.s3.amazonaws.com/images/gtin/gtin-007/0073410025901.jpg;R1TS5M;Arnold;http://product.okfn.org.s3.amazonaws.com/images/brand/R1TS5M.jpg;http://www.arnoldbread.com;;;;;;0073410;0071330000008;Orograin Bakeries Manufacturing, Inc.;US;Horsham;19044;255 Business Center Dr;;PA;;0;1;;;680.0;24.0;;;;;GS1 US;US;WHOLE WHEAT FLOUR,WATER,SUGAR,INULIN (CHICKORY ROOT FIBER),WHEAT GLUTEN,WHEAT FIBER,YEAST,SOYBEAN OIL,CELLULOSE FIBER,POLYDEXTROSE,WHEAT BRAN,MOLASSES,SALT,DATEM,CALCIUM PROPIONATE (PRESERVATIVE),MONOGLYCERIDES,GRAIN VINEGAR,CALCIUM SULFATE,CITRIC ACID,SOY LECITHIN,CALCIUM CARBONATE,WHEY,NONFAT MILK;43.0;0.0;16.0;100.0;15.0;1.5;2.0;0.0;0.0;0.0;0.0;0.0;170.0;7.0;0.0;0.0;21.0;7.0;6.0;24.0;2.0;4.0;0;0.0;2.0;6.0
0073410032107;Melba Thin;50000000;;;;http://product.okfn.org.s3.amazonaws.com/images/gtin/gtin-007/0073410032107.jpg;R1TS5M;Arnold;http://product.okfn.org.s3.amazonaws.com/images/brand/R1TS5M.jpg;http://www.arnoldbread.com;;;;;;0073410;0071330000008;Orograin Bakeries Manufacturing, Inc.;US;Horsham;19044;255 Business Center Dr;;PA;;0;1;;;454.0;16.0;;;;;GS1 US;US;UNBLEACHED ENRICHED WHEAT FLOUR [FLOUR,MALTED BARLEY FLOUR,REDUCED IRON,NIACIN,THIAMIN MONONITRATE (VITAMIN B1),RIBOFLAVIN (VITAMIN B2),FOLIC ACID],WATER,RYE FLOUR,SUGAR,SOYBEAN OIL,SALT,GROUND CARAWAY,WHEAT GLUTEN,YEAST,PRESERVATIVES (CALCIUM PROPIONATE,SODIUM PROPIONATE),GRAIN VINEGAR,DATEM,MONO- AND DIGLYCERIDES,FUMARIC ACID,LACTIC ACID,CALCIUM LACTATE,ETHOXYLATED MONO- AND DIGLYCERIDES,CITRIC ACID,GLUCONO DELTA LACTONE,POTASSIUM CITRATE,SODIUM DIACETATE,SOY LECITHIN,CALCIUM CARBONATE,POLYSORBATE 60,CALCIUM SULFATE,PHOSPHORIC ACID.;41.0;0.0;11.0;110.0;15.0;1.5;2.0;0.0;0.0;0.0;0.0;0.0;290.0;12.0;0.0;0.0;20.0;7.0;0.99;3.0;2.0;2.0;0;0.0;4.0;6.0
0073410133101;Onion Sandwich Rolls;50000000;;;;http://product.okfn.org.s3.amazonaws.com/images/gtin/gtin-007/0073410133101.jpg;R1TS5M;Arnold;http://product.okfn.org.s3.amazonaws.com/images/brand/R1TS5M.jpg;http://www.arnoldbread.com;;;;;;0073410;0071330000008;Orograin Bakeries Manufacturing, Inc.;US;Horsham;19044;255 Business Center Dr;;PA;;0;1;;;552.0;19.5;;;;;GS1 US;US;ENRICHED WHEAT FLOUR [FLOUR,MALTED BARLEY FLOUR,REDUCED IRON,NIACIN,THIAMIN MONONITRATE (VITAMIN B1),RIBOFLAVIN (VITAMIN B2),FOLIC ACID],WATER,HIGH FRUCTOSE CORN SYRUP,YEAST,DEHYDRATED ONIONS,SOYBEAN OIL,POPPY SEEDS,WHEAT GLUTEN,SALT,MONO- AND DIGLYCERIDES,CORN FLOUR,CALCIUM PROPIONATE (PRESERVATIVE),DATEM,GRAIN VINEGAR,MONOCALCIUM PHOSPHATE,CALCIUM SULFATE,SPICE & COLORING,SOY LECITHIN,NATURAL & ARTIFICIAL FLAVOR,CALCIUM IODATE,SOY FLOUR.;69.0;0.0;8.0;210.0;30.0;3.5;5.0;0.5;3.0;0.0;0.0;0.0;380.0;16.0;0.0;0.0;39.0;13.0;2.0;8.0;4.0;6.0;0;0.0;15.0;15.0
0073410310250;Stuffing Herb Seasoned;50000000;;;;http://product.okfn.org.s3.amazonaws.com/images/gtin/gtin-007/0073410310250.jpg;R1TS5M;Arnold;http://product.okfn.org.s3.amazonaws.com/images/brand/R1TS5M.jpg;http://www.arnoldbread.com;;;;;;0073410;0071330000008;Orograin Bakeries Manufacturing, Inc.;US;Horsham;19044;255 Business Center Dr;;PA;;0;1;;;396.0;14.0;;;;;GS1 US;US;ENRICHED FLOUR [WHEAT FLOUR,MALTED BARLEY FLOUR,NIACIN,IRON,THIAMIN MONONITRATE (VITAMIN B1),RIBOFLAVIN (VITAMIN B2),FOLIC ACID],WHOLE WHEAT FLOUR,HIGH FRUCTOSE CORN SYRUP,SALT,PARTIALLY HYDROGENATED VEGETABLE OIL (SOYBEAN AND/OR COTTONSEED). CONTAINS 2% OR LESS OF EACH OF THE FOLLOWING: SPICES,YEAST,PARSLEY,WHEAT GLUTEN,DISTILLED VINEGAR,ONION POWDER,SOY LECITHIN,CORNSTARCH,SOY FLOUR.;27.0;0.0;15.0;110.0;25.0;2.5;4.0;0.0;0.0;0.0;0.0;0.0;340.0;14.0;0.0;0.0;18.0;6.0;1.0;4.0;2.0;3.0;0;0.0;0.0;4.0
0073410311271;Stuffing Cornbread;50000000;;;;http://product.okfn.org.s3.amazonaws.com/images/gtin/gtin-007/0073410311271.jpg;R1TS5M;Arnold;http://product.okfn.org.s3.amazonaws.com/images/brand/R1TS5M.jpg;http://www.arnoldbread.com;;;;;;0073410;0071330000008;Orograin Bakeries Manufacturing, Inc.;US;Horsham;19044;255 Business Center Dr;;PA;;0;1;;;396.0;14.0;;;;;GS1 US;US;ENRICHED FLOUR [WHEAT FLOUR,MALTED BARLEY FLOUR,NIACIN,IRON,THIAMIN MONONITRATE (VITAMIN B1),RIBOFLAVIN (VITAMIN B2),FOLIC ACID],YELLOW CORN MEAL,HIGH FRUCTOSE CORN SYRUP,PARTIALLY HYDROGENATED VEGETABLE OIL (SOYBEAN AND/OR COTTONSEED),SALT. CONTAINS 2% OR LESS OF EACH OF THE FOLLOWING: WHEAT GLUTEN,DEHYDRATED ONION,YEAST,SPICES,DISTILLED VINEGAR,RED PEPPER,PAPRIKA (COLOR),SOY LECITHIN,SOY FLOUR.;27.0;0.0;15.0;110.0;25.0;2.5;4.0;0.0;0.0;0.0;0.0;0.0;240.0;10.0;0.0;0.0;19.0;6.0;0.99;3.0;2.0;3.0;0;0.0;0.0;0.0
0073410312063;Stuffing Sage & Onion;50000000;;;;http://product.okfn.org.s3.amazonaws.com/images/gtin/gtin-007/0073410312063.jpg;R1TS5M;Arnold;http://product.okfn.org.s3.amazonaws.com/images/brand/R1TS5M.jpg;http://www.arnoldbread.com;;;;;;0073410;0071330000008;Orograin Bakeries Manufacturing, Inc.;US;Horsham;19044;255 Business Center Dr;;PA;;0;1;;;396.0;14.0;;;;;GS1 US;US;ENRICHED FLOUR [WHEAT FLOUR,MALTED BARLEY FLOUR,NIACIN,IRON THIAMIN MONONITRATE (VITAMIN B1),RIBOFLAVIN (VITAMIN B2),FOLIC ACID],WHOLE WHEAT FLOUR,HIGH FRUCTOSE CORN SYRUP,SALT,PARTIALLY HYDROGENATED VEGETABLE OIL (SOYBEAN AND/OR COTTONSEED),DEHYDRATED ONION. CONTAINS 2% OR LESS OF EACH OF THE FOLLOWING: YEAST,SPICES,WHEAT GLUTEN,DISTILLED VINEGAR,SOY LECITHIN,CORNSTARCH,SOY FLOUR.;27.0;0.0;15.0;110.0;25.0;2.5;4.0;0.0;0.0;0.0;0.0;0.0;340.0;14.0;0.0;0.0;18.0;6.0;0.99;3.0;2.0;3.0;0;0.0;0.0;2.0
0087684001035;Grape Juice;50000000;;;;http://product.okfn.org.s3.amazonaws.com/images/gtin/gtin-008/0087684001035.jpg;6LW2P5;CapriSun;http://product.okfn.org.s3.amazonaws.com/images/brand/6LW2P5.jpg;http://www.caprisun.com;;;;;;0087684;0087684000007;Capri Sun, Inc.;US;Winnetka;60093;3 Lakes Dr;;IL;;0;10;;;;;177.0;;;;GS1 US;US;WATER,HIGH FRUCTOSE CORN SYRUP,GRAPE AND PEAR JUICE CONCENTRATES,CITRIC ACID,NATURAL FLAVOR,VITAMIN E ACETATE.;0.0;177.0;10.0;60.0;0.0;0.0;0.0;0.0;0.0;0.0;0.0;0.0;15.0;1.0;0.0;0.0;17.0;6.0;0.0;0.0;16.0;0.0;0;0.0;0.0;0.0
0087684001059;Orange Juice;50000000;;;;http://product.okfn.org.s3.amazonaws.com/images/gtin/gtin-008/0087684001059.jpg;6LW2P5;CapriSun;http://product.okfn.org.s3.amazonaws.com/images/brand/6LW2P5.jpg;http://www.caprisun.com;;;;;;0087684;0087684000007;Capri Sun, Inc.;US;Winnetka;60093;3 Lakes Dr;;IL;;0;10;;;;;177.0;;;;GS1 US;US;WATER; HIGH FRUCTOSE CORN SYRUP; APPLE,ORANGE,AND WATER EXTRACTED ORANGE JUICE CONCENTRATES; CITRIC ACID; NATURAL FLAVOR; VITAMIN E ACETATE.;0.0;177.0;10.0;60.0;0.0;0.0;0.0;0.0;0.0;0.0;0.0;0.0;15.0;1.0;0.0;0.0;17.0;6.0;0.0;0.0;16.0;0.0;0;0.0;0.0;0.0
0087684001325;Citrus Juice;50000000;;;;http://product.okfn.org.s3.amazonaws.com/images/gtin/gtin-008/0087684001325.jpg;6LW2P5;CapriSun;http://product.okfn.org.s3.amazonaws.com/images/brand/6LW2P5.jpg;http://www.caprisun.com;;;;;;0087684;0087684000007;Capri Sun, Inc.;US;Winnetka;60093;3 Lakes Dr;;IL;;0;10;;;;;177.0;;;;GS1 US;US;APPLE,GRAPE,PEAR,ORANGE,AND TANGERINE JUICES FROM CONCENTRATE (WATER; GRAPE,APPLE,PEAR,TANGERINE,AND ORANGE JUICE CONCENTRATES); CITRIC ACID (FOR TARTNESS); NATURAL FLAVOR.;0.0;177.0;10.0;80.0;0.0;0.0;0.0;0.0;0.0;0.0;0.0;0.0;20.0;1.0;0.0;0.0;23.0;8.0;0.0;0.0;21.0;0.0;0;0.0;0.0;0.0
0836093001040;Juice Grapefruit;50000000;;;;http://product.okfn.org.s3.amazonaws.com/images/gtin/gtin-083/0836093001040.jpg;BI5TXW;Izze;http://product.okfn.org.s3.amazonaws.com/images/brand/BI5TXW.jpg;http://www.izze.com;Pepsico;000012;http://www.pepsico.com;http://en.wikipedia.org/wiki/Pepsico;http://product.okfn.org.s3.amazonaws.com/images/group/000012.jpg;083609300;0021224000003;PepsiCo, Inc.;US;Purchase;10577;700 Anderson Hill Rd;;NY;;0;1;;;;;;12.0;;;GS1 US;US;PURE JUICE MADE FROM APPLE,WHITE GRAPE,ORANGE.AND GRAPEFRUIT JUICE CONCENTRATES,SPARKLING WATER,CITRIC ACID,NATURAL FLAVOR,GUM ARABIC,RED RADISH JUICE (COLOR);0.0;360.0;1.0;120.0;0.0;0.0;0.0;0.0;0.0;0.0;0.0;0.0;20.0;1.0;0.0;0.0;31.0;10.0;0.0;0.0;29.0;0.0;0;0.0;0.0;0.0
0836093001088;Juice Pomegranate;50000000;;;;http://product.okfn.org.s3.amazonaws.com/images/gtin/gtin-083/0836093001088.jpg;BI5TXW;Izze;http://product.okfn.org.s3.amazonaws.com/images/brand/BI5TXW.jpg;http://www.izze.com;Pepsico;000012;http://www.pepsico.com;http://en.wikipedia.org/wiki/Pepsico;http://product.okfn.org.s3.amazonaws.com/images/group/000012.jpg;083609300;0021224000003;PepsiCo, Inc.;US;Purchase;10577;700 Anderson Hill Rd;;NY;;0;1;;;;;;12.0;;;GS1 US;US;PURE JUICE MADE FROM APPLE,WHITE GRAPE,CLARIFIED PINEAPPLE,CRANBERRY AND POMEGRANATE JUICE CONCENTRATES,SPARKLING WATER,NATURAL FLAVOR,CITRIC ACID,FRUIT AND VEGETABLE JUICE (COLOR);0.0;360.0;1.0;120.0;0.0;0.0;0.0;0.0;0.0;0.0;0.0;0.0;15.0;1.0;0.0;0.0;31.0;10.0;0.0;0.0;26.0;0.0;0;0.0;0.0;0.0
0836093002047;Juice Grapefruit;50000000;;;;http://product.okfn.org.s3.amazonaws.com/images/gtin/gtin-083/0836093002047.jpg;BI5TXW;Izze;http://product.okfn.org.s3.amazonaws.com/images/brand/BI5TXW.jpg;http://www.izze.com;Pepsico;000012;http://www.pepsico.com;http://en.wikipedia.org/wiki/Pepsico;http://product.okfn.org.s3.amazonaws.com/images/group/000012.jpg;083609300;0021224000003;PepsiCo, Inc.;US;Purchase;10577;700 Anderson Hill Rd;;NY;;0;4;;;;;;12.0;;;GS1 US;US;PURE JUICE MADE FROM APPLE,WHITE GRAPE,ORANGE.AND GRAPEFRUIT JUICE CONCENTRATES,SPARKLING WATER,CITRIC ACID,NATURAL FLAVOR,GUM ARABIC,RED RADISH JUICE (COLOR);0.0;360.0;1.0;120.0;0.0;0.0;0.0;0.0;0.0;0.0;0.0;0.0;20.0;1.0;0.0;0.0;31.0;10.0;0.0;0.0;29.0;0.0;0;0.0;0.0;0.0
0836093011025;Juice Blackberry;50000000;;;;http://product.okfn.org.s3.amazonaws.com/images/gtin/gtin-083/0836093011025.jpg;BI5TXW;Izze;http://product.okfn.org.s3.amazonaws.com/images/brand/BI5TXW.jpg;http://www.izze.com;Pepsico;000012;http://www.pepsico.com;http://en.wikipedia.org/wiki/Pepsico;http://product.okfn.org.s3.amazonaws.com/images/group/000012.jpg;083609301;0021224000003;PepsiCo, Inc.;US;Purchase;10577;700 Anderson Hill Rd;;NY;;0;1;;;;;;8.4;;;GS1 US;US;PURE JUICE MADE FROM APPLE,WHITE GRAPE,BLACKBERRY,RASPBERRY AND ACEROLA JUICE CONCENTRATES,SPARKLING WATER,CITRIC ACID,NATURAL FLAVOR,RED GRAPE JUICE CONCENTRATE (COLOR),ASCORBIC ACID (VITAMIN C),NIACINAMIDE,PYRIDOXINE HYDROCHLORIDE (VITAMIN B6).;0.0;250.0;1.0;90.0;0.0;0.0;0.0;0.0;0.0;0.0;0.0;0.0;20.0;1.0;0.0;0.0;22.0;7.0;0.0;0.0;20.0;0.0;0;30.0;0.0;0.0
0836093012046;Juice Grapefruit;50000000;;;;http://product.okfn.org.s3.amazonaws.com/images/gtin/gtin-083/0836093012046.jpg;BI5TXW;Izze;http://product.okfn.org.s3.amazonaws.com/images/brand/BI5TXW.jpg;http://www.izze.com;Pepsico;000012;http://www.pepsico.com;http://en.wikipedia.org/wiki/Pepsico;http://product.okfn.org.s3.amazonaws.com/images/group/000012.jpg;083609301;0021224000003;PepsiCo, Inc.;US;Purchase;10577;700 Anderson Hill Rd;;NY;;0;4;;;;;;8.4;;;GS1 US;US;PURE JUICE MADE FROM APPLE,WHITE GRAPE,ORANGE,GRAPEFRUIT AND ACEROLA JUICE CONCENTRATES,SPARKLING WATER,CITRIC ACID,NATURAL FLAVOR,GUM ARABIC,RED RADISH JUICE (COLOR),ASCORBIC ACID (VITAMIN C),NIACINAMIDE,PYRIDOXINE HYDROCHLORIDE (VITAMIN B6);0.0;250.0;1.0;90.0;0.0;0.0;0.0;0.0;0.0;0.0;0.0;0.0;15.0;1.0;0.0;0.0;22.0;7.0;0.0;0.0;20.0;0.0;0;30.0;0.0;0.0
0836093012077;Juice Apple;50000000;;;;http://product.okfn.org.s3.amazonaws.com/images/gtin/gtin-083/0836093012077.jpg;BI5TXW;Izze;http://product.okfn.org.s3.amazonaws.com/images/brand/BI5TXW.jpg;http://www.izze.com;Pepsico;000012;http://www.pepsico.com;http://en.wikipedia.org/wiki/Pepsico;http://product.okfn.org.s3.amazonaws.com/images/group/000012.jpg;083609301;0021224000003;PepsiCo, Inc.;US;Purchase;10577;700 Anderson Hill Rd;;NY;;0;4;;;;;;8.4;;;GS1 US;US;PURE JUICE MADE FROM APPLE,WHITE GRAPE AND ACEROLA JUICE CONCENTRATES,SPARKLING WATER,NATURAL FLAVOR,CITRIC ACID,ASCORBIC ACID (VITAMIN C),NIACINAMIDE,PYRIDOXINE HYDROCHLORIDE (VITAMIN B6);0.0;250.0;1.0;90.0;0.0;0.0;0.0;0.0;0.0;0.0;0.0;0.0;15.0;1.0;0.0;0.0;23.0;8.0;0.0;0.0;21.0;0.0;0;30.0;0.0;0.0
0836093013043;Juice Grapefruit;50000000;;;;http://product.okfn.org.s3.amazonaws.com/images/gtin/gtin-083/0836093013043.jpg;BI5TXW;Izze;http://product.okfn.org.s3.amazonaws.com/images/brand/BI5TXW.jpg;http://www.izze.com;Pepsico;000012;http://www.pepsico.com;http://en.wikipedia.org/wiki/Pepsico;http://product.okfn.org.s3.amazonaws.com/images/group/000012.jpg;083609301;0021224000003;PepsiCo, Inc.;US;Purchase;10577;700 Anderson Hill Rd;;NY;;0;1;;;;;;8.4;;;GS1 US;US;PURE JUICE MADE FROM APPLE,WHITE GRAPE,ORANGE,GRAPEFRUIT AND ACEROLA JUICE CONCENTRATES,SPARKLING WATER,CITRIC ACID,NATURAL FLAVOR,GUM ARABIC,RED RADISH JUICE (COLOR),ASCORBIC ACID (VITAMIN C),NIACINAMIDE,PYRIDOXINE HYDROCHLORIDE (VITAMIN B6);0.0;250.0;1.0;90.0;0.0;0.0;0.0;0.0;0.0;0.0;0.0;0.0;15.0;1.0;0.0;0.0;22.0;7.0;0.0;0.0;20.0;0.0;0;30.0;0.0;0.0
0836093015023;Juice Blackberry;50000000;;;;http://product.okfn.org.s3.amazonaws.com/images/gtin/gtin-083/0836093015023.jpg;BI5TXW;Izze;http://product.okfn.org.s3.amazonaws.com/images/brand/BI5TXW.jpg;http://www.izze.com;Pepsico;000012;http://www.pepsico.com;http://en.wikipedia.org/wiki/Pepsico;http://product.okfn.org.s3.amazonaws.com/images/group/000012.jpg;083609301;0021224000003;PepsiCo, Inc.;US;Purchase;10577;700 Anderson Hill Rd;;NY;;0;24;;;;;;8.4;;;GS1 US;US;PURE JUICE MADE FROM APPLE,WHITE GRAPE,BLACKBERRY,RASPBERRY AND ACEROLA JUICE CONCENTRATES,SPARKLING WATER,CITRIC ACID,NATURAL FLAVOR,RED GRAPE JUICE CONCENTRATE (COLOR),ASCORBIC ACID (VITAMIN C),NIACINAMIDE,PYRIDOXINE HYDROCHLORIDE (VITAMIN B6).;0.0;250.0;1.0;90.0;0.0;0.0;0.0;0.0;0.0;0.0;0.0;0.0;20.0;1.0;0.0;0.0;22.0;7.0;0.0;0.0;20.0;0.0;0;30.0;0.0;0.0
0836093515080;Juice Birch;50000000;;;;http://product.okfn.org.s3.amazonaws.com/images/gtin/gtin-083/0836093515080.jpg;BI5TXW;Izze;http://product.okfn.org.s3.amazonaws.com/images/brand/BI5TXW.jpg;http://www.izze.com;Pepsico;000012;http://www.pepsico.com;http://en.wikipedia.org/wiki/Pepsico;http://product.okfn.org.s3.amazonaws.com/images/group/000012.jpg;083609351;0021224000003;PepsiCo, Inc.;US;Purchase;10577;700 Anderson Hill Rd;;NY;;0;1;;;;;;12.0;;;GS1 US;US;SPARKLING WATER,SUGAR,NATURAL FLAVOR,NATURAL APPLE EXTRACT (COLOR),CITRIC ACID,BIRCH OIL;0.0;360.0;1.0;120.0;0.0;0.0;0.0;0.0;0.0;0.0;0.0;0.0;10.0;1.0;0.0;0.0;29.0;10.0;0.0;0.0;29.0;0.0;0;0.0;0.0;0.0
0836093516056;Juice Lime;50000000;;;;http://product.okfn.org.s3.amazonaws.com/images/gtin/gtin-083/0836093516056.jpg;BI5TXW;Izze;http://product.okfn.org.s3.amazonaws.com/images/brand/BI5TXW.jpg;http://www.izze.com;Pepsico;000012;http://www.pepsico.com;http://en.wikipedia.org/wiki/Pepsico;http://product.okfn.org.s3.amazonaws.com/images/group/000012.jpg;083609351;0021224000003;PepsiCo, Inc.;US;Purchase;10577;700 Anderson Hill Rd;;NY;;0;1;;;;;;12.0;;;GS1 US;US;PURE JUICE MADE FROM APPLE,WHITE GRAPE AND LIME JUICE CONCENTRATES,SPARKLING WATER,NATURAL FLAVOR;0.0;360.0;1.0;130.0;0.0;0.0;0.0;0.0;0.0;0.0;0.0;0.0;15.0;1.0;0.0;0.0;31.0;10.0;0.0;0.0;27.0;0.0;0;0.0;0.0;0.0
0857063002003;Chicken Tikka Masala;50000000;;;;http://product.okfn.org.s3.amazonaws.com/images/gtin/gtin-085/0857063002003.jpg;MEJZBY;Saffron Road;http://product.okfn.org.s3.amazonaws.com/images/brand/MEJZBY.jpg;http://www.saffronroadfood.com;;;;;;0857063002;0857063002003;American Halal;US;Stamford;06905;1177 Summer St;;CT;;0;1;;;;11.0;;;;;GS1 US;US;Masala Sauce (Water,Onions,Tomato Paste [Tomatoes,Citric Acid],Cream,Ginger,Garlic,Expeller Pressed Canola Oil,Spices,Sea Salt,Cane Sugar),Basmati Rice (Water,Basmati Rice,Expeller Pressed Canola Oil,Garlic,Ginger),Chicken (Chicken Breast,Nonfat Yogurt [Cultured Nonfat Milk,Pectin] Water,Cornstarch,Ginger,Sea Salt,Garlic. Contains Milk.;312.0;0.0;1.0;290.0;45.0;5.0;8.0;1.5;8.0;0.0;40.0;13.0;670.0;28.0;0.0;0.0;39.0;13.0;3.0;12.0;2.0;18.0;10;4.0;8.0;15.0
0857063002270;Chana Saag;50000000;;;;http://product.okfn.org.s3.amazonaws.com/images/gtin/gtin-085/0857063002270.jpg;MEJZBY;Saffron Road;http://product.okfn.org.s3.amazonaws.com/images/brand/MEJZBY.jpg;http://www.saffronroadfood.com;;;;;;0857063002;0857063002003;American Halal;US;Stamford;06905;1177 Summer St;;CT;;0;1;;;;5.5;;;;;GS1 US;US;Chana Saag Filling: Spinach,Organic Chickpeas,Diced Tomatoes (Diced Tomatoes,Tomato Juice,Salt,Calcium Chloride,Citric Acid),Diced Onions,Cream,Tomato Paste (Tomatoes,Citric Acid),Garlic,Fresh Ginger,Expeller Pressed Canola Oil,Spices,Sea Salt. Whole Grain Wrap: Whole Wheat Flour,Water,Expeller Pressed Canola Oil,Sea Salt.;156.0;0.0;1.0;270.0;60.0;6.0;10.0;1.5;6.0;0.0;5.0;2.0;420.0;18.0;5.0;0.0;45.0;15.0;9.0;36.0;4.0;11.0;60;15.0;8.0;20.0
0857063002423;Wasabi Crunchy Chickpeas;50000000;;;;http://product.okfn.org.s3.amazonaws.com/images/gtin/gtin-085/0857063002423.jpg;MEJZBY;Saffron Road;http://product.okfn.org.s3.amazonaws.com/images/brand/MEJZBY.jpg;http://www.saffronroadfood.com;;;;;;0857063002;0857063002003;American Halal;US;Stamford;06905;1177 Summer St;;CT;;0;1;;;;6.0;;;;;GS1 US;US;Organic Chickpeas,Expeller Pressed Canola Oil,Cane Sugar,Modified Food Starch,Salt,Yeast Extract,Dehydrated Vegetable Powders,Onion Powder,Natural Flavorings (Horseradish Powder,Spinach Powder,Mustard Flour,Maltodextrin,Autolyzed Yeast Extract,Natural Flavoring),Garlic Powder,Spices,Citric Acid.;28.0;0.0;6.0;120.0;29.0;4.0;5.0;0.0;0.0;0.0;0.0;0.0;200.0;8.0;0.0;0.0;16.0;6.0;1.0;4.0;2.0;6.0;0;0.0;0.0;0.0
0857063002461;Falafel Crunchy Chickpeas;50000000;;;;http://product.okfn.org.s3.amazonaws.com/images/gtin/gtin-085/0857063002461.jpg;MEJZBY;Saffron Road;http://product.okfn.org.s3.amazonaws.com/images/brand/MEJZBY.jpg;http://www.saffronroadfood.com;;;;;;0857063002;0857063002003;American Halal;US;Stamford;06905;1177 Summer St;;CT;;0;1;;;;6.0;;;;;GS1 US;US;Organic Chickpeas,Expeller Pressed Canola Oil,Cane Sugar,Tapioca Dextrin,Spices,Salt,Black Bean Powder (Black Beans,Sugar),Onion Powder,Garlic Powder,Lemon Juice Powder (Lemon Juice Concentrate,Maltodextrin),Paprika,Granulated Garlic,Turmeric,Yeast Extract.;28.0;0.0;6.0;120.0;29.0;4.0;5.0;0.0;0.0;0.0;0.0;0.0;190.0;8.0;0.0;0.0;16.0;6.0;1.0;4.0;2.0;6.0;0;0.0;0.0;0.0
0857063002515;Traditional Chicken Broth;50000000;;;;http://product.okfn.org.s3.amazonaws.com/images/gtin/gtin-085/0857063002515.jpg;MEJZBY;Saffron Road;http://product.okfn.org.s3.amazonaws.com/images/brand/MEJZBY.jpg;http://www.saffronroadfood.com;;;;;;0857063002;0857063002003;American Halal;US;Stamford;06905;1177 Summer St;;CT;;0;1;;;;32.0;;;;;GS1 US;US;Chicken Stock,Celery Stock,Carrot Stock,Onion Stock,Sea Salt,Natural Flavor,Spices.;0.0;240.0;4.0;15.0;0.0;0.0;0.0;0.0;0.0;0.0;0.0;0.0;140.0;6.0;90.0;3.0;0.0;0.0;0.0;0.0;0.0;2.0;0;0.0;0.0;0.0
0857063002522;Classic Vegetable Broth;50000000;;;;http://product.okfn.org.s3.amazonaws.com/images/gtin/gtin-085/0857063002522.jpg;MEJZBY;Saffron Road;http://product.okfn.org.s3.amazonaws.com/images/brand/MEJZBY.jpg;http://www.saffronroadfood.com;;;;;;0857063002;0857063002003;American Halal;US;Stamford;06905;1177 Summer St;;CT;;0;1;;;;32.0;;;;;GS1 US;US;Mirepoix Stock (Carrot,Celery And Onion Stocks),Carrot Stock,Celery Stock,Onion Stock,Cabbage Stock,Sautéed Carrot Stock (Carrot Stock,Sunflower Oil),Sea Salt,Mushroom Stock,Garlic Juice,Tomato Paste,Natural Flavors,Leek Stock,Salt,Spice.;0.0;240.0;4.0;10.0;0.0;0.0;0.0;0.0;0.0;0.0;0.0;0.0;140.0;6.0;70.0;2.0;2.0;1.0;0.0;0.0;2.0;0.0;6;0.0;0.0;0.0
0857063002614;Rogan Josh;50000000;;;;http://product.okfn.org.s3.amazonaws.com/images/gtin/gtin-085/0857063002614.jpg;MEJZBY;Saffron Road;http://product.okfn.org.s3.amazonaws.com/images/brand/MEJZBY.jpg;http://www.saffronroadfood.com;;;;;;0857063002;0857063002003;American Halal;US;Stamford;06905;1177 Summer St;;CT;;0;1;;;;7.0;;;;;GS1 US;US;Water,Diced Onion,Tomato Paste,Sugar,Canola Oil,Diced Red Bell Pepper,Garlic Puree (Garlic,Vinegar),Onion Juice (Onion Juice,Salt),Modified Corn Starch,Salt,Red Pepper Puree,Lemon Juice Concentrate,Diced Green Bell Pepper,Spices,Soy Lecithin,Dehydrated Garlic,Turmeric,Paprika,Natural Flavors,Sunflower Oil,Xanthan Gum,Natural Smoke Flavor. CONTAINS: SOY.;30.0;0.0;7.0;25.0;10.0;1.0;2.0;0.0;0.0;0.0;0.0;0.0;270.0;11.0;0.0;0.0;3.0;1.0;0.0;0.0;2.0;0.0;3;10.0;0.0;1.0
0857063002645;Korean Stir Fry;50000000;;;;http://product.okfn.org.s3.amazonaws.com/images/gtin/gtin-085/0857063002645.jpg;MEJZBY;Saffron Road;http://product.okfn.org.s3.amazonaws.com/images/brand/MEJZBY.jpg;http://www.saffronroadfood.com;;;;;;0857063002;0857063002003;American Halal;US;Stamford;06905;1177 Summer St;;CT;;0;1;;;;7.0;;;;;GS1 US;US;Water,Pear Juice Concentrate,Non-Gmo Gluten-Free Reduced Sodium Tamari (Water,Soybeans,Salt),Toasted Sesame Oil,Non-Gmo Native Corn Starch,Apple Juice Concentrate,Non-Gmo Miso Powder (Soybeans,Salt,Modified Tapioca Starch),Lemon Juice Concentrate,Garlic,Spice,Authentic Korean Red Pepper (Gochugaru),Onion Powder,Xanthan Gum.;30.0;0.0;7.0;35.0;15.0;1.5;2.0;0.0;1.0;0.0;0.0;0.0;180.0;8.0;0.0;0.0;5.0;2.0;0.0;2.0;3.0;0.0;2;2.0;0.0;3.0
